; Voron Trident continuous non-planar G-code
; nozzle=0.4 line_width=0.45 layer_height=0.2
; max_z_velocity=25.0 mm/s (feedrate clamped to honour this)

PRINT_START EXTRUDER=210 BED=60 MATERIAL=PLA
M83            ; relative extrusion
G92 E0
M107           ; fan off for first layer(s)

G1 X100.0000 Y100.0000 Z0.2000 F12000  ; travel
G1 X105.0000 Y100.0000 Z0.2000 E0.21000 F1200
G1 X105.0000 Y105.0000 Z0.2000 E0.21000 F1200
G1 X100.0000 Y105.0000 Z0.2000 E0.21000 F1200
G1 X100.0000 Y100.0000 Z0.2000 E0.21000 F1200
G1 E-0.6000 F3600
G1 X101.0000 Y101.0000 Z0.2000 F12000  ; travel
G1 E0.6000 F2400
G1 X104.0000 Y101.0000 Z0.2000 E0.15000 F1200
G1 X101.0000 Y104.0000 Z0.2000 E0.15000 F1200
G1 X104.0000 Y104.0000 Z0.2000 E0.15000 F1200
G1 E-0.6000 F3600
G1 X104.0000 Y104.0000 Z0.4000 F1500  ; travel
G1 X100.0000 Y100.0000 Z0.4000 F12000  ; travel
G1 E0.6000 F2400
G1 X105.0000 Y100.0000 Z0.4000 E0.21000 F1200
G1 X105.0000 Y105.0000 Z0.4000 E0.21000 F1200
G1 X100.0000 Y105.0000 Z0.4000 E0.21000 F1200
G1 X100.0000 Y100.0000 Z0.4000 E0.21000 F1200
G1 E-0.6000 F3600
; hybrid: non-planar wall begins here (z=0.4500)
M106 S255  ; fan 100%
; move to fabric start
G1 X104.8700 Y102.5000 Z5.4500 F2212  ; travel
G1 X104.8700 Y102.5000 Z0.4500 F1500  ; travel
G1 E0.6000 F2400
; loop fabric (6 rows x 24 stitches, dip stitch)
G1 X101.0218 Y100.5383 Z0.8764 E0.38978 F600
G1 X100.9546 Y100.4785 Z0.7300 E0.01543 F600
G1 X100.8995 Y100.3567 Z0.5300 E0.02160 F600
G1 X100.8874 Y100.1881 Z0.3300 E0.02352 F600
G1 X100.9402 Y100.0037 Z0.1836 E0.02167 F600
G1 X101.0767 Y99.8787 Z0.1300 E0.01731 F600
G1 X101.2706 Y99.8635 Z0.1836 E0.01811 F600
G1 X101.4500 Y99.9147 Z0.3300 E0.02130 F600
G1 X101.5827 Y100.0137 Z0.5300 E0.02332 F600
G1 X101.6546 Y100.1263 Z0.7300 E0.02160 F600
G1 X101.6684 Y100.2151 Z0.8764 E0.01543 F600
G1 X101.6377 Y100.2535 Z0.9300 E0.00653 F600
G1 X101.5829 Y100.2302 Z0.8764 E0.00719 F600
G1 X101.5311 Y100.1490 Z0.7300 E0.01574 F600
G1 X101.5134 Y100.0270 Z0.5300 E0.02110 F600
G1 X101.5565 Y99.8933 Z0.3300 E0.02195 F600
G1 X101.6689 Y99.7817 Z0.1836 E0.01937 F600
G1 X101.8332 Y99.7224 Z0.1300 E0.01640 F600
G1 X102.0124 Y99.7345 Z0.1836 E0.01683 F600
G1 X102.1652 Y99.8134 Z0.3300 E0.02029 F600
G1 X102.2641 Y99.9328 Z0.5300 E0.02272 F600
G1 X102.3032 Y100.0556 Z0.7300 E0.02137 F600
G1 X102.2942 Y100.1477 Z0.8764 E0.01556 F600
G1 X102.2566 Y100.1839 Z0.9300 E0.00672 F600
G1 X102.2117 Y100.1521 Z0.8764 E0.00690 F600
G1 X102.1835 Y100.0622 Z0.7300 E0.01564 F600
G1 X102.1966 Y99.9367 Z0.5300 E0.02124 F600
G1 X102.2693 Y99.8072 Z0.3300 E0.02237 F600
G1 X102.4026 Y99.7106 Z0.1836 E0.01979 F600
G1 X102.5739 Y99.6769 Z0.1300 E0.01640 F600
G1 X102.7435 Y99.7164 Z0.1836 E0.01636 F600
G1 X102.8723 Y99.8158 Z0.3300 E0.01966 F600
G1 X102.9388 Y99.9465 Z0.5300 E0.02227 F600
G1 X102.9454 Y100.0726 Z0.7300 E0.02124 F600
G1 X102.9124 Y100.1609 Z0.8764 E0.01564 F600
G1 X102.8658 Y100.1903 Z0.9300 E0.00690 F600
G1 X102.8297 Y100.1543 Z0.8764 E0.00665 F600
G1 X102.8253 Y100.0626 Z0.7300 E0.01552 F600
G1 X102.8711 Y99.9407 Z0.5300 E0.02143 F600
G1 X102.9766 Y99.8251 Z0.3300 E0.02281 F600
G1 X103.1344 Y99.7521 Z0.1836 E0.02041 F600
G1 X103.3160 Y99.7451 Z0.1300 E0.01702 F600
G1 X103.4797 Y99.8082 Z0.1836 E0.01647 F600
G1 X103.5882 Y99.9234 Z0.3300 E0.01936 F600
G1 X103.6261 Y100.0574 Z0.5300 E0.02188 F600
G1 X103.6032 Y100.1765 Z0.7300 E0.02100 F600
G1 X103.5464 Y100.2559 Z0.8764 E0.01580 F600
G1 X103.4888 Y100.2791 Z0.9300 E0.00737 F600
G1 X103.4598 Y100.2389 Z0.8764 E0.00655 F600
G1 X103.4780 Y100.1509 Z0.7300 E0.01543 F600
G1 X103.5559 Y100.0423 Z0.5300 E0.02160 F600
G1 X103.6958 Y99.9475 Z0.3300 E0.02352 F600
G1 X103.8819 Y99.9010 Z0.1836 E0.02167 F600
G1 X104.0585 Y99.9568 Z0.1300 E0.01731 F600
G1 X104.1686 Y100.1170 Z0.1836 E0.01811 F600
G1 X104.2140 Y100.2980 Z0.3300 E0.02130 F600
G1 X104.1946 Y100.4625 Z0.5300 E0.02332 F600
G1 X104.1330 Y100.5810 Z0.7300 E0.02160 F600
G1 X104.0630 Y100.6373 Z0.8764 E0.01543 F600
G1 X104.0143 Y100.6299 Z0.9300 E0.00653 F600
G1 X104.0072 Y100.5709 Z0.8764 E0.00719 F600
G1 X104.0516 Y100.4854 Z0.7300 E0.01574 F600
G1 X104.1483 Y100.4091 Z0.5300 E0.02110 F600
G1 X104.2857 Y100.3796 Z0.3300 E0.02195 F600
G1 X104.4386 Y100.4211 Z0.1836 E0.01937 F600
G1 X104.5720 Y100.5337 Z0.1300 E0.01640 F600
G1 X104.6512 Y100.6949 Z0.1836 E0.01683 F600
G1 X104.6593 Y100.8668 Z0.3300 E0.02029 F600
G1 X104.6053 Y101.0121 Z0.5300 E0.02272 F600
G1 X104.5185 Y101.1074 Z0.7300 E0.02137 F600
G1 X104.4342 Y101.1456 Z0.8764 E0.01556 F600
G1 X104.3840 Y101.1312 Z0.9300 E0.00672 F600
G1 X104.3892 Y101.0764 Z0.8764 E0.00690 F600
G1 X104.4530 Y101.0070 Z0.7300 E0.01564 F600
G1 X104.5682 Y100.9556 Z0.5300 E0.02124 F600
G1 X104.7167 Y100.9538 Z0.3300 E0.02237 F600
G1 X104.8670 Y101.0209 Z0.1836 E0.01979 F600
G1 X104.9818 Y101.1525 Z0.1300 E0.01640 F600
G1 X105.0325 Y101.3191 Z0.1836 E0.01636 F600
G1 X105.0108 Y101.4803 Z0.3300 E0.01966 F600
G1 X104.9307 Y101.6033 Z0.5300 E0.02227 F600
G1 X104.8249 Y101.6720 Z0.7300 E0.02124 F600
G1 X104.7319 Y101.6876 Z0.8764 E0.01564 F600
G1 X104.6831 Y101.6620 Z0.9300 E0.00690 F600
G1 X104.6963 Y101.6127 Z0.8764 E0.00665 F600
G1 X104.7735 Y101.5631 Z0.7300 E0.01552 F600
G1 X104.9020 Y101.5417 Z0.5300 E0.02143 F600
G1 X105.0548 Y101.5753 Z0.3300 E0.02281 F600
G1 X105.1970 Y101.6755 Z0.1836 E0.02041 F600
G1 X105.2938 Y101.8293 Z0.1300 E0.01702 F600
G1 X105.3210 Y102.0026 Z0.1836 E0.01647 F600
G1 X105.2755 Y102.1542 Z0.3300 E0.01936 F600
G1 X105.1784 Y102.2539 Z0.5300 E0.02188 F600
G1 X105.0638 Y102.2936 Z0.7300 E0.02100 F600
G1 X104.9666 Y102.2842 Z0.8764 E0.01580 F600
G1 X104.9178 Y102.2459 Z0.9300 E0.00737 F600
G1 X104.9380 Y102.2007 Z0.8764 E0.00655 F600
G1 X105.0234 Y102.1724 Z0.7300 E0.01543 F600
G1 X105.1563 Y102.1856 Z0.5300 E0.02160 F600
G1 X105.3085 Y102.2594 Z0.3300 E0.02352 F600
G1 X105.4417 Y102.3973 Z0.1836 E0.02167 F600
G1 X105.4817 Y102.5781 Z0.1300 E0.01731 F600
G1 X105.3980 Y102.7535 Z0.1836 E0.01811 F600
G1 X105.2640 Y102.8834 Z0.3300 E0.02130 F600
G1 X105.1118 Y102.9488 Z0.5300 E0.02332 F600
G1 X104.9784 Y102.9547 Z0.7300 E0.02160 F600
G1 X104.8946 Y102.9222 Z0.8764 E0.01543 F600
G1 X104.8767 Y102.8764 Z0.9300 E0.00653 F600
G1 X104.9242 Y102.8407 Z0.8764 E0.00719 F600
G1 X105.0205 Y102.8364 Z0.7300 E0.01574 F600
G1 X105.1349 Y102.8820 Z0.5300 E0.02110 F600
G1 X105.2292 Y102.9863 Z0.3300 E0.02195 F600
G1 X105.2696 Y103.1394 Z0.1836 E0.01937 F600
G1 X105.2388 Y103.3113 Z0.1300 E0.01640 F600
G1 X105.1388 Y103.4605 Z0.1836 E0.01683 F600
G1 X104.9940 Y103.5534 Z0.3300 E0.02029 F600
G1 X104.8412 Y103.5793 Z0.5300 E0.02272 F600
G1 X104.7153 Y103.5518 Z0.7300 E0.02137 F600
G1 X104.6400 Y103.4979 Z0.8764 E0.01556 F600
G1 X104.6275 Y103.4472 Z0.9300 E0.00672 F600
G1 X104.6775 Y103.4243 Z0.8764 E0.00690 F600
G1 X104.7695 Y103.4448 Z0.7300 E0.01564 F600
G1 X104.8716 Y103.5189 Z0.5300 E0.02124 F600
G1 X104.9474 Y103.6466 Z0.3300 E0.02237 F600
G1 X104.9644 Y103.8103 Z0.1836 E0.01979 F600
G1 X104.9079 Y103.9756 Z0.1300 E0.01640 F600
G1 X104.7889 Y104.1027 Z0.1836 E0.01636 F600
G1 X104.6384 Y104.1646 Z0.3300 E0.01966 F600
G1 X104.4920 Y104.1567 Z0.5300 E0.02227 F600
G1 X104.3795 Y104.0994 Z0.7300 E0.02124 F600
G1 X104.3195 Y104.0267 Z0.8764 E0.01564 F600
G1 X104.3173 Y103.9716 Z0.9300 E0.00690 F600
G1 X104.3666 Y103.9583 Z0.8764 E0.00665 F600
G1 X104.4481 Y104.0004 Z0.7300 E0.01552 F600
G1 X104.5309 Y104.1010 Z0.5300 E0.02143 F600
G1 X104.5782 Y104.2502 Z0.3300 E0.02281 F600
G1 X104.5626 Y104.4234 Z0.1836 E0.02041 F600
G1 X104.4778 Y104.5841 Z0.1300 E0.01702 F600
G1 X104.3413 Y104.6944 Z0.1836 E0.01647 F600
G1 X104.1873 Y104.7307 Z0.3300 E0.01936 F600
G1 X104.0523 Y104.6965 Z0.5300 E0.02188 F600
G1 X103.9607 Y104.6171 Z0.7300 E0.02100 F600
G1 X103.9202 Y104.5283 Z0.8764 E0.01580 F600
G1 X103.9290 Y104.4668 Z0.9300 E0.00737 F600
G1 X103.9782 Y104.4617 Z0.8764 E0.00655 F600
G1 X104.0454 Y104.5215 Z0.7300 E0.01543 F600
G1 X104.1005 Y104.6433 Z0.5300 E0.02160 F600
G1 X104.1126 Y104.8119 Z0.3300 E0.02352 F600
G1 X104.0598 Y104.9963 Z0.1836 E0.02167 F600
G1 X103.9233 Y105.1213 Z0.1300 E0.01731 F600
G1 X103.7294 Y105.1365 Z0.1836 E0.01811 F600
G1 X103.5500 Y105.0853 Z0.3300 E0.02130 F600
G1 X103.4173 Y104.9863 Z0.5300 E0.02332 F600
G1 X103.3454 Y104.8737 Z0.7300 E0.02160 F600
G1 X103.3316 Y104.7849 Z0.8764 E0.01543 F600
G1 X103.3623 Y104.7465 Z0.9300 E0.00653 F600
G1 X103.4171 Y104.7698 Z0.8764 E0.00719 F600
G1 X103.4689 Y104.8510 Z0.7300 E0.01574 F600
G1 X103.4866 Y104.9730 Z0.5300 E0.02110 F600
G1 X103.4435 Y105.1067 Z0.3300 E0.02195 F600
G1 X103.3311 Y105.2183 Z0.1836 E0.01937 F600
G1 X103.1668 Y105.2776 Z0.1300 E0.01640 F600
G1 X102.9876 Y105.2655 Z0.1836 E0.01683 F600
G1 X102.8348 Y105.1866 Z0.3300 E0.02029 F600
G1 X102.7359 Y105.0672 Z0.5300 E0.02272 F600
G1 X102.6968 Y104.9444 Z0.7300 E0.02137 F600
G1 X102.7058 Y104.8523 Z0.8764 E0.01556 F600
G1 X102.7434 Y104.8161 Z0.9300 E0.00672 F600
G1 X102.7883 Y104.8479 Z0.8764 E0.00690 F600
G1 X102.8165 Y104.9378 Z0.7300 E0.01564 F600
G1 X102.8034 Y105.0633 Z0.5300 E0.02124 F600
G1 X102.7307 Y105.1928 Z0.3300 E0.02237 F600
G1 X102.5974 Y105.2894 Z0.1836 E0.01979 F600
G1 X102.4261 Y105.3231 Z0.1300 E0.01640 F600
G1 X102.2565 Y105.2836 Z0.1836 E0.01636 F600
G1 X102.1277 Y105.1842 Z0.3300 E0.01966 F600
G1 X102.0612 Y105.0535 Z0.5300 E0.02227 F600
G1 X102.0546 Y104.9274 Z0.7300 E0.02124 F600
G1 X102.0876 Y104.8391 Z0.8764 E0.01564 F600
G1 X102.1342 Y104.8097 Z0.9300 E0.00690 F600
G1 X102.1703 Y104.8457 Z0.8764 E0.00665 F600
G1 X102.1747 Y104.9374 Z0.7300 E0.01552 F600
G1 X102.1289 Y105.0593 Z0.5300 E0.02143 F600
G1 X102.0234 Y105.1749 Z0.3300 E0.02281 F600
G1 X101.8656 Y105.2479 Z0.1836 E0.02041 F600
G1 X101.6840 Y105.2549 Z0.1300 E0.01702 F600
G1 X101.5203 Y105.1918 Z0.1836 E0.01647 F600
G1 X101.4118 Y105.0766 Z0.3300 E0.01936 F600
G1 X101.3739 Y104.9426 Z0.5300 E0.02188 F600
G1 X101.3968 Y104.8235 Z0.7300 E0.02100 F600
G1 X101.4536 Y104.7441 Z0.8764 E0.01580 F600
G1 X101.5112 Y104.7209 Z0.9300 E0.00737 F600
G1 X101.5402 Y104.7611 Z0.8764 E0.00655 F600
G1 X101.5220 Y104.8491 Z0.7300 E0.01543 F600
G1 X101.4441 Y104.9577 Z0.5300 E0.02160 F600
G1 X101.3042 Y105.0525 Z0.3300 E0.02352 F600
G1 X101.1181 Y105.0990 Z0.1836 E0.02167 F600
G1 X100.9415 Y105.0432 Z0.1300 E0.01731 F600
G1 X100.8314 Y104.8830 Z0.1836 E0.01811 F600
G1 X100.7860 Y104.7020 Z0.3300 E0.02130 F600
G1 X100.8054 Y104.5375 Z0.5300 E0.02332 F600
G1 X100.8670 Y104.4190 Z0.7300 E0.02160 F600
G1 X100.9370 Y104.3627 Z0.8764 E0.01543 F600
G1 X100.9857 Y104.3701 Z0.9300 E0.00653 F600
G1 X100.9928 Y104.4291 Z0.8764 E0.00719 F600
G1 X100.9484 Y104.5146 Z0.7300 E0.01574 F600
G1 X100.8517 Y104.5909 Z0.5300 E0.02110 F600
G1 X100.7143 Y104.6204 Z0.3300 E0.02195 F600
G1 X100.5614 Y104.5789 Z0.1836 E0.01937 F600
G1 X100.4280 Y104.4663 Z0.1300 E0.01640 F600
G1 X100.3488 Y104.3051 Z0.1836 E0.01683 F600
G1 X100.3407 Y104.1332 Z0.3300 E0.02029 F600
G1 X100.3947 Y103.9879 Z0.5300 E0.02272 F600
G1 X100.4815 Y103.8926 Z0.7300 E0.02137 F600
G1 X100.5658 Y103.8544 Z0.8764 E0.01556 F600
G1 X100.6160 Y103.8688 Z0.9300 E0.00672 F600
G1 X100.6108 Y103.9236 Z0.8764 E0.00690 F600
G1 X100.5470 Y103.9930 Z0.7300 E0.01564 F600
G1 X100.4318 Y104.0444 Z0.5300 E0.02124 F600
G1 X100.2833 Y104.0462 Z0.3300 E0.02237 F600
G1 X100.1330 Y103.9791 Z0.1836 E0.01979 F600
G1 X100.0182 Y103.8475 Z0.1300 E0.01640 F600
G1 X99.9675 Y103.6809 Z0.1836 E0.01636 F600
G1 X99.9892 Y103.5197 Z0.3300 E0.01966 F600
G1 X100.0693 Y103.3967 Z0.5300 E0.02227 F600
G1 X100.1751 Y103.3280 Z0.7300 E0.02124 F600
G1 X100.2681 Y103.3124 Z0.8764 E0.01564 F600
G1 X100.3169 Y103.3380 Z0.9300 E0.00690 F600
G1 X100.3037 Y103.3873 Z0.8764 E0.00665 F600
G1 X100.2265 Y103.4369 Z0.7300 E0.01552 F600
G1 X100.0980 Y103.4583 Z0.5300 E0.02143 F600
G1 X99.9452 Y103.4247 Z0.3300 E0.02281 F600
G1 X99.8030 Y103.3245 Z0.1836 E0.02041 F600
G1 X99.7062 Y103.1707 Z0.1300 E0.01702 F600
G1 X99.6790 Y102.9974 Z0.1836 E0.01647 F600
G1 X99.7245 Y102.8458 Z0.3300 E0.01936 F600
G1 X99.8216 Y102.7461 Z0.5300 E0.02188 F600
G1 X99.9362 Y102.7064 Z0.7300 E0.02100 F600
G1 X100.0334 Y102.7158 Z0.8764 E0.01580 F600
G1 X100.0822 Y102.7541 Z0.9300 E0.00737 F600
G1 X100.0620 Y102.7993 Z0.8764 E0.00655 F600
G1 X99.9766 Y102.8276 Z0.7300 E0.01543 F600
G1 X99.8437 Y102.8144 Z0.5300 E0.02160 F600
G1 X99.6915 Y102.7406 Z0.3300 E0.02352 F600
G1 X99.5583 Y102.6027 Z0.1836 E0.02167 F600
G1 X99.5183 Y102.4219 Z0.1300 E0.01731 F600
G1 X99.6020 Y102.2465 Z0.1836 E0.01811 F600
G1 X99.7360 Y102.1166 Z0.3300 E0.02130 F600
G1 X99.8882 Y102.0512 Z0.5300 E0.02332 F600
G1 X100.0216 Y102.0453 Z0.7300 E0.02160 F600
G1 X100.1054 Y102.0778 Z0.8764 E0.01543 F600
G1 X100.1233 Y102.1236 Z0.9300 E0.00653 F600
G1 X100.0758 Y102.1593 Z0.8764 E0.00719 F600
G1 X99.9795 Y102.1636 Z0.7300 E0.01574 F600
G1 X99.8651 Y102.1180 Z0.5300 E0.02110 F600
G1 X99.7708 Y102.0137 Z0.3300 E0.02195 F600
G1 X99.7304 Y101.8606 Z0.1836 E0.01937 F600
G1 X99.7612 Y101.6887 Z0.1300 E0.01640 F600
G1 X99.8612 Y101.5395 Z0.1836 E0.01683 F600
G1 X100.0060 Y101.4466 Z0.3300 E0.02029 F600
G1 X100.1588 Y101.4207 Z0.5300 E0.02272 F600
G1 X100.2847 Y101.4482 Z0.7300 E0.02137 F600
G1 X100.3600 Y101.5021 Z0.8764 E0.01556 F600
G1 X100.3725 Y101.5528 Z0.9300 E0.00672 F600
G1 X100.3225 Y101.5757 Z0.8764 E0.00690 F600
G1 X100.2305 Y101.5552 Z0.7300 E0.01564 F600
G1 X100.1284 Y101.4811 Z0.5300 E0.02124 F600
G1 X100.0526 Y101.3534 Z0.3300 E0.02237 F600
G1 X100.0356 Y101.1897 Z0.1836 E0.01979 F600
G1 X100.0921 Y101.0244 Z0.1300 E0.01640 F600
G1 X100.2111 Y100.8973 Z0.1836 E0.01636 F600
G1 X100.3616 Y100.8354 Z0.3300 E0.01966 F600
G1 X100.5080 Y100.8433 Z0.5300 E0.02227 F600
G1 X100.6205 Y100.9006 Z0.7300 E0.02124 F600
G1 X100.6805 Y100.9733 Z0.8764 E0.01564 F600
G1 X100.6827 Y101.0284 Z0.9300 E0.00690 F600
G1 X100.6334 Y101.0417 Z0.8764 E0.00665 F600
G1 X100.5519 Y100.9996 Z0.7300 E0.01552 F600
G1 X100.4691 Y100.8990 Z0.5300 E0.02143 F600
G1 X100.4218 Y100.7498 Z0.3300 E0.02281 F600
G1 X100.4374 Y100.5766 Z0.1836 E0.02041 F600
G1 X100.5222 Y100.4159 Z0.1300 E0.01702 F600
G1 X100.6587 Y100.3056 Z0.1836 E0.01647 F600
G1 X100.8127 Y100.2693 Z0.3300 E0.01936 F600
G1 X100.9477 Y100.3035 Z0.5300 E0.02188 F600
G1 X101.0393 Y100.3829 Z0.7300 E0.02100 F600
G1 X101.0798 Y100.4717 Z0.8764 E0.01580 F600
G1 X101.0710 Y100.5332 Z0.9300 E0.00737 F600
; row 1/6
G1 X101.2525 Y100.2950 Z1.3764 E0.04827 F600
G1 X101.1916 Y100.2243 Z1.2300 E0.01559 F600
G1 X101.1563 Y100.1007 Z1.0300 E0.02135 F600
G1 X101.1771 Y99.9475 Z0.8300 E0.02270 F600
G1 X101.2699 Y99.8007 Z0.6836 E0.02040 F600
G1 X101.4250 Y99.6995 Z0.6300 E0.01732 F600
G1 X101.6080 Y99.6711 Z0.6836 E0.01732 F600
G1 X101.7752 Y99.7182 Z0.8300 E0.02040 F600
G1 X101.8932 Y99.8181 Z1.0300 E0.02270 F600
G1 X101.9497 Y99.9337 Z1.2300 E0.02135 F600
G1 X101.9517 Y100.0269 Z1.3764 E0.01559 F600
G1 X101.9165 Y100.0694 Z1.4300 E0.00691 F600
G1 X101.8657 Y100.0475 Z1.3764 E0.00691 F600
G1 X101.8252 Y99.9635 Z1.2300 E0.01559 F600
G1 X101.8232 Y99.8349 Z1.0300 E0.02135 F600
G1 X101.8828 Y99.6924 Z0.8300 E0.02270 F600
G1 X102.0104 Y99.5745 Z0.6836 E0.02040 F600
G1 X102.1865 Y99.5168 Z0.6300 E0.01732 F600
G1 X102.3706 Y99.5367 Z0.6836 E0.01732 F600
G1 X102.5199 Y99.6255 Z0.8300 E0.02040 F600
G1 X102.6079 Y99.7525 Z1.0300 E0.02270 F600
G1 X102.6327 Y99.8787 Z1.2300 E0.02135 F600
G1 X102.6105 Y99.9693 Z1.3764 E0.01559 F600
G1 X102.5654 Y100.0012 Z1.4300 E0.00691 F600
G1 X102.5221 Y99.9670 Z1.3764 E0.00691 F600
G1 X102.5047 Y99.8754 Z1.2300 E0.01559 F600
G1 X102.5360 Y99.7506 Z1.0300 E0.02135 F600
G1 X102.6305 Y99.6284 Z0.8300 E0.02270 F600
G1 X102.7843 Y99.5475 Z0.6836 E0.02040 F600
G1 X102.9692 Y99.5373 Z0.6300 E0.01732 F600
G1 X103.1420 Y99.6041 Z0.6836 E0.01732 F600
G1 X103.2633 Y99.7285 Z0.8300 E0.02040 F600
G1 X103.3154 Y99.8740 Z1.0300 E0.02270 F600
G1 X103.3066 Y100.0023 Z1.2300 E0.02135 F600
G1 X103.2618 Y100.0840 Z1.3764 E0.01559 F600
G1 X103.2100 Y100.1032 Z1.4300 E0.00691 F600
G1 X103.1770 Y100.0589 Z1.3764 E0.00691 F600
G1 X103.1839 Y99.9660 Z1.2300 E0.01559 F600
G1 X103.2464 Y99.8535 Z1.0300 E0.02135 F600
G1 X103.3694 Y99.7599 Z0.8300 E0.02270 F600
G1 X103.5388 Y99.7216 Z0.6836 E0.02040 F600
G1 X103.7201 Y99.7595 Z0.6300 E0.01732 F600
G1 X103.8698 Y99.8687 Z0.6836 E0.01732 F600
G1 X103.9547 Y100.0202 Z0.8300 E0.02040 F600
G1 X103.9674 Y100.1743 Z1.0300 E0.02270 F600
G1 X103.9257 Y100.2960 Z1.2300 E0.02136 F600
G1 X103.8612 Y100.3633 Z1.3764 E0.01559 F600
G1 X103.8062 Y100.3684 Z1.4300 E0.00691 F600
G1 X103.7858 Y100.3171 Z1.3764 E0.00691 F600
G1 X103.8166 Y100.2290 Z1.2300 E0.01559 F600
G1 X103.9060 Y100.1366 Z1.0300 E0.02135 F600
G1 X104.0491 Y100.0781 Z0.8300 E0.02270 F600
G1 X104.2226 Y100.0850 Z0.6836 E0.02040 F600
G1 X104.3878 Y100.1687 Z0.6300 E0.01732 F600
G1 X104.5040 Y100.3131 Z0.6836 E0.01732 F600
G1 X104.5468 Y100.4814 Z0.8300 E0.02040 F600
G1 X104.5191 Y100.6335 Z1.0300 E0.02270 F600
G1 X104.4473 Y100.7403 Z1.2300 E0.02135 F600
G1 X104.3676 Y100.7886 Z1.3764 E0.01559 F600
G1 X104.3132 Y100.7793 Z1.4300 E0.00691 F600
G1 X104.3068 Y100.7245 Z1.3764 E0.00691 F600
G1 X104.3593 Y100.6474 Z1.2300 E0.01559 F600
G1 X104.4696 Y100.5813 Z1.0300 E0.02135 F600
G1 X104.6229 Y100.5617 Z0.8300 E0.02270 F600
G1 X104.7888 Y100.6133 Z0.6836 E0.02040 F600
G1 X104.9267 Y100.7369 Z0.6300 E0.01732 F600
G1 X105.0016 Y100.9063 Z0.6836 E0.01732 F600
G1 X104.9994 Y101.0800 Z0.8300 E0.02040 F600
G1 X104.9334 Y101.2197 Z1.0300 E0.02270 F600
G1 X104.8364 Y101.3043 Z1.2300 E0.02135 F600
G1 X104.7469 Y101.3303 Z1.3764 E0.01559 F600
G1 X104.6967 Y101.3073 Z1.4300 E0.00691 F600
G1 X104.7047 Y101.2526 Z1.3764 E0.00691 F600
G1 X104.7753 Y101.1918 Z1.2300 E0.01559 F600
G1 X104.8990 Y101.1565 Z1.0300 E0.02135 F600
G1 X105.0522 Y101.1772 Z0.8300 E0.02270 F600
G1 X105.1991 Y101.2700 Z0.6836 E0.02040 F600
G1 X105.3004 Y101.4250 Z0.6300 E0.01732 F600
G1 X105.3289 Y101.6081 Z0.6836 E0.01732 F600
G1 X105.2818 Y101.7752 Z0.8300 E0.02040 F600
G1 X105.1819 Y101.8931 Z1.0300 E0.02270 F600
G1 X105.0664 Y101.9497 Z1.2300 E0.02135 F600
G1 X104.9732 Y101.9517 Z1.3764 E0.01559 F600
G1 X104.9306 Y101.9165 Z1.4300 E0.00691 F600
G1 X104.9525 Y101.8657 Z1.3764 E0.00691 F600
G1 X105.0365 Y101.8252 Z1.2300 E0.01559 F600
G1 X105.1651 Y101.8232 Z1.0300 E0.02135 F600
G1 X105.3077 Y101.8828 Z0.8300 E0.02270 F600
G1 X105.4256 Y102.0104 Z0.6836 E0.02040 F600
G1 X105.4834 Y102.1864 Z0.6300 E0.01732 F600
G1 X105.4636 Y102.3706 Z0.6836 E0.01732 F600
G1 X105.3749 Y102.5199 Z0.8300 E0.02040 F600
G1 X105.2478 Y102.6080 Z1.0300 E0.02270 F600
G1 X105.1216 Y102.6327 Z1.2300 E0.02136 F600
G1 X105.0310 Y102.6105 Z1.3764 E0.01559 F600
G1 X104.9991 Y102.5654 Z1.4300 E0.00691 F600
G1 X105.0334 Y102.5221 Z1.3764 E0.00691 F600
G1 X105.1250 Y102.5047 Z1.2300 E0.01559 F600
G1 X105.2497 Y102.5360 Z1.0300 E0.02135 F600
G1 X105.3720 Y102.6306 Z0.8300 E0.02270 F600
G1 X105.4527 Y102.7843 Z0.6836 E0.02040 F600
G1 X105.4629 Y102.9693 Z0.6300 E0.01732 F600
G1 X105.3959 Y103.1420 Z0.6836 E0.01732 F600
G1 X105.2715 Y103.2633 Z0.8300 E0.02040 F600
G1 X105.1260 Y103.3154 Z1.0300 E0.02270 F600
G1 X104.9977 Y103.3066 Z1.2300 E0.02135 F600
G1 X104.9159 Y103.2617 Z1.3764 E0.01559 F600
G1 X104.8967 Y103.2099 Z1.4300 E0.00691 F600
G1 X104.9411 Y103.1770 Z1.3764 E0.00691 F600
G1 X105.0340 Y103.1839 Z1.2300 E0.01559 F600
G1 X105.1465 Y103.2464 Z1.0300 E0.02135 F600
G1 X105.2401 Y103.3694 Z0.8300 E0.02270 F600
G1 X105.2783 Y103.5388 Z0.6836 E0.02040 F600
G1 X105.2403 Y103.7201 Z0.6300 E0.01732 F600
G1 X105.1310 Y103.8696 Z0.6836 E0.01732 F600
G1 X104.9795 Y103.9545 Z0.8300 E0.02040 F600
G1 X104.8254 Y103.9672 Z1.0300 E0.02270 F600
G1 X104.7037 Y103.9255 Z1.2300 E0.02135 F600
G1 X104.6364 Y103.8610 Z1.3764 E0.01559 F600
G1 X104.6313 Y103.8060 Z1.4300 E0.00691 F600
G1 X104.6826 Y103.7856 Z1.3764 E0.00691 F600
G1 X104.7706 Y103.8164 Z1.2300 E0.01559 F600
G1 X104.8630 Y103.9059 Z1.0300 E0.02135 F600
G1 X104.9216 Y104.0489 Z0.8300 E0.02270 F600
G1 X104.9148 Y104.2224 Z0.6836 E0.02040 F600
G1 X104.8312 Y104.3877 Z0.6300 E0.01732 F600
G1 X104.6869 Y104.5039 Z0.6836 E0.01732 F600
G1 X104.5186 Y104.5468 Z0.8300 E0.02040 F600
G1 X104.3665 Y104.5192 Z1.0300 E0.02270 F600
G1 X104.2598 Y104.4474 Z1.2300 E0.02135 F600
G1 X104.2114 Y104.3677 Z1.3764 E0.01559 F600
G1 X104.2207 Y104.3132 Z1.4300 E0.00691 F600
G1 X104.2755 Y104.3068 Z1.3764 E0.00691 F600
G1 X104.3526 Y104.3593 Z1.2300 E0.01559 F600
G1 X104.4187 Y104.4696 Z1.0300 E0.02135 F600
G1 X104.4383 Y104.6230 Z0.8300 E0.02270 F600
G1 X104.3868 Y104.7889 Z0.6836 E0.02040 F600
G1 X104.2633 Y104.9269 Z0.6300 E0.01732 F600
G1 X104.0939 Y105.0019 Z0.6836 E0.01732 F600
G1 X103.9202 Y104.9997 Z0.8300 E0.02040 F600
G1 X103.7804 Y104.9337 Z1.0300 E0.02270 F600
G1 X103.6959 Y104.8367 Z1.2300 E0.02136 F600
G1 X103.6698 Y104.7472 Z1.3764 E0.01559 F600
G1 X103.6929 Y104.6970 Z1.4300 E0.00691 F600
G1 X103.7475 Y104.7050 Z1.3764 E0.00691 F600
G1 X103.8084 Y104.7757 Z1.2300 E0.01559 F600
G1 X103.8437 Y104.8993 Z1.0300 E0.02135 F600
G1 X103.8229 Y105.0525 Z0.8300 E0.02270 F600
G1 X103.7301 Y105.1993 Z0.6836 E0.02040 F600
G1 X103.5750 Y105.3005 Z0.6300 E0.01732 F600
G1 X103.3920 Y105.3289 Z0.6836 E0.01732 F600
G1 X103.2248 Y105.2818 Z0.8300 E0.02040 F600
G1 X103.1068 Y105.1819 Z1.0300 E0.02270 F600
G1 X103.0503 Y105.0663 Z1.2300 E0.02135 F600
G1 X103.0483 Y104.9731 Z1.3764 E0.01559 F600
G1 X103.0835 Y104.9306 Z1.4300 E0.00691 F600
G1 X103.1343 Y104.9525 Z1.3764 E0.00691 F600
G1 X103.1748 Y105.0365 Z1.2300 E0.01559 F600
G1 X103.1768 Y105.1651 Z1.0300 E0.02135 F600
G1 X103.1172 Y105.3076 Z0.8300 E0.02270 F600
G1 X102.9896 Y105.4255 Z0.6836 E0.02040 F600
G1 X102.8135 Y105.4832 Z0.6300 E0.01732 F600
G1 X102.6294 Y105.4633 Z0.6836 E0.01732 F600
G1 X102.4801 Y105.3745 Z0.8300 E0.02040 F600
G1 X102.3921 Y105.2475 Z1.0300 E0.02270 F600
G1 X102.3673 Y105.1213 Z1.2300 E0.02135 F600
G1 X102.3895 Y105.0307 Z1.3764 E0.01559 F600
G1 X102.4346 Y104.9988 Z1.4300 E0.00691 F600
G1 X102.4779 Y105.0330 Z1.3764 E0.00691 F600
G1 X102.4953 Y105.1246 Z1.2300 E0.01559 F600
G1 X102.4640 Y105.2494 Z1.0300 E0.02135 F600
G1 X102.3695 Y105.3716 Z0.8300 E0.02270 F600
G1 X102.2157 Y105.4525 Z0.6836 E0.02040 F600
G1 X102.0308 Y105.4627 Z0.6300 E0.01732 F600
G1 X101.8580 Y105.3959 Z0.6836 E0.01732 F600
G1 X101.7367 Y105.2715 Z0.8300 E0.02040 F600
G1 X101.6846 Y105.1260 Z1.0300 E0.02270 F600
G1 X101.6934 Y104.9977 Z1.2300 E0.02135 F600
G1 X101.7382 Y104.9160 Z1.3764 E0.01559 F600
G1 X101.7900 Y104.8968 Z1.4300 E0.00691 F600
G1 X101.8230 Y104.9411 Z1.3764 E0.00691 F600
G1 X101.8161 Y105.0340 Z1.2300 E0.01559 F600
G1 X101.7536 Y105.1465 Z1.0300 E0.02135 F600
G1 X101.6306 Y105.2401 Z0.8300 E0.02270 F600
G1 X101.4612 Y105.2784 Z0.6836 E0.02040 F600
G1 X101.2799 Y105.2405 Z0.6300 E0.01732 F600
G1 X101.1302 Y105.1313 Z0.6836 E0.01732 F600
G1 X101.0453 Y104.9798 Z0.8300 E0.02040 F600
G1 X101.0326 Y104.8257 Z1.0300 E0.02270 F600
G1 X101.0743 Y104.7040 Z1.2300 E0.02136 F600
G1 X101.1388 Y104.6367 Z1.3764 E0.01559 F600
G1 X101.1938 Y104.6316 Z1.4300 E0.00691 F600
G1 X101.2142 Y104.6829 Z1.3764 E0.00691 F600
G1 X101.1834 Y104.7710 Z1.2300 E0.01559 F600
G1 X101.0940 Y104.8634 Z1.0300 E0.02135 F600
G1 X100.9509 Y104.9219 Z0.8300 E0.02270 F600
G1 X100.7774 Y104.9150 Z0.6836 E0.02040 F600
G1 X100.6122 Y104.8313 Z0.6300 E0.01732 F600
G1 X100.4960 Y104.6869 Z0.6836 E0.01732 F600
G1 X100.4532 Y104.5186 Z0.8300 E0.02040 F600
G1 X100.4809 Y104.3665 Z1.0300 E0.02270 F600
G1 X100.5527 Y104.2597 Z1.2300 E0.02135 F600
G1 X100.6324 Y104.2114 Z1.3764 E0.01559 F600
G1 X100.6868 Y104.2207 Z1.4300 E0.00691 F600
G1 X100.6932 Y104.2755 Z1.3764 E0.00691 F600
G1 X100.6407 Y104.3526 Z1.2300 E0.01559 F600
G1 X100.5304 Y104.4187 Z1.0300 E0.02135 F600
G1 X100.3771 Y104.4383 Z0.8300 E0.02270 F600
G1 X100.2112 Y104.3867 Z0.6836 E0.02040 F600
G1 X100.0733 Y104.2631 Z0.6300 E0.01732 F600
G1 X99.9984 Y104.0937 Z0.6836 E0.01732 F600
G1 X100.0006 Y103.9200 Z0.8300 E0.02040 F600
G1 X100.0666 Y103.7803 Z1.0300 E0.02270 F600
G1 X100.1636 Y103.6957 Z1.2300 E0.02135 F600
G1 X100.2531 Y103.6697 Z1.3764 E0.01559 F600
G1 X100.3033 Y103.6927 Z1.4300 E0.00691 F600
G1 X100.2953 Y103.7474 Z1.3764 E0.00691 F600
G1 X100.2247 Y103.8082 Z1.2300 E0.01559 F600
G1 X100.1010 Y103.8435 Z1.0300 E0.02135 F600
G1 X99.9478 Y103.8228 Z0.8300 E0.02270 F600
G1 X99.8009 Y103.7300 Z0.6836 E0.02040 F600
G1 X99.6996 Y103.5750 Z0.6300 E0.01732 F600
G1 X99.6711 Y103.3919 Z0.6836 E0.01732 F600
G1 X99.7182 Y103.2248 Z0.8300 E0.02040 F600
G1 X99.8181 Y103.1069 Z1.0300 E0.02270 F600
G1 X99.9336 Y103.0503 Z1.2300 E0.02135 F600
G1 X100.0268 Y103.0483 Z1.3764 E0.01559 F600
G1 X100.0694 Y103.0835 Z1.4300 E0.00691 F600
G1 X100.0475 Y103.1343 Z1.3764 E0.00691 F600
G1 X99.9635 Y103.1748 Z1.2300 E0.01559 F600
G1 X99.8349 Y103.1768 Z1.0300 E0.02135 F600
G1 X99.6923 Y103.1172 Z0.8300 E0.02270 F600
G1 X99.5744 Y102.9896 Z0.6836 E0.02040 F600
G1 X99.5166 Y102.8136 Z0.6300 E0.01732 F600
G1 X99.5364 Y102.6294 Z0.6836 E0.01732 F600
G1 X99.6251 Y102.4801 Z0.8300 E0.02040 F600
G1 X99.7522 Y102.3920 Z1.0300 E0.02270 F600
G1 X99.8784 Y102.3673 Z1.2300 E0.02136 F600
G1 X99.9690 Y102.3895 Z1.3764 E0.01559 F600
G1 X100.0009 Y102.4346 Z1.4300 E0.00691 F600
G1 X99.9666 Y102.4779 Z1.3764 E0.00691 F600
G1 X99.8750 Y102.4953 Z1.2300 E0.01559 F600
G1 X99.7503 Y102.4640 Z1.0300 E0.02135 F600
G1 X99.6280 Y102.3694 Z0.8300 E0.02270 F600
G1 X99.5473 Y102.2157 Z0.6836 E0.02040 F600
G1 X99.5371 Y102.0307 Z0.6300 E0.01732 F600
G1 X99.6041 Y101.8580 Z0.6836 E0.01732 F600
G1 X99.7285 Y101.7367 Z0.8300 E0.02040 F600
G1 X99.8740 Y101.6846 Z1.0300 E0.02270 F600
G1 X100.0023 Y101.6934 Z1.2300 E0.02135 F600
G1 X100.0841 Y101.7383 Z1.3764 E0.01559 F600
G1 X100.1033 Y101.7901 Z1.4300 E0.00691 F600
G1 X100.0589 Y101.8230 Z1.3764 E0.00691 F600
G1 X99.9660 Y101.8161 Z1.2300 E0.01559 F600
G1 X99.8535 Y101.7536 Z1.0300 E0.02135 F600
G1 X99.7599 Y101.6306 Z0.8300 E0.02270 F600
G1 X99.7217 Y101.4612 Z0.6836 E0.02040 F600
G1 X99.7597 Y101.2799 Z0.6300 E0.01732 F600
G1 X99.8690 Y101.1304 Z0.6836 E0.01732 F600
G1 X100.0205 Y101.0455 Z0.8300 E0.02040 F600
G1 X100.1746 Y101.0328 Z1.0300 E0.02270 F600
G1 X100.2963 Y101.0745 Z1.2300 E0.02135 F600
G1 X100.3636 Y101.1390 Z1.3764 E0.01559 F600
G1 X100.3687 Y101.1940 Z1.4300 E0.00691 F600
G1 X100.3174 Y101.2144 Z1.3764 E0.00691 F600
G1 X100.2294 Y101.1836 Z1.2300 E0.01559 F600
G1 X100.1370 Y101.0941 Z1.0300 E0.02135 F600
G1 X100.0784 Y100.9511 Z0.8300 E0.02270 F600
G1 X100.0852 Y100.7776 Z0.6836 E0.02040 F600
G1 X100.1688 Y100.6123 Z0.6300 E0.01732 F600
G1 X100.3131 Y100.4961 Z0.6836 E0.01732 F600
G1 X100.4814 Y100.4532 Z0.8300 E0.02040 F600
G1 X100.6335 Y100.4808 Z1.0300 E0.02270 F600
G1 X100.7402 Y100.5526 Z1.2300 E0.02135 F600
G1 X100.7886 Y100.6323 Z1.3764 E0.01559 F600
G1 X100.7793 Y100.6868 Z1.4300 E0.00691 F600
G1 X100.7245 Y100.6932 Z1.3764 E0.00691 F600
G1 X100.6474 Y100.6407 Z1.2300 E0.01559 F600
G1 X100.5813 Y100.5304 Z1.0300 E0.02135 F600
G1 X100.5617 Y100.3770 Z0.8300 E0.02270 F600
G1 X100.6132 Y100.2111 Z0.6836 E0.02040 F600
G1 X100.7367 Y100.0731 Z0.6300 E0.01732 F600
G1 X100.9061 Y99.9981 Z0.6836 E0.01732 F600
G1 X101.0798 Y100.0003 Z0.8300 E0.02040 F600
G1 X101.2196 Y100.0663 Z1.0300 E0.02270 F600
G1 X101.3041 Y100.1633 Z1.2300 E0.02136 F600
G1 X101.3302 Y100.2528 Z1.3764 E0.01559 F600
G1 X101.3071 Y100.3030 Z1.4300 E0.00691 F600
; row 2/6
G1 X100.9753 Y100.4767 Z1.8764 E0.05233 F600
G1 X100.9057 Y100.4146 Z1.7300 E0.01559 F600
G1 X100.8546 Y100.2966 Z1.5300 E0.02135 F600
G1 X100.8552 Y100.1420 Z1.3300 E0.02270 F600
G1 X100.9280 Y99.9843 Z1.1836 E0.02040 F600
G1 X101.0685 Y99.8635 Z1.1300 E0.01732 F600
G1 X101.2463 Y99.8114 Z1.1836 E0.01732 F600
G1 X101.4182 Y99.8363 Z1.3300 E0.02040 F600
G1 X101.5482 Y99.9200 Z1.5300 E0.02270 F600
G1 X101.6193 Y100.0271 Z1.7300 E0.02135 F600
G1 X101.6335 Y100.1193 Z1.8764 E0.01559 F600
G1 X101.6041 Y100.1660 Z1.9300 E0.00691 F600
G1 X101.5509 Y100.1510 Z1.8764 E0.00691 F600
G1 X101.4998 Y100.0730 Z1.7300 E0.01559 F600
G1 X101.4810 Y99.9458 Z1.5300 E0.02135 F600
G1 X101.5215 Y99.7966 Z1.3300 E0.02270 F600
G1 X101.6327 Y99.6631 Z1.1836 E0.02040 F600
G1 X101.7997 Y99.5829 Z1.1300 E0.01732 F600
G1 X101.9849 Y99.5786 Z1.1836 E0.01732 F600
G1 X102.1445 Y99.6471 Z1.3300 E0.02040 F600
G1 X102.2484 Y99.7615 Z1.5300 E0.02270 F600
G1 X102.2893 Y99.8835 Z1.7300 E0.02135 F600
G1 X102.2792 Y99.9761 Z1.8764 E0.01559 F600
G1 X102.2387 Y100.0137 Z1.9300 E0.00691 F600
G1 X102.1912 Y99.9854 Z1.8764 E0.00691 F600
G1 X102.1620 Y99.8968 Z1.7300 E0.01559 F600
G1 X102.1768 Y99.7691 Z1.5300 E0.02135 F600
G1 X102.2546 Y99.6355 Z1.3300 E0.02270 F600
G1 X102.3965 Y99.5353 Z1.1836 E0.02040 F600
G1 X102.5785 Y99.5010 Z1.1300 E0.01732 F600
G1 X102.7585 Y99.5448 Z1.1836 E0.01732 F600
G1 X102.8950 Y99.6523 Z1.3300 E0.02040 F600
G1 X102.9657 Y99.7897 Z1.5300 E0.02270 F600
G1 X102.9737 Y99.9181 Z1.7300 E0.02135 F600
G1 X102.9399 Y100.0050 Z1.8764 E0.01559 F600
G1 X102.8911 Y100.0308 Z1.9300 E0.00691 F600
G1 X102.8526 Y99.9912 Z1.8764 E0.00691 F600
G1 X102.8473 Y99.8981 Z1.7300 E0.01559 F600
G1 X102.8946 Y99.7785 Z1.5300 E0.02135 F600
G1 X103.0043 Y99.6696 Z1.3300 E0.02270 F600
G1 X103.1673 Y99.6095 Z1.1836 E0.02040 F600
G1 X103.3520 Y99.6235 Z1.1300 E0.01732 F600
G1 X103.5146 Y99.7124 Z1.1836 E0.01732 F600
G1 X103.6186 Y99.8515 Z1.3300 E0.02040 F600
G1 X103.6513 Y100.0026 Z1.5300 E0.02270 F600
G1 X103.6258 Y100.1287 Z1.7300 E0.02135 F600
G1 X103.5707 Y100.2039 Z1.8764 E0.01559 F600
G1 X103.5168 Y100.2161 Z1.9300 E0.00691 F600
G1 X103.4899 Y100.1679 Z1.8764 E0.00691 F600
G1 X103.5089 Y100.0766 Z1.7300 E0.01559 F600
G1 X103.5855 Y99.9733 Z1.5300 E0.02135 F600
G1 X103.7197 Y99.8966 Z1.3300 E0.02270 F600
G1 X103.8927 Y99.8807 Z1.1836 E0.02040 F600
G1 X104.0675 Y99.9421 Z1.1300 E0.01732 F600
G1 X104.2015 Y100.0700 Z1.1836 E0.01732 F600
G1 X104.2660 Y100.2313 Z1.3300 E0.02040 F600
G1 X104.2585 Y100.3857 Z1.5300 E0.02270 F600
G1 X104.2012 Y100.5009 Z1.7300 E0.02135 F600
G1 X104.1285 Y100.5592 Z1.8764 E0.01559 F600
G1 X104.0733 Y100.5571 Z1.9300 E0.00691 F600
G1 X104.0598 Y100.5036 Z1.8764 E0.00691 F600
G1 X104.1017 Y100.4203 Z1.7300 E0.01559 F600
G1 X104.2025 Y100.3404 Z1.5300 E0.02135 F600
G1 X104.3520 Y100.3009 Z1.3300 E0.02270 F600
G1 X104.5232 Y100.3304 Z1.1836 E0.02040 F600
G1 X104.6761 Y100.4349 Z1.1300 E0.01732 F600
G1 X104.7725 Y100.5932 Z1.1836 E0.01732 F600
G1 X104.7930 Y100.7657 Z1.3300 E0.02040 F600
G1 X104.7458 Y100.9129 Z1.5300 E0.02270 F600
G1 X104.6607 Y101.0093 Z1.7300 E0.02135 F600
G1 X104.5753 Y101.0468 Z1.8764 E0.01559 F600
G1 X104.5225 Y101.0305 Z1.9300 E0.00691 F600
G1 X104.5233 Y100.9753 Z1.8764 E0.00691 F600
G1 X104.5854 Y100.9057 Z1.7300 E0.01559 F600
G1 X104.7034 Y100.8546 Z1.5300 E0.02135 F600
G1 X104.8580 Y100.8552 Z1.3300 E0.02270 F600
G1 X105.0157 Y100.9280 Z1.1836 E0.02040 F600
G1 X105.1365 Y101.0685 Z1.1300 E0.01732 F600
G1 X105.1886 Y101.2463 Z1.1836 E0.01732 F600
G1 X105.1637 Y101.4182 Z1.3300 E0.02040 F600
G1 X105.0800 Y101.5482 Z1.5300 E0.02270 F600
G1 X104.9729 Y101.6193 Z1.7300 E0.02135 F600
G1 X104.8807 Y101.6335 Z1.8764 E0.01559 F600
G1 X104.8340 Y101.6041 Z1.9300 E0.00691 F600
G1 X104.8490 Y101.5509 Z1.8764 E0.00691 F600
G1 X104.9270 Y101.4998 Z1.7300 E0.01559 F600
G1 X105.0542 Y101.4810 Z1.5300 E0.02135 F600
G1 X105.2034 Y101.5215 Z1.3300 E0.02270 F600
G1 X105.3369 Y101.6327 Z1.1836 E0.02040 F600
G1 X105.4171 Y101.7997 Z1.1300 E0.01732 F600
G1 X105.4214 Y101.9849 Z1.1836 E0.01732 F600
G1 X105.3529 Y102.1445 Z1.3300 E0.02040 F600
G1 X105.2385 Y102.2484 Z1.5300 E0.02270 F600
G1 X105.1165 Y102.2893 Z1.7300 E0.02135 F600
G1 X105.0239 Y102.2792 Z1.8764 E0.01559 F600
G1 X104.9863 Y102.2387 Z1.9300 E0.00691 F600
G1 X105.0146 Y102.1912 Z1.8764 E0.00691 F600
G1 X105.1032 Y102.1620 Z1.7300 E0.01559 F600
G1 X105.2309 Y102.1768 Z1.5300 E0.02135 F600
G1 X105.3645 Y102.2546 Z1.3300 E0.02270 F600
G1 X105.4647 Y102.3965 Z1.1836 E0.02040 F600
G1 X105.4990 Y102.5785 Z1.1300 E0.01732 F600
G1 X105.4552 Y102.7585 Z1.1836 E0.01732 F600
G1 X105.3477 Y102.8950 Z1.3300 E0.02040 F600
G1 X105.2103 Y102.9657 Z1.5300 E0.02270 F600
G1 X105.0819 Y102.9737 Z1.7300 E0.02135 F600
G1 X104.9950 Y102.9399 Z1.8764 E0.01559 F600
G1 X104.9692 Y102.8911 Z1.9300 E0.00691 F600
G1 X105.0088 Y102.8526 Z1.8764 E0.00691 F600
G1 X105.1019 Y102.8473 Z1.7300 E0.01559 F600
G1 X105.2215 Y102.8946 Z1.5300 E0.02135 F600
G1 X105.3304 Y103.0043 Z1.3300 E0.02270 F600
G1 X105.3905 Y103.1673 Z1.1836 E0.02040 F600
G1 X105.3765 Y103.3520 Z1.1300 E0.01732 F600
G1 X105.2876 Y103.5146 Z1.1836 E0.01732 F600
G1 X105.1485 Y103.6186 Z1.3300 E0.02040 F600
G1 X104.9974 Y103.6513 Z1.5300 E0.02270 F600
G1 X104.8713 Y103.6258 Z1.7300 E0.02135 F600
G1 X104.7961 Y103.5707 Z1.8764 E0.01559 F600
G1 X104.7839 Y103.5168 Z1.9300 E0.00691 F600
G1 X104.8321 Y103.4899 Z1.8764 E0.00691 F600
G1 X104.9234 Y103.5089 Z1.7300 E0.01559 F600
G1 X105.0267 Y103.5855 Z1.5300 E0.02135 F600
G1 X105.1034 Y103.7197 Z1.3300 E0.02270 F600
G1 X105.1193 Y103.8927 Z1.1836 E0.02040 F600
G1 X105.0579 Y104.0675 Z1.1300 E0.01732 F600
G1 X104.9300 Y104.2015 Z1.1836 E0.01732 F600
G1 X104.7687 Y104.2660 Z1.3300 E0.02040 F600
G1 X104.6143 Y104.2585 Z1.5300 E0.02270 F600
G1 X104.4991 Y104.2012 Z1.7300 E0.02135 F600
G1 X104.4408 Y104.1285 Z1.8764 E0.01559 F600
G1 X104.4429 Y104.0733 Z1.9300 E0.00691 F600
G1 X104.4964 Y104.0598 Z1.8764 E0.00691 F600
G1 X104.5797 Y104.1017 Z1.7300 E0.01559 F600
G1 X104.6596 Y104.2025 Z1.5300 E0.02135 F600
G1 X104.6991 Y104.3520 Z1.3300 E0.02270 F600
G1 X104.6696 Y104.5232 Z1.1836 E0.02040 F600
G1 X104.5651 Y104.6761 Z1.1300 E0.01732 F600
G1 X104.4068 Y104.7725 Z1.1836 E0.01732 F600
G1 X104.2343 Y104.7930 Z1.3300 E0.02040 F600
G1 X104.0871 Y104.7458 Z1.5300 E0.02270 F600
G1 X103.9907 Y104.6607 Z1.7300 E0.02135 F600
G1 X103.9532 Y104.5753 Z1.8764 E0.01559 F600
G1 X103.9695 Y104.5225 Z1.9300 E0.00691 F600
G1 X104.0247 Y104.5233 Z1.8764 E0.00691 F600
G1 X104.0943 Y104.5854 Z1.7300 E0.01559 F600
G1 X104.1454 Y104.7034 Z1.5300 E0.02135 F600
G1 X104.1448 Y104.8580 Z1.3300 E0.02270 F600
G1 X104.0720 Y105.0157 Z1.1836 E0.02040 F600
G1 X103.9315 Y105.1365 Z1.1300 E0.01732 F600
G1 X103.7537 Y105.1886 Z1.1836 E0.01732 F600
G1 X103.5818 Y105.1637 Z1.3300 E0.02040 F600
G1 X103.4518 Y105.0800 Z1.5300 E0.02270 F600
G1 X103.3807 Y104.9729 Z1.7300 E0.02135 F600
G1 X103.3665 Y104.8807 Z1.8764 E0.01559 F600
G1 X103.3959 Y104.8340 Z1.9300 E0.00691 F600
G1 X103.4491 Y104.8490 Z1.8764 E0.00691 F600
G1 X103.5002 Y104.9270 Z1.7300 E0.01559 F600
G1 X103.5190 Y105.0542 Z1.5300 E0.02135 F600
G1 X103.4785 Y105.2034 Z1.3300 E0.02270 F600
G1 X103.3673 Y105.3369 Z1.1836 E0.02040 F600
G1 X103.2003 Y105.4171 Z1.1300 E0.01732 F600
G1 X103.0151 Y105.4214 Z1.1836 E0.01732 F600
G1 X102.8555 Y105.3529 Z1.3300 E0.02040 F600
G1 X102.7516 Y105.2385 Z1.5300 E0.02270 F600
G1 X102.7107 Y105.1165 Z1.7300 E0.02135 F600
G1 X102.7208 Y105.0239 Z1.8764 E0.01559 F600
G1 X102.7613 Y104.9863 Z1.9300 E0.00691 F600
G1 X102.8088 Y105.0146 Z1.8764 E0.00691 F600
G1 X102.8380 Y105.1032 Z1.7300 E0.01559 F600
G1 X102.8232 Y105.2309 Z1.5300 E0.02135 F600
G1 X102.7454 Y105.3645 Z1.3300 E0.02270 F600
G1 X102.6035 Y105.4647 Z1.1836 E0.02040 F600
G1 X102.4215 Y105.4990 Z1.1300 E0.01732 F600
G1 X102.2415 Y105.4552 Z1.1836 E0.01732 F600
G1 X102.1050 Y105.3477 Z1.3300 E0.02040 F600
G1 X102.0343 Y105.2103 Z1.5300 E0.02270 F600
G1 X102.0263 Y105.0819 Z1.7300 E0.02135 F600
G1 X102.0601 Y104.9950 Z1.8764 E0.01559 F600
G1 X102.1089 Y104.9692 Z1.9300 E0.00691 F600
G1 X102.1474 Y105.0088 Z1.8764 E0.00691 F600
G1 X102.1527 Y105.1019 Z1.7300 E0.01559 F600
G1 X102.1054 Y105.2215 Z1.5300 E0.02135 F600
G1 X101.9957 Y105.3304 Z1.3300 E0.02270 F600
G1 X101.8327 Y105.3905 Z1.1836 E0.02040 F600
G1 X101.6480 Y105.3765 Z1.1300 E0.01732 F600
G1 X101.4854 Y105.2876 Z1.1836 E0.01732 F600
G1 X101.3814 Y105.1485 Z1.3300 E0.02040 F600
G1 X101.3487 Y104.9974 Z1.5300 E0.02270 F600
G1 X101.3742 Y104.8713 Z1.7300 E0.02135 F600
G1 X101.4293 Y104.7961 Z1.8764 E0.01559 F600
G1 X101.4832 Y104.7839 Z1.9300 E0.00691 F600
G1 X101.5101 Y104.8321 Z1.8764 E0.00691 F600
G1 X101.4911 Y104.9234 Z1.7300 E0.01559 F600
G1 X101.4145 Y105.0267 Z1.5300 E0.02135 F600
G1 X101.2803 Y105.1034 Z1.3300 E0.02270 F600
G1 X101.1073 Y105.1193 Z1.1836 E0.02040 F600
G1 X100.9325 Y105.0579 Z1.1300 E0.01732 F600
G1 X100.7985 Y104.9300 Z1.1836 E0.01732 F600
G1 X100.7340 Y104.7687 Z1.3300 E0.02040 F600
G1 X100.7415 Y104.6143 Z1.5300 E0.02270 F600
G1 X100.7988 Y104.4991 Z1.7300 E0.02135 F600
G1 X100.8715 Y104.4408 Z1.8764 E0.01559 F600
G1 X100.9267 Y104.4429 Z1.9300 E0.00691 F600
G1 X100.9402 Y104.4964 Z1.8764 E0.00691 F600
G1 X100.8983 Y104.5797 Z1.7300 E0.01559 F600
G1 X100.7975 Y104.6596 Z1.5300 E0.02135 F600
G1 X100.6480 Y104.6991 Z1.3300 E0.02270 F600
G1 X100.4768 Y104.6696 Z1.1836 E0.02040 F600
G1 X100.3239 Y104.5651 Z1.1300 E0.01732 F600
G1 X100.2275 Y104.4068 Z1.1836 E0.01732 F600
G1 X100.2070 Y104.2343 Z1.3300 E0.02040 F600
G1 X100.2542 Y104.0871 Z1.5300 E0.02270 F600
G1 X100.3393 Y103.9907 Z1.7300 E0.02135 F600
G1 X100.4247 Y103.9532 Z1.8764 E0.01559 F600
G1 X100.4775 Y103.9695 Z1.9300 E0.00691 F600
G1 X100.4767 Y104.0247 Z1.8764 E0.00691 F600
G1 X100.4146 Y104.0943 Z1.7300 E0.01559 F600
G1 X100.2966 Y104.1454 Z1.5300 E0.02135 F600
G1 X100.1420 Y104.1448 Z1.3300 E0.02270 F600
G1 X99.9843 Y104.0720 Z1.1836 E0.02040 F600
G1 X99.8635 Y103.9315 Z1.1300 E0.01732 F600
G1 X99.8114 Y103.7537 Z1.1836 E0.01732 F600
G1 X99.8363 Y103.5818 Z1.3300 E0.02040 F600
G1 X99.9200 Y103.4518 Z1.5300 E0.02270 F600
G1 X100.0271 Y103.3807 Z1.7300 E0.02135 F600
G1 X100.1193 Y103.3665 Z1.8764 E0.01559 F600
G1 X100.1660 Y103.3959 Z1.9300 E0.00691 F600
G1 X100.1510 Y103.4491 Z1.8764 E0.00691 F600
G1 X100.0730 Y103.5002 Z1.7300 E0.01559 F600
G1 X99.9458 Y103.5190 Z1.5300 E0.02135 F600
G1 X99.7966 Y103.4785 Z1.3300 E0.02270 F600
G1 X99.6631 Y103.3673 Z1.1836 E0.02040 F600
G1 X99.5829 Y103.2003 Z1.1300 E0.01732 F600
G1 X99.5786 Y103.0151 Z1.1836 E0.01732 F600
G1 X99.6471 Y102.8555 Z1.3300 E0.02040 F600
G1 X99.7615 Y102.7516 Z1.5300 E0.02270 F600
G1 X99.8835 Y102.7107 Z1.7300 E0.02135 F600
G1 X99.9761 Y102.7208 Z1.8764 E0.01559 F600
G1 X100.0137 Y102.7613 Z1.9300 E0.00691 F600
G1 X99.9854 Y102.8088 Z1.8764 E0.00691 F600
G1 X99.8968 Y102.8380 Z1.7300 E0.01559 F600
G1 X99.7691 Y102.8232 Z1.5300 E0.02135 F600
G1 X99.6355 Y102.7454 Z1.3300 E0.02270 F600
G1 X99.5353 Y102.6035 Z1.1836 E0.02040 F600
G1 X99.5010 Y102.4215 Z1.1300 E0.01732 F600
G1 X99.5448 Y102.2415 Z1.1836 E0.01732 F600
G1 X99.6523 Y102.1050 Z1.3300 E0.02040 F600
G1 X99.7897 Y102.0343 Z1.5300 E0.02270 F600
G1 X99.9181 Y102.0263 Z1.7300 E0.02135 F600
G1 X100.0050 Y102.0601 Z1.8764 E0.01559 F600
G1 X100.0308 Y102.1089 Z1.9300 E0.00691 F600
G1 X99.9912 Y102.1474 Z1.8764 E0.00691 F600
G1 X99.8981 Y102.1527 Z1.7300 E0.01559 F600
G1 X99.7785 Y102.1054 Z1.5300 E0.02135 F600
G1 X99.6696 Y101.9957 Z1.3300 E0.02270 F600
G1 X99.6095 Y101.8327 Z1.1836 E0.02040 F600
G1 X99.6235 Y101.6480 Z1.1300 E0.01732 F600
G1 X99.7124 Y101.4854 Z1.1836 E0.01732 F600
G1 X99.8515 Y101.3814 Z1.3300 E0.02040 F600
G1 X100.0026 Y101.3487 Z1.5300 E0.02270 F600
G1 X100.1287 Y101.3742 Z1.7300 E0.02135 F600
G1 X100.2039 Y101.4293 Z1.8764 E0.01559 F600
G1 X100.2161 Y101.4832 Z1.9300 E0.00691 F600
G1 X100.1679 Y101.5101 Z1.8764 E0.00691 F600
G1 X100.0766 Y101.4911 Z1.7300 E0.01559 F600
G1 X99.9733 Y101.4145 Z1.5300 E0.02135 F600
G1 X99.8966 Y101.2803 Z1.3300 E0.02270 F600
G1 X99.8807 Y101.1073 Z1.1836 E0.02040 F600
G1 X99.9421 Y100.9325 Z1.1300 E0.01732 F600
G1 X100.0700 Y100.7985 Z1.1836 E0.01732 F600
G1 X100.2313 Y100.7340 Z1.3300 E0.02040 F600
G1 X100.3857 Y100.7415 Z1.5300 E0.02270 F600
G1 X100.5009 Y100.7988 Z1.7300 E0.02135 F600
G1 X100.5592 Y100.8715 Z1.8764 E0.01559 F600
G1 X100.5571 Y100.9267 Z1.9300 E0.00691 F600
G1 X100.5036 Y100.9402 Z1.8764 E0.00691 F600
G1 X100.4203 Y100.8983 Z1.7300 E0.01559 F600
G1 X100.3404 Y100.7975 Z1.5300 E0.02135 F600
G1 X100.3009 Y100.6480 Z1.3300 E0.02270 F600
G1 X100.3304 Y100.4768 Z1.1836 E0.02040 F600
G1 X100.4349 Y100.3239 Z1.1300 E0.01732 F600
G1 X100.5932 Y100.2275 Z1.1836 E0.01732 F600
G1 X100.7657 Y100.2070 Z1.3300 E0.02040 F600
G1 X100.9129 Y100.2542 Z1.5300 E0.02270 F600
G1 X101.0093 Y100.3393 Z1.7300 E0.02135 F600
G1 X101.0468 Y100.4247 Z1.8764 E0.01559 F600
G1 X101.0305 Y100.4775 Z1.9300 E0.00691 F600
; row 3/6
G1 X101.2524 Y100.2950 Z2.3764 E0.04767 F600
G1 X101.1916 Y100.2243 Z2.2300 E0.01559 F600
G1 X101.1563 Y100.1006 Z2.0300 E0.02135 F600
G1 X101.1771 Y99.9475 Z1.8300 E0.02270 F600
G1 X101.2698 Y99.8006 Z1.6836 E0.02040 F600
G1 X101.4249 Y99.6993 Z1.6300 E0.01732 F600
G1 X101.6080 Y99.6708 Z1.6836 E0.01732 F600
G1 X101.7752 Y99.7179 Z1.8300 E0.02040 F600
G1 X101.8931 Y99.8178 Z2.0300 E0.02270 F600
G1 X101.9496 Y99.9333 Z2.2300 E0.02135 F600
G1 X101.9517 Y100.0266 Z2.3764 E0.01559 F600
G1 X101.9164 Y100.0691 Z2.4300 E0.00691 F600
G1 X101.8657 Y100.0472 Z2.3764 E0.00691 F600
G1 X101.8252 Y99.9632 Z2.2300 E0.01559 F600
G1 X101.8231 Y99.8346 Z2.0300 E0.02135 F600
G1 X101.8828 Y99.6920 Z1.8300 E0.02270 F600
G1 X102.0104 Y99.5742 Z1.6836 E0.02040 F600
G1 X102.1864 Y99.5164 Z1.6300 E0.01732 F600
G1 X102.3706 Y99.5363 Z1.6836 E0.01732 F600
G1 X102.5199 Y99.6251 Z1.8300 E0.02040 F600
G1 X102.6080 Y99.7521 Z2.0300 E0.02270 F600
G1 X102.6327 Y99.8784 Z2.2300 E0.02135 F600
G1 X102.6105 Y99.9689 Z2.3764 E0.01559 F600
G1 X102.5654 Y100.0009 Z2.4300 E0.00691 F600
G1 X102.5221 Y99.9666 Z2.3764 E0.00691 F600
G1 X102.5047 Y99.8750 Z2.2300 E0.01559 F600
G1 X102.5360 Y99.7502 Z2.0300 E0.02135 F600
G1 X102.6306 Y99.6280 Z1.8300 E0.02270 F600
G1 X102.7843 Y99.5472 Z1.6836 E0.02040 F600
G1 X102.9693 Y99.5369 Z1.6300 E0.01732 F600
G1 X103.1421 Y99.6038 Z1.6836 E0.01732 F600
G1 X103.2633 Y99.7282 Z1.8300 E0.02040 F600
G1 X103.3155 Y99.8737 Z2.0300 E0.02270 F600
G1 X103.3067 Y100.0020 Z2.2300 E0.02135 F600
G1 X103.2618 Y100.0838 Z2.3764 E0.01559 F600
G1 X103.2100 Y100.1030 Z2.4300 E0.00691 F600
G1 X103.1770 Y100.0586 Z2.3764 E0.00691 F600
G1 X103.1840 Y99.9657 Z2.2300 E0.01559 F600
G1 X103.2465 Y99.8532 Z2.0300 E0.02135 F600
G1 X103.3695 Y99.7596 Z1.8300 E0.02270 F600
G1 X103.5389 Y99.7214 Z1.6836 E0.02040 F600
G1 X103.7202 Y99.7594 Z1.6300 E0.01732 F600
G1 X103.8698 Y99.8687 Z1.6836 E0.01732 F600
G1 X103.9547 Y100.0202 Z1.8300 E0.02040 F600
G1 X103.9674 Y100.1742 Z2.0300 E0.02270 F600
G1 X103.9257 Y100.2959 Z2.2300 E0.02135 F600
G1 X103.8612 Y100.3633 Z2.3764 E0.01559 F600
G1 X103.8062 Y100.3684 Z2.4300 E0.00691 F600
G1 X103.7858 Y100.3171 Z2.3764 E0.00691 F600
G1 X103.8166 Y100.2290 Z2.2300 E0.01559 F600
G1 X103.9061 Y100.1366 Z2.0300 E0.02135 F600
G1 X104.0491 Y100.0780 Z1.8300 E0.02270 F600
G1 X104.2227 Y100.0849 Z1.6836 E0.02040 F600
G1 X104.3880 Y100.1686 Z1.6300 E0.01732 F600
G1 X104.5041 Y100.3129 Z1.6836 E0.01732 F600
G1 X104.5470 Y100.4812 Z1.8300 E0.02040 F600
G1 X104.5194 Y100.6333 Z2.0300 E0.02270 F600
G1 X104.4476 Y100.7400 Z2.2300 E0.02135 F600
G1 X104.3679 Y100.7884 Z2.3764 E0.01559 F600
G1 X104.3134 Y100.7791 Z2.4300 E0.00691 F600
G1 X104.3070 Y100.7243 Z2.3764 E0.00691 F600
G1 X104.3595 Y100.6472 Z2.2300 E0.01559 F600
G1 X104.4698 Y100.5811 Z2.0300 E0.02135 F600
G1 X104.6232 Y100.5615 Z1.8300 E0.02270 F600
G1 X104.7890 Y100.6131 Z1.6836 E0.02040 F600
G1 X104.9271 Y100.7366 Z1.6300 E0.01732 F600
G1 X105.0019 Y100.9061 Z1.6836 E0.01732 F600
G1 X104.9997 Y101.0798 Z1.8300 E0.02040 F600
G1 X104.9337 Y101.2196 Z2.0300 E0.02270 F600
G1 X104.8367 Y101.3041 Z2.2300 E0.02135 F600
G1 X104.7472 Y101.3302 Z2.3764 E0.01559 F600
G1 X104.6970 Y101.3071 Z2.4300 E0.00691 F600
G1 X104.7050 Y101.2524 Z2.3764 E0.00691 F600
G1 X104.7757 Y101.1916 Z2.2300 E0.01559 F600
G1 X104.8994 Y101.1563 Z2.0300 E0.02135 F600
G1 X105.0525 Y101.1771 Z1.8300 E0.02270 F600
G1 X105.1994 Y101.2698 Z1.6836 E0.02040 F600
G1 X105.3007 Y101.4249 Z1.6300 E0.01732 F600
G1 X105.3292 Y101.6080 Z1.6836 E0.01732 F600
G1 X105.2821 Y101.7752 Z1.8300 E0.02040 F600
G1 X105.1822 Y101.8931 Z2.0300 E0.02270 F600
G1 X105.0667 Y101.9496 Z2.2300 E0.02135 F600
G1 X104.9734 Y101.9517 Z2.3764 E0.01559 F600
G1 X104.9309 Y101.9164 Z2.4300 E0.00691 F600
G1 X104.9528 Y101.8657 Z2.3764 E0.00691 F600
G1 X105.0368 Y101.8252 Z2.2300 E0.01559 F600
G1 X105.1654 Y101.8231 Z2.0300 E0.02135 F600
G1 X105.3080 Y101.8828 Z1.8300 E0.02270 F600
G1 X105.4258 Y102.0104 Z1.6836 E0.02040 F600
G1 X105.4836 Y102.1864 Z1.6300 E0.01732 F600
G1 X105.4637 Y102.3706 Z1.6836 E0.01732 F600
G1 X105.3749 Y102.5199 Z1.8300 E0.02040 F600
G1 X105.2479 Y102.6080 Z2.0300 E0.02270 F600
G1 X105.1216 Y102.6327 Z2.2300 E0.02135 F600
G1 X105.0311 Y102.6105 Z2.3764 E0.01559 F600
G1 X104.9991 Y102.5654 Z2.4300 E0.00691 F600
G1 X105.0334 Y102.5221 Z2.3764 E0.00691 F600
G1 X105.1250 Y102.5047 Z2.2300 E0.01559 F600
G1 X105.2498 Y102.5360 Z2.0300 E0.02135 F600
G1 X105.3720 Y102.6306 Z1.8300 E0.02270 F600
G1 X105.4528 Y102.7843 Z1.6836 E0.02040 F600
G1 X105.4631 Y102.9693 Z1.6300 E0.01732 F600
G1 X105.3962 Y103.1421 Z1.6836 E0.01732 F600
G1 X105.2718 Y103.2633 Z1.8300 E0.02040 F600
G1 X105.1263 Y103.3155 Z2.0300 E0.02270 F600
G1 X104.9980 Y103.3067 Z2.2300 E0.02135 F600
G1 X104.9162 Y103.2618 Z2.3764 E0.01559 F600
G1 X104.8970 Y103.2100 Z2.4300 E0.00691 F600
G1 X104.9414 Y103.1770 Z2.3764 E0.00691 F600
G1 X105.0343 Y103.1840 Z2.2300 E0.01559 F600
G1 X105.1468 Y103.2465 Z2.0300 E0.02135 F600
G1 X105.2404 Y103.3695 Z1.8300 E0.02270 F600
G1 X105.2786 Y103.5389 Z1.6836 E0.02040 F600
G1 X105.2406 Y103.7202 Z1.6300 E0.01732 F600
G1 X105.1313 Y103.8698 Z1.6836 E0.01732 F600
G1 X104.9798 Y103.9547 Z1.8300 E0.02040 F600
G1 X104.8258 Y103.9674 Z2.0300 E0.02270 F600
G1 X104.7041 Y103.9257 Z2.2300 E0.02135 F600
G1 X104.6367 Y103.8612 Z2.3764 E0.01559 F600
G1 X104.6316 Y103.8062 Z2.4300 E0.00691 F600
G1 X104.6829 Y103.7858 Z2.3764 E0.00691 F600
G1 X104.7710 Y103.8166 Z2.2300 E0.01559 F600
G1 X104.8634 Y103.9061 Z2.0300 E0.02135 F600
G1 X104.9220 Y104.0491 Z1.8300 E0.02270 F600
G1 X104.9151 Y104.2227 Z1.6836 E0.02040 F600
G1 X104.8314 Y104.3880 Z1.6300 E0.01732 F600
G1 X104.6871 Y104.5041 Z1.6836 E0.01732 F600
G1 X104.5188 Y104.5470 Z1.8300 E0.02040 F600
G1 X104.3667 Y104.5194 Z2.0300 E0.02270 F600
G1 X104.2600 Y104.4476 Z2.2300 E0.02135 F600
G1 X104.2116 Y104.3679 Z2.3764 E0.01559 F600
G1 X104.2209 Y104.3134 Z2.4300 E0.00691 F600
G1 X104.2757 Y104.3070 Z2.3764 E0.00691 F600
G1 X104.3528 Y104.3595 Z2.2300 E0.01559 F600
G1 X104.4189 Y104.4698 Z2.0300 E0.02135 F600
G1 X104.4385 Y104.6232 Z1.8300 E0.02270 F600
G1 X104.3869 Y104.7890 Z1.6836 E0.02040 F600
G1 X104.2634 Y104.9271 Z1.6300 E0.01732 F600
G1 X104.0939 Y105.0019 Z1.6836 E0.01732 F600
G1 X103.9202 Y104.9997 Z1.8300 E0.02040 F600
G1 X103.7804 Y104.9337 Z2.0300 E0.02270 F600
G1 X103.6959 Y104.8367 Z2.2300 E0.02135 F600
G1 X103.6698 Y104.7472 Z2.3764 E0.01559 F600
G1 X103.6929 Y104.6970 Z2.4300 E0.00691 F600
G1 X103.7476 Y104.7050 Z2.3764 E0.00691 F600
G1 X103.8084 Y104.7757 Z2.2300 E0.01559 F600
G1 X103.8437 Y104.8994 Z2.0300 E0.02135 F600
G1 X103.8229 Y105.0525 Z1.8300 E0.02270 F600
G1 X103.7302 Y105.1994 Z1.6836 E0.02040 F600
G1 X103.5751 Y105.3007 Z1.6300 E0.01732 F600
G1 X103.3920 Y105.3292 Z1.6836 E0.01732 F600
G1 X103.2248 Y105.2821 Z1.8300 E0.02040 F600
G1 X103.1069 Y105.1822 Z2.0300 E0.02270 F600
G1 X103.0504 Y105.0667 Z2.2300 E0.02135 F600
G1 X103.0483 Y104.9734 Z2.3764 E0.01559 F600
G1 X103.0836 Y104.9309 Z2.4300 E0.00691 F600
G1 X103.1343 Y104.9528 Z2.3764 E0.00691 F600
G1 X103.1748 Y105.0368 Z2.2300 E0.01559 F600
G1 X103.1769 Y105.1654 Z2.0300 E0.02135 F600
G1 X103.1172 Y105.3080 Z1.8300 E0.02270 F600
G1 X102.9896 Y105.4258 Z1.6836 E0.02040 F600
G1 X102.8136 Y105.4836 Z1.6300 E0.01732 F600
G1 X102.6294 Y105.4637 Z1.6836 E0.01732 F600
G1 X102.4801 Y105.3749 Z1.8300 E0.02040 F600
G1 X102.3920 Y105.2479 Z2.0300 E0.02270 F600
G1 X102.3673 Y105.1216 Z2.2300 E0.02135 F600
G1 X102.3895 Y105.0311 Z2.3764 E0.01559 F600
G1 X102.4346 Y104.9991 Z2.4300 E0.00691 F600
G1 X102.4779 Y105.0334 Z2.3764 E0.00691 F600
G1 X102.4953 Y105.1250 Z2.2300 E0.01559 F600
G1 X102.4640 Y105.2498 Z2.0300 E0.02135 F600
G1 X102.3694 Y105.3720 Z1.8300 E0.02270 F600
G1 X102.2157 Y105.4528 Z1.6836 E0.02040 F600
G1 X102.0307 Y105.4631 Z1.6300 E0.01732 F600
G1 X101.8579 Y105.3962 Z1.6836 E0.01732 F600
G1 X101.7367 Y105.2718 Z1.8300 E0.02040 F600
G1 X101.6845 Y105.1263 Z2.0300 E0.02270 F600
G1 X101.6933 Y104.9980 Z2.2300 E0.02135 F600
G1 X101.7382 Y104.9162 Z2.3764 E0.01559 F600
G1 X101.7900 Y104.8970 Z2.4300 E0.00691 F600
G1 X101.8230 Y104.9414 Z2.3764 E0.00691 F600
G1 X101.8160 Y105.0343 Z2.2300 E0.01559 F600
G1 X101.7535 Y105.1468 Z2.0300 E0.02135 F600
G1 X101.6305 Y105.2404 Z1.8300 E0.02270 F600
G1 X101.4611 Y105.2786 Z1.6836 E0.02040 F600
G1 X101.2798 Y105.2406 Z1.6300 E0.01732 F600
G1 X101.1302 Y105.1313 Z1.6836 E0.01732 F600
G1 X101.0453 Y104.9798 Z1.8300 E0.02040 F600
G1 X101.0326 Y104.8258 Z2.0300 E0.02270 F600
G1 X101.0743 Y104.7041 Z2.2300 E0.02135 F600
G1 X101.1388 Y104.6367 Z2.3764 E0.01559 F600
G1 X101.1938 Y104.6316 Z2.4300 E0.00691 F600
G1 X101.2142 Y104.6829 Z2.3764 E0.00691 F600
G1 X101.1834 Y104.7710 Z2.2300 E0.01559 F600
G1 X101.0939 Y104.8634 Z2.0300 E0.02135 F600
G1 X100.9509 Y104.9220 Z1.8300 E0.02270 F600
G1 X100.7773 Y104.9151 Z1.6836 E0.02040 F600
G1 X100.6120 Y104.8314 Z1.6300 E0.01732 F600
G1 X100.4959 Y104.6871 Z1.6836 E0.01732 F600
G1 X100.4530 Y104.5188 Z1.8300 E0.02040 F600
G1 X100.4806 Y104.3667 Z2.0300 E0.02270 F600
G1 X100.5524 Y104.2600 Z2.2300 E0.02135 F600
G1 X100.6321 Y104.2116 Z2.3764 E0.01559 F600
G1 X100.6866 Y104.2209 Z2.4300 E0.00691 F600
G1 X100.6930 Y104.2757 Z2.3764 E0.00691 F600
G1 X100.6405 Y104.3528 Z2.2300 E0.01559 F600
G1 X100.5302 Y104.4189 Z2.0300 E0.02135 F600
G1 X100.3768 Y104.4385 Z1.8300 E0.02270 F600
G1 X100.2110 Y104.3869 Z1.6836 E0.02040 F600
G1 X100.0729 Y104.2634 Z1.6300 E0.01732 F600
G1 X99.9981 Y104.0939 Z1.6836 E0.01732 F600
G1 X100.0003 Y103.9202 Z1.8300 E0.02040 F600
G1 X100.0663 Y103.7804 Z2.0300 E0.02270 F600
G1 X100.1633 Y103.6959 Z2.2300 E0.02135 F600
G1 X100.2528 Y103.6698 Z2.3764 E0.01559 F600
G1 X100.3030 Y103.6929 Z2.4300 E0.00691 F600
G1 X100.2950 Y103.7476 Z2.3764 E0.00691 F600
G1 X100.2243 Y103.8084 Z2.2300 E0.01559 F600
G1 X100.1006 Y103.8437 Z2.0300 E0.02135 F600
G1 X99.9475 Y103.8229 Z1.8300 E0.02270 F600
G1 X99.8006 Y103.7302 Z1.6836 E0.02040 F600
G1 X99.6993 Y103.5751 Z1.6300 E0.01732 F600
G1 X99.6708 Y103.3920 Z1.6836 E0.01732 F600
G1 X99.7179 Y103.2248 Z1.8300 E0.02040 F600
G1 X99.8178 Y103.1069 Z2.0300 E0.02270 F600
G1 X99.9333 Y103.0504 Z2.2300 E0.02135 F600
G1 X100.0266 Y103.0483 Z2.3764 E0.01559 F600
G1 X100.0691 Y103.0836 Z2.4300 E0.00691 F600
G1 X100.0472 Y103.1343 Z2.3764 E0.00691 F600
G1 X99.9632 Y103.1748 Z2.2300 E0.01559 F600
G1 X99.8346 Y103.1769 Z2.0300 E0.02135 F600
G1 X99.6920 Y103.1172 Z1.8300 E0.02270 F600
G1 X99.5742 Y102.9896 Z1.6836 E0.02040 F600
G1 X99.5164 Y102.8136 Z1.6300 E0.01732 F600
G1 X99.5363 Y102.6294 Z1.6836 E0.01732 F600
G1 X99.6251 Y102.4801 Z1.8300 E0.02040 F600
G1 X99.7521 Y102.3920 Z2.0300 E0.02270 F600
G1 X99.8784 Y102.3673 Z2.2300 E0.02135 F600
G1 X99.9689 Y102.3895 Z2.3764 E0.01559 F600
G1 X100.0009 Y102.4346 Z2.4300 E0.00691 F600
G1 X99.9666 Y102.4779 Z2.3764 E0.00691 F600
G1 X99.8750 Y102.4953 Z2.2300 E0.01559 F600
G1 X99.7502 Y102.4640 Z2.0300 E0.02135 F600
G1 X99.6280 Y102.3694 Z1.8300 E0.02270 F600
G1 X99.5472 Y102.2157 Z1.6836 E0.02040 F600
G1 X99.5369 Y102.0307 Z1.6300 E0.01732 F600
G1 X99.6038 Y101.8579 Z1.6836 E0.01732 F600
G1 X99.7282 Y101.7367 Z1.8300 E0.02040 F600
G1 X99.8737 Y101.6845 Z2.0300 E0.02270 F600
G1 X100.0020 Y101.6933 Z2.2300 E0.02135 F600
G1 X100.0838 Y101.7382 Z2.3764 E0.01559 F600
G1 X100.1030 Y101.7900 Z2.4300 E0.00691 F600
G1 X100.0586 Y101.8230 Z2.3764 E0.00691 F600
G1 X99.9657 Y101.8160 Z2.2300 E0.01559 F600
G1 X99.8532 Y101.7535 Z2.0300 E0.02135 F600
G1 X99.7596 Y101.6305 Z1.8300 E0.02270 F600
G1 X99.7214 Y101.4611 Z1.6836 E0.02040 F600
G1 X99.7594 Y101.2798 Z1.6300 E0.01732 F600
G1 X99.8687 Y101.1302 Z1.6836 E0.01732 F600
G1 X100.0202 Y101.0453 Z1.8300 E0.02040 F600
G1 X100.1742 Y101.0326 Z2.0300 E0.02270 F600
G1 X100.2959 Y101.0743 Z2.2300 E0.02135 F600
G1 X100.3633 Y101.1388 Z2.3764 E0.01559 F600
G1 X100.3684 Y101.1938 Z2.4300 E0.00691 F600
G1 X100.3171 Y101.2142 Z2.3764 E0.00691 F600
G1 X100.2290 Y101.1834 Z2.2300 E0.01559 F600
G1 X100.1366 Y101.0939 Z2.0300 E0.02135 F600
G1 X100.0780 Y100.9509 Z1.8300 E0.02270 F600
G1 X100.0849 Y100.7773 Z1.6836 E0.02040 F600
G1 X100.1686 Y100.6120 Z1.6300 E0.01732 F600
G1 X100.3129 Y100.4959 Z1.6836 E0.01732 F600
G1 X100.4812 Y100.4530 Z1.8300 E0.02040 F600
G1 X100.6333 Y100.4806 Z2.0300 E0.02270 F600
G1 X100.7400 Y100.5524 Z2.2300 E0.02135 F600
G1 X100.7884 Y100.6321 Z2.3764 E0.01559 F600
G1 X100.7791 Y100.6866 Z2.4300 E0.00691 F600
G1 X100.7243 Y100.6930 Z2.3764 E0.00691 F600
G1 X100.6472 Y100.6405 Z2.2300 E0.01559 F600
G1 X100.5811 Y100.5302 Z2.0300 E0.02135 F600
G1 X100.5615 Y100.3768 Z1.8300 E0.02270 F600
G1 X100.6131 Y100.2110 Z1.6836 E0.02040 F600
G1 X100.7366 Y100.0729 Z1.6300 E0.01732 F600
G1 X100.9061 Y99.9981 Z1.6836 E0.01732 F600
G1 X101.0798 Y100.0003 Z1.8300 E0.02040 F600
G1 X101.2196 Y100.0663 Z2.0300 E0.02270 F600
G1 X101.3041 Y100.1633 Z2.2300 E0.02135 F600
G1 X101.3302 Y100.2528 Z2.3764 E0.01559 F600
G1 X101.3071 Y100.3030 Z2.4300 E0.00691 F600
; row 4/6
G1 X100.9753 Y100.4767 Z2.8764 E0.05233 F600
G1 X100.9057 Y100.4146 Z2.7300 E0.01559 F600
G1 X100.8546 Y100.2966 Z2.5300 E0.02135 F600
G1 X100.8552 Y100.1420 Z2.3300 E0.02270 F600
G1 X100.9280 Y99.9843 Z2.1836 E0.02040 F600
G1 X101.0685 Y99.8635 Z2.1300 E0.01732 F600
G1 X101.2463 Y99.8114 Z2.1836 E0.01732 F600
G1 X101.4182 Y99.8363 Z2.3300 E0.02040 F600
G1 X101.5482 Y99.9200 Z2.5300 E0.02270 F600
G1 X101.6193 Y100.0271 Z2.7300 E0.02135 F600
G1 X101.6335 Y100.1193 Z2.8764 E0.01559 F600
G1 X101.6041 Y100.1660 Z2.9300 E0.00691 F600
G1 X101.5509 Y100.1510 Z2.8764 E0.00691 F600
G1 X101.4998 Y100.0730 Z2.7300 E0.01559 F600
G1 X101.4810 Y99.9458 Z2.5300 E0.02135 F600
G1 X101.5215 Y99.7966 Z2.3300 E0.02270 F600
G1 X101.6327 Y99.6631 Z2.1836 E0.02040 F600
G1 X101.7997 Y99.5829 Z2.1300 E0.01732 F600
G1 X101.9849 Y99.5786 Z2.1836 E0.01732 F600
G1 X102.1445 Y99.6471 Z2.3300 E0.02040 F600
G1 X102.2484 Y99.7615 Z2.5300 E0.02270 F600
G1 X102.2893 Y99.8835 Z2.7300 E0.02135 F600
G1 X102.2792 Y99.9761 Z2.8764 E0.01559 F600
G1 X102.2387 Y100.0137 Z2.9300 E0.00691 F600
G1 X102.1912 Y99.9854 Z2.8764 E0.00691 F600
G1 X102.1620 Y99.8968 Z2.7300 E0.01559 F600
G1 X102.1768 Y99.7691 Z2.5300 E0.02135 F600
G1 X102.2546 Y99.6355 Z2.3300 E0.02270 F600
G1 X102.3965 Y99.5353 Z2.1836 E0.02040 F600
G1 X102.5785 Y99.5010 Z2.1300 E0.01732 F600
G1 X102.7585 Y99.5448 Z2.1836 E0.01732 F600
G1 X102.8950 Y99.6523 Z2.3300 E0.02040 F600
G1 X102.9657 Y99.7897 Z2.5300 E0.02270 F600
G1 X102.9737 Y99.9181 Z2.7300 E0.02135 F600
G1 X102.9399 Y100.0050 Z2.8764 E0.01559 F600
G1 X102.8911 Y100.0308 Z2.9300 E0.00691 F600
G1 X102.8526 Y99.9912 Z2.8764 E0.00691 F600
G1 X102.8473 Y99.8981 Z2.7300 E0.01559 F600
G1 X102.8946 Y99.7785 Z2.5300 E0.02135 F600
G1 X103.0043 Y99.6696 Z2.3300 E0.02270 F600
G1 X103.1673 Y99.6095 Z2.1836 E0.02040 F600
G1 X103.3520 Y99.6235 Z2.1300 E0.01732 F600
G1 X103.5146 Y99.7124 Z2.1836 E0.01732 F600
G1 X103.6186 Y99.8515 Z2.3300 E0.02040 F600
G1 X103.6513 Y100.0026 Z2.5300 E0.02270 F600
G1 X103.6258 Y100.1287 Z2.7300 E0.02135 F600
G1 X103.5707 Y100.2039 Z2.8764 E0.01559 F600
G1 X103.5168 Y100.2161 Z2.9300 E0.00691 F600
G1 X103.4899 Y100.1679 Z2.8764 E0.00691 F600
G1 X103.5089 Y100.0766 Z2.7300 E0.01559 F600
G1 X103.5855 Y99.9733 Z2.5300 E0.02135 F600
G1 X103.7197 Y99.8966 Z2.3300 E0.02270 F600
G1 X103.8927 Y99.8807 Z2.1836 E0.02040 F600
G1 X104.0675 Y99.9421 Z2.1300 E0.01732 F600
G1 X104.2015 Y100.0700 Z2.1836 E0.01732 F600
G1 X104.2660 Y100.2313 Z2.3300 E0.02040 F600
G1 X104.2585 Y100.3857 Z2.5300 E0.02270 F600
G1 X104.2012 Y100.5009 Z2.7300 E0.02135 F600
G1 X104.1285 Y100.5592 Z2.8764 E0.01559 F600
G1 X104.0733 Y100.5571 Z2.9300 E0.00691 F600
G1 X104.0598 Y100.5036 Z2.8764 E0.00691 F600
G1 X104.1017 Y100.4203 Z2.7300 E0.01559 F600
G1 X104.2025 Y100.3404 Z2.5300 E0.02135 F600
G1 X104.3520 Y100.3009 Z2.3300 E0.02270 F600
G1 X104.5232 Y100.3304 Z2.1836 E0.02040 F600
G1 X104.6761 Y100.4349 Z2.1300 E0.01732 F600
G1 X104.7725 Y100.5932 Z2.1836 E0.01732 F600
G1 X104.7930 Y100.7657 Z2.3300 E0.02040 F600
G1 X104.7458 Y100.9129 Z2.5300 E0.02270 F600
G1 X104.6607 Y101.0093 Z2.7300 E0.02135 F600
G1 X104.5753 Y101.0468 Z2.8764 E0.01559 F600
G1 X104.5225 Y101.0305 Z2.9300 E0.00691 F600
G1 X104.5233 Y100.9753 Z2.8764 E0.00691 F600
G1 X104.5854 Y100.9057 Z2.7300 E0.01559 F600
G1 X104.7034 Y100.8546 Z2.5300 E0.02135 F600
G1 X104.8580 Y100.8552 Z2.3300 E0.02270 F600
G1 X105.0157 Y100.9280 Z2.1836 E0.02040 F600
G1 X105.1365 Y101.0685 Z2.1300 E0.01732 F600
G1 X105.1886 Y101.2463 Z2.1836 E0.01732 F600
G1 X105.1637 Y101.4182 Z2.3300 E0.02040 F600
G1 X105.0800 Y101.5482 Z2.5300 E0.02270 F600
G1 X104.9729 Y101.6193 Z2.7300 E0.02135 F600
G1 X104.8807 Y101.6335 Z2.8764 E0.01559 F600
G1 X104.8340 Y101.6041 Z2.9300 E0.00691 F600
G1 X104.8490 Y101.5509 Z2.8764 E0.00691 F600
G1 X104.9270 Y101.4998 Z2.7300 E0.01559 F600
G1 X105.0542 Y101.4810 Z2.5300 E0.02135 F600
G1 X105.2034 Y101.5215 Z2.3300 E0.02270 F600
G1 X105.3369 Y101.6327 Z2.1836 E0.02040 F600
G1 X105.4171 Y101.7997 Z2.1300 E0.01732 F600
G1 X105.4214 Y101.9849 Z2.1836 E0.01732 F600
G1 X105.3529 Y102.1445 Z2.3300 E0.02040 F600
G1 X105.2385 Y102.2484 Z2.5300 E0.02270 F600
G1 X105.1165 Y102.2893 Z2.7300 E0.02135 F600
G1 X105.0239 Y102.2792 Z2.8764 E0.01559 F600
G1 X104.9863 Y102.2387 Z2.9300 E0.00691 F600
G1 X105.0146 Y102.1912 Z2.8764 E0.00691 F600
G1 X105.1032 Y102.1620 Z2.7300 E0.01559 F600
G1 X105.2309 Y102.1768 Z2.5300 E0.02135 F600
G1 X105.3645 Y102.2546 Z2.3300 E0.02270 F600
G1 X105.4647 Y102.3965 Z2.1836 E0.02040 F600
G1 X105.4990 Y102.5785 Z2.1300 E0.01732 F600
G1 X105.4552 Y102.7585 Z2.1836 E0.01732 F600
G1 X105.3477 Y102.8950 Z2.3300 E0.02040 F600
G1 X105.2103 Y102.9657 Z2.5300 E0.02270 F600
G1 X105.0819 Y102.9737 Z2.7300 E0.02135 F600
G1 X104.9950 Y102.9399 Z2.8764 E0.01559 F600
G1 X104.9692 Y102.8911 Z2.9300 E0.00691 F600
G1 X105.0088 Y102.8526 Z2.8764 E0.00691 F600
G1 X105.1019 Y102.8473 Z2.7300 E0.01559 F600
G1 X105.2215 Y102.8946 Z2.5300 E0.02135 F600
G1 X105.3304 Y103.0043 Z2.3300 E0.02270 F600
G1 X105.3905 Y103.1673 Z2.1836 E0.02040 F600
G1 X105.3765 Y103.3520 Z2.1300 E0.01732 F600
G1 X105.2876 Y103.5146 Z2.1836 E0.01732 F600
G1 X105.1485 Y103.6186 Z2.3300 E0.02040 F600
G1 X104.9974 Y103.6513 Z2.5300 E0.02270 F600
G1 X104.8713 Y103.6258 Z2.7300 E0.02135 F600
G1 X104.7961 Y103.5707 Z2.8764 E0.01559 F600
G1 X104.7839 Y103.5168 Z2.9300 E0.00691 F600
G1 X104.8321 Y103.4899 Z2.8764 E0.00691 F600
G1 X104.9234 Y103.5089 Z2.7300 E0.01559 F600
G1 X105.0267 Y103.5855 Z2.5300 E0.02135 F600
G1 X105.1034 Y103.7197 Z2.3300 E0.02270 F600
G1 X105.1193 Y103.8927 Z2.1836 E0.02040 F600
G1 X105.0579 Y104.0675 Z2.1300 E0.01732 F600
G1 X104.9300 Y104.2015 Z2.1836 E0.01732 F600
G1 X104.7687 Y104.2660 Z2.3300 E0.02040 F600
G1 X104.6143 Y104.2585 Z2.5300 E0.02270 F600
G1 X104.4991 Y104.2012 Z2.7300 E0.02135 F600
G1 X104.4408 Y104.1285 Z2.8764 E0.01559 F600
G1 X104.4429 Y104.0733 Z2.9300 E0.00691 F600
G1 X104.4964 Y104.0598 Z2.8764 E0.00691 F600
G1 X104.5797 Y104.1017 Z2.7300 E0.01559 F600
G1 X104.6596 Y104.2025 Z2.5300 E0.02135 F600
G1 X104.6991 Y104.3520 Z2.3300 E0.02270 F600
G1 X104.6696 Y104.5232 Z2.1836 E0.02040 F600
G1 X104.5651 Y104.6761 Z2.1300 E0.01732 F600
G1 X104.4068 Y104.7725 Z2.1836 E0.01732 F600
G1 X104.2343 Y104.7930 Z2.3300 E0.02040 F600
G1 X104.0871 Y104.7458 Z2.5300 E0.02270 F600
G1 X103.9907 Y104.6607 Z2.7300 E0.02135 F600
G1 X103.9532 Y104.5753 Z2.8764 E0.01559 F600
G1 X103.9695 Y104.5225 Z2.9300 E0.00691 F600
G1 X104.0247 Y104.5233 Z2.8764 E0.00691 F600
G1 X104.0943 Y104.5854 Z2.7300 E0.01559 F600
G1 X104.1454 Y104.7034 Z2.5300 E0.02135 F600
G1 X104.1448 Y104.8580 Z2.3300 E0.02270 F600
G1 X104.0720 Y105.0157 Z2.1836 E0.02040 F600
G1 X103.9315 Y105.1365 Z2.1300 E0.01732 F600
G1 X103.7537 Y105.1886 Z2.1836 E0.01732 F600
G1 X103.5818 Y105.1637 Z2.3300 E0.02040 F600
G1 X103.4518 Y105.0800 Z2.5300 E0.02270 F600
G1 X103.3807 Y104.9729 Z2.7300 E0.02135 F600
G1 X103.3665 Y104.8807 Z2.8764 E0.01559 F600
G1 X103.3959 Y104.8340 Z2.9300 E0.00691 F600
G1 X103.4491 Y104.8490 Z2.8764 E0.00691 F600
G1 X103.5002 Y104.9270 Z2.7300 E0.01559 F600
G1 X103.5190 Y105.0542 Z2.5300 E0.02135 F600
G1 X103.4785 Y105.2034 Z2.3300 E0.02270 F600
G1 X103.3673 Y105.3369 Z2.1836 E0.02040 F600
G1 X103.2003 Y105.4171 Z2.1300 E0.01732 F600
G1 X103.0151 Y105.4214 Z2.1836 E0.01732 F600
G1 X102.8555 Y105.3529 Z2.3300 E0.02040 F600
G1 X102.7516 Y105.2385 Z2.5300 E0.02270 F600
G1 X102.7107 Y105.1165 Z2.7300 E0.02135 F600
G1 X102.7208 Y105.0239 Z2.8764 E0.01559 F600
G1 X102.7613 Y104.9863 Z2.9300 E0.00691 F600
G1 X102.8088 Y105.0146 Z2.8764 E0.00691 F600
G1 X102.8380 Y105.1032 Z2.7300 E0.01559 F600
G1 X102.8232 Y105.2309 Z2.5300 E0.02135 F600
G1 X102.7454 Y105.3645 Z2.3300 E0.02270 F600
G1 X102.6035 Y105.4647 Z2.1836 E0.02040 F600
G1 X102.4215 Y105.4990 Z2.1300 E0.01732 F600
G1 X102.2415 Y105.4552 Z2.1836 E0.01732 F600
G1 X102.1050 Y105.3477 Z2.3300 E0.02040 F600
G1 X102.0343 Y105.2103 Z2.5300 E0.02270 F600
G1 X102.0263 Y105.0819 Z2.7300 E0.02135 F600
G1 X102.0601 Y104.9950 Z2.8764 E0.01559 F600
G1 X102.1089 Y104.9692 Z2.9300 E0.00691 F600
G1 X102.1474 Y105.0088 Z2.8764 E0.00691 F600
G1 X102.1527 Y105.1019 Z2.7300 E0.01559 F600
G1 X102.1054 Y105.2215 Z2.5300 E0.02135 F600
G1 X101.9957 Y105.3304 Z2.3300 E0.02270 F600
G1 X101.8327 Y105.3905 Z2.1836 E0.02040 F600
G1 X101.6480 Y105.3765 Z2.1300 E0.01732 F600
G1 X101.4854 Y105.2876 Z2.1836 E0.01732 F600
G1 X101.3814 Y105.1485 Z2.3300 E0.02040 F600
G1 X101.3487 Y104.9974 Z2.5300 E0.02270 F600
G1 X101.3742 Y104.8713 Z2.7300 E0.02135 F600
G1 X101.4293 Y104.7961 Z2.8764 E0.01559 F600
G1 X101.4832 Y104.7839 Z2.9300 E0.00691 F600
G1 X101.5101 Y104.8321 Z2.8764 E0.00691 F600
G1 X101.4911 Y104.9234 Z2.7300 E0.01559 F600
G1 X101.4145 Y105.0267 Z2.5300 E0.02135 F600
G1 X101.2803 Y105.1034 Z2.3300 E0.02270 F600
G1 X101.1073 Y105.1193 Z2.1836 E0.02040 F600
G1 X100.9325 Y105.0579 Z2.1300 E0.01732 F600
G1 X100.7985 Y104.9300 Z2.1836 E0.01732 F600
G1 X100.7340 Y104.7687 Z2.3300 E0.02040 F600
G1 X100.7415 Y104.6143 Z2.5300 E0.02270 F600
G1 X100.7988 Y104.4991 Z2.7300 E0.02135 F600
G1 X100.8715 Y104.4408 Z2.8764 E0.01559 F600
G1 X100.9267 Y104.4429 Z2.9300 E0.00691 F600
G1 X100.9402 Y104.4964 Z2.8764 E0.00691 F600
G1 X100.8983 Y104.5797 Z2.7300 E0.01559 F600
G1 X100.7975 Y104.6596 Z2.5300 E0.02135 F600
G1 X100.6480 Y104.6991 Z2.3300 E0.02270 F600
G1 X100.4768 Y104.6696 Z2.1836 E0.02040 F600
G1 X100.3239 Y104.5651 Z2.1300 E0.01732 F600
G1 X100.2275 Y104.4068 Z2.1836 E0.01732 F600
G1 X100.2070 Y104.2343 Z2.3300 E0.02040 F600
G1 X100.2542 Y104.0871 Z2.5300 E0.02270 F600
G1 X100.3393 Y103.9907 Z2.7300 E0.02135 F600
G1 X100.4247 Y103.9532 Z2.8764 E0.01559 F600
G1 X100.4775 Y103.9695 Z2.9300 E0.00691 F600
G1 X100.4767 Y104.0247 Z2.8764 E0.00691 F600
G1 X100.4146 Y104.0943 Z2.7300 E0.01559 F600
G1 X100.2966 Y104.1454 Z2.5300 E0.02135 F600
G1 X100.1420 Y104.1448 Z2.3300 E0.02270 F600
G1 X99.9843 Y104.0720 Z2.1836 E0.02040 F600
G1 X99.8635 Y103.9315 Z2.1300 E0.01732 F600
G1 X99.8114 Y103.7537 Z2.1836 E0.01732 F600
G1 X99.8363 Y103.5818 Z2.3300 E0.02040 F600
G1 X99.9200 Y103.4518 Z2.5300 E0.02270 F600
G1 X100.0271 Y103.3807 Z2.7300 E0.02135 F600
G1 X100.1193 Y103.3665 Z2.8764 E0.01559 F600
G1 X100.1660 Y103.3959 Z2.9300 E0.00691 F600
G1 X100.1510 Y103.4491 Z2.8764 E0.00691 F600
G1 X100.0730 Y103.5002 Z2.7300 E0.01559 F600
G1 X99.9458 Y103.5190 Z2.5300 E0.02135 F600
G1 X99.7966 Y103.4785 Z2.3300 E0.02270 F600
G1 X99.6631 Y103.3673 Z2.1836 E0.02040 F600
G1 X99.5829 Y103.2003 Z2.1300 E0.01732 F600
G1 X99.5786 Y103.0151 Z2.1836 E0.01732 F600
G1 X99.6471 Y102.8555 Z2.3300 E0.02040 F600
G1 X99.7615 Y102.7516 Z2.5300 E0.02270 F600
G1 X99.8835 Y102.7107 Z2.7300 E0.02135 F600
G1 X99.9761 Y102.7208 Z2.8764 E0.01559 F600
G1 X100.0137 Y102.7613 Z2.9300 E0.00691 F600
G1 X99.9854 Y102.8088 Z2.8764 E0.00691 F600
G1 X99.8968 Y102.8380 Z2.7300 E0.01559 F600
G1 X99.7691 Y102.8232 Z2.5300 E0.02135 F600
G1 X99.6355 Y102.7454 Z2.3300 E0.02270 F600
G1 X99.5353 Y102.6035 Z2.1836 E0.02040 F600
G1 X99.5010 Y102.4215 Z2.1300 E0.01732 F600
G1 X99.5448 Y102.2415 Z2.1836 E0.01732 F600
G1 X99.6523 Y102.1050 Z2.3300 E0.02040 F600
G1 X99.7897 Y102.0343 Z2.5300 E0.02270 F600
G1 X99.9181 Y102.0263 Z2.7300 E0.02135 F600
G1 X100.0050 Y102.0601 Z2.8764 E0.01559 F600
G1 X100.0308 Y102.1089 Z2.9300 E0.00691 F600
G1 X99.9912 Y102.1474 Z2.8764 E0.00691 F600
G1 X99.8981 Y102.1527 Z2.7300 E0.01559 F600
G1 X99.7785 Y102.1054 Z2.5300 E0.02135 F600
G1 X99.6696 Y101.9957 Z2.3300 E0.02270 F600
G1 X99.6095 Y101.8327 Z2.1836 E0.02040 F600
G1 X99.6235 Y101.6480 Z2.1300 E0.01732 F600
G1 X99.7124 Y101.4854 Z2.1836 E0.01732 F600
G1 X99.8515 Y101.3814 Z2.3300 E0.02040 F600
G1 X100.0026 Y101.3487 Z2.5300 E0.02270 F600
G1 X100.1287 Y101.3742 Z2.7300 E0.02135 F600
G1 X100.2039 Y101.4293 Z2.8764 E0.01559 F600
G1 X100.2161 Y101.4832 Z2.9300 E0.00691 F600
G1 X100.1679 Y101.5101 Z2.8764 E0.00691 F600
G1 X100.0766 Y101.4911 Z2.7300 E0.01559 F600
G1 X99.9733 Y101.4145 Z2.5300 E0.02135 F600
G1 X99.8966 Y101.2803 Z2.3300 E0.02270 F600
G1 X99.8807 Y101.1073 Z2.1836 E0.02040 F600
G1 X99.9421 Y100.9325 Z2.1300 E0.01732 F600
G1 X100.0700 Y100.7985 Z2.1836 E0.01732 F600
G1 X100.2313 Y100.7340 Z2.3300 E0.02040 F600
G1 X100.3857 Y100.7415 Z2.5300 E0.02270 F600
G1 X100.5009 Y100.7988 Z2.7300 E0.02135 F600
G1 X100.5592 Y100.8715 Z2.8764 E0.01559 F600
G1 X100.5571 Y100.9267 Z2.9300 E0.00691 F600
G1 X100.5036 Y100.9402 Z2.8764 E0.00691 F600
G1 X100.4203 Y100.8983 Z2.7300 E0.01559 F600
G1 X100.3404 Y100.7975 Z2.5300 E0.02135 F600
G1 X100.3009 Y100.6480 Z2.3300 E0.02270 F600
G1 X100.3304 Y100.4768 Z2.1836 E0.02040 F600
G1 X100.4349 Y100.3239 Z2.1300 E0.01732 F600
G1 X100.5932 Y100.2275 Z2.1836 E0.01732 F600
G1 X100.7657 Y100.2070 Z2.3300 E0.02040 F600
G1 X100.9129 Y100.2542 Z2.5300 E0.02270 F600
G1 X101.0093 Y100.3393 Z2.7300 E0.02135 F600
G1 X101.0468 Y100.4247 Z2.8764 E0.01559 F600
G1 X101.0305 Y100.4775 Z2.9300 E0.00691 F600
; row 5/6
G1 X101.2524 Y100.2950 Z3.3764 E0.04767 F600
G1 X101.1916 Y100.2243 Z3.2300 E0.01559 F600
G1 X101.1563 Y100.1006 Z3.0300 E0.02135 F600
G1 X101.1771 Y99.9475 Z2.8300 E0.02270 F600
G1 X101.2698 Y99.8006 Z2.6836 E0.02040 F600
G1 X101.4249 Y99.6993 Z2.6300 E0.01732 F600
G1 X101.6080 Y99.6708 Z2.6836 E0.01732 F600
G1 X101.7752 Y99.7179 Z2.8300 E0.02040 F600
G1 X101.8931 Y99.8178 Z3.0300 E0.02270 F600
G1 X101.9496 Y99.9333 Z3.2300 E0.02135 F600
G1 X101.9517 Y100.0266 Z3.3764 E0.01559 F600
G1 X101.9164 Y100.0691 Z3.4300 E0.00691 F600
G1 X101.8657 Y100.0472 Z3.3764 E0.00691 F600
G1 X101.8252 Y99.9632 Z3.2300 E0.01559 F600
G1 X101.8231 Y99.8346 Z3.0300 E0.02135 F600
G1 X101.8828 Y99.6920 Z2.8300 E0.02270 F600
G1 X102.0104 Y99.5742 Z2.6836 E0.02040 F600
G1 X102.1864 Y99.5164 Z2.6300 E0.01732 F600
G1 X102.3706 Y99.5363 Z2.6836 E0.01732 F600
G1 X102.5199 Y99.6251 Z2.8300 E0.02040 F600
G1 X102.6080 Y99.7521 Z3.0300 E0.02270 F600
G1 X102.6327 Y99.8784 Z3.2300 E0.02135 F600
G1 X102.6105 Y99.9689 Z3.3764 E0.01559 F600
G1 X102.5654 Y100.0009 Z3.4300 E0.00691 F600
G1 X102.5221 Y99.9666 Z3.3764 E0.00691 F600
G1 X102.5047 Y99.8750 Z3.2300 E0.01559 F600
G1 X102.5360 Y99.7502 Z3.0300 E0.02135 F600
G1 X102.6306 Y99.6280 Z2.8300 E0.02270 F600
G1 X102.7843 Y99.5472 Z2.6836 E0.02040 F600
G1 X102.9693 Y99.5369 Z2.6300 E0.01732 F600
G1 X103.1421 Y99.6038 Z2.6836 E0.01732 F600
G1 X103.2633 Y99.7282 Z2.8300 E0.02040 F600
G1 X103.3155 Y99.8737 Z3.0300 E0.02270 F600
G1 X103.3067 Y100.0020 Z3.2300 E0.02135 F600
G1 X103.2618 Y100.0838 Z3.3764 E0.01559 F600
G1 X103.2100 Y100.1030 Z3.4300 E0.00691 F600
G1 X103.1770 Y100.0586 Z3.3764 E0.00691 F600
G1 X103.1840 Y99.9657 Z3.2300 E0.01559 F600
G1 X103.2465 Y99.8532 Z3.0300 E0.02135 F600
G1 X103.3695 Y99.7596 Z2.8300 E0.02270 F600
G1 X103.5389 Y99.7214 Z2.6836 E0.02040 F600
G1 X103.7202 Y99.7594 Z2.6300 E0.01732 F600
G1 X103.8698 Y99.8687 Z2.6836 E0.01732 F600
G1 X103.9547 Y100.0202 Z2.8300 E0.02040 F600
G1 X103.9674 Y100.1742 Z3.0300 E0.02270 F600
G1 X103.9257 Y100.2959 Z3.2300 E0.02135 F600
G1 X103.8612 Y100.3633 Z3.3764 E0.01559 F600
G1 X103.8062 Y100.3684 Z3.4300 E0.00691 F600
G1 X103.7858 Y100.3171 Z3.3764 E0.00691 F600
G1 X103.8166 Y100.2290 Z3.2300 E0.01559 F600
G1 X103.9061 Y100.1366 Z3.0300 E0.02135 F600
G1 X104.0491 Y100.0780 Z2.8300 E0.02270 F600
G1 X104.2227 Y100.0849 Z2.6836 E0.02040 F600
G1 X104.3880 Y100.1686 Z2.6300 E0.01732 F600
G1 X104.5041 Y100.3129 Z2.6836 E0.01732 F600
G1 X104.5470 Y100.4812 Z2.8300 E0.02040 F600
G1 X104.5194 Y100.6333 Z3.0300 E0.02270 F600
G1 X104.4476 Y100.7400 Z3.2300 E0.02135 F600
G1 X104.3679 Y100.7884 Z3.3764 E0.01559 F600
G1 X104.3134 Y100.7791 Z3.4300 E0.00691 F600
G1 X104.3070 Y100.7243 Z3.3764 E0.00691 F600
G1 X104.3595 Y100.6472 Z3.2300 E0.01559 F600
G1 X104.4698 Y100.5811 Z3.0300 E0.02135 F600
G1 X104.6232 Y100.5615 Z2.8300 E0.02270 F600
G1 X104.7890 Y100.6131 Z2.6836 E0.02040 F600
G1 X104.9271 Y100.7366 Z2.6300 E0.01732 F600
G1 X105.0019 Y100.9061 Z2.6836 E0.01732 F600
G1 X104.9997 Y101.0798 Z2.8300 E0.02040 F600
G1 X104.9337 Y101.2196 Z3.0300 E0.02270 F600
G1 X104.8367 Y101.3041 Z3.2300 E0.02135 F600
G1 X104.7472 Y101.3302 Z3.3764 E0.01559 F600
G1 X104.6970 Y101.3071 Z3.4300 E0.00691 F600
G1 X104.7050 Y101.2524 Z3.3764 E0.00691 F600
G1 X104.7757 Y101.1916 Z3.2300 E0.01559 F600
G1 X104.8994 Y101.1563 Z3.0300 E0.02135 F600
G1 X105.0525 Y101.1771 Z2.8300 E0.02270 F600
G1 X105.1994 Y101.2698 Z2.6836 E0.02040 F600
G1 X105.3007 Y101.4249 Z2.6300 E0.01732 F600
G1 X105.3292 Y101.6080 Z2.6836 E0.01732 F600
G1 X105.2821 Y101.7752 Z2.8300 E0.02040 F600
G1 X105.1822 Y101.8931 Z3.0300 E0.02270 F600
G1 X105.0667 Y101.9496 Z3.2300 E0.02135 F600
G1 X104.9734 Y101.9517 Z3.3764 E0.01559 F600
G1 X104.9309 Y101.9164 Z3.4300 E0.00691 F600
G1 X104.9528 Y101.8657 Z3.3764 E0.00691 F600
G1 X105.0368 Y101.8252 Z3.2300 E0.01559 F600
G1 X105.1654 Y101.8231 Z3.0300 E0.02135 F600
G1 X105.3080 Y101.8828 Z2.8300 E0.02270 F600
G1 X105.4258 Y102.0104 Z2.6836 E0.02040 F600
G1 X105.4836 Y102.1864 Z2.6300 E0.01732 F600
G1 X105.4637 Y102.3706 Z2.6836 E0.01732 F600
G1 X105.3749 Y102.5199 Z2.8300 E0.02040 F600
G1 X105.2479 Y102.6080 Z3.0300 E0.02270 F600
G1 X105.1216 Y102.6327 Z3.2300 E0.02135 F600
G1 X105.0311 Y102.6105 Z3.3764 E0.01559 F600
G1 X104.9991 Y102.5654 Z3.4300 E0.00691 F600
G1 X105.0334 Y102.5221 Z3.3764 E0.00691 F600
G1 X105.1250 Y102.5047 Z3.2300 E0.01559 F600
G1 X105.2498 Y102.5360 Z3.0300 E0.02135 F600
G1 X105.3720 Y102.6306 Z2.8300 E0.02270 F600
G1 X105.4528 Y102.7843 Z2.6836 E0.02040 F600
G1 X105.4631 Y102.9693 Z2.6300 E0.01732 F600
G1 X105.3962 Y103.1421 Z2.6836 E0.01732 F600
G1 X105.2718 Y103.2633 Z2.8300 E0.02040 F600
G1 X105.1263 Y103.3155 Z3.0300 E0.02270 F600
G1 X104.9980 Y103.3067 Z3.2300 E0.02135 F600
G1 X104.9162 Y103.2618 Z3.3764 E0.01559 F600
G1 X104.8970 Y103.2100 Z3.4300 E0.00691 F600
G1 X104.9414 Y103.1770 Z3.3764 E0.00691 F600
G1 X105.0343 Y103.1840 Z3.2300 E0.01559 F600
G1 X105.1468 Y103.2465 Z3.0300 E0.02135 F600
G1 X105.2404 Y103.3695 Z2.8300 E0.02270 F600
G1 X105.2786 Y103.5389 Z2.6836 E0.02040 F600
G1 X105.2406 Y103.7202 Z2.6300 E0.01732 F600
G1 X105.1313 Y103.8698 Z2.6836 E0.01732 F600
G1 X104.9798 Y103.9547 Z2.8300 E0.02040 F600
G1 X104.8258 Y103.9674 Z3.0300 E0.02270 F600
G1 X104.7041 Y103.9257 Z3.2300 E0.02135 F600
G1 X104.6367 Y103.8612 Z3.3764 E0.01559 F600
G1 X104.6316 Y103.8062 Z3.4300 E0.00691 F600
G1 X104.6829 Y103.7858 Z3.3764 E0.00691 F600
G1 X104.7710 Y103.8166 Z3.2300 E0.01559 F600
G1 X104.8634 Y103.9061 Z3.0300 E0.02135 F600
G1 X104.9220 Y104.0491 Z2.8300 E0.02270 F600
G1 X104.9151 Y104.2227 Z2.6836 E0.02040 F600
G1 X104.8314 Y104.3880 Z2.6300 E0.01732 F600
G1 X104.6871 Y104.5041 Z2.6836 E0.01732 F600
G1 X104.5188 Y104.5470 Z2.8300 E0.02040 F600
G1 X104.3667 Y104.5194 Z3.0300 E0.02270 F600
G1 X104.2600 Y104.4476 Z3.2300 E0.02135 F600
G1 X104.2116 Y104.3679 Z3.3764 E0.01559 F600
G1 X104.2209 Y104.3134 Z3.4300 E0.00691 F600
G1 X104.2757 Y104.3070 Z3.3764 E0.00691 F600
G1 X104.3528 Y104.3595 Z3.2300 E0.01559 F600
G1 X104.4189 Y104.4698 Z3.0300 E0.02135 F600
G1 X104.4385 Y104.6232 Z2.8300 E0.02270 F600
G1 X104.3869 Y104.7890 Z2.6836 E0.02040 F600
G1 X104.2634 Y104.9271 Z2.6300 E0.01732 F600
G1 X104.0939 Y105.0019 Z2.6836 E0.01732 F600
G1 X103.9202 Y104.9997 Z2.8300 E0.02040 F600
G1 X103.7804 Y104.9337 Z3.0300 E0.02270 F600
G1 X103.6959 Y104.8367 Z3.2300 E0.02135 F600
G1 X103.6698 Y104.7472 Z3.3764 E0.01559 F600
G1 X103.6929 Y104.6970 Z3.4300 E0.00691 F600
G1 X103.7476 Y104.7050 Z3.3764 E0.00691 F600
G1 X103.8084 Y104.7757 Z3.2300 E0.01559 F600
G1 X103.8437 Y104.8994 Z3.0300 E0.02135 F600
G1 X103.8229 Y105.0525 Z2.8300 E0.02270 F600
G1 X103.7302 Y105.1994 Z2.6836 E0.02040 F600
G1 X103.5751 Y105.3007 Z2.6300 E0.01732 F600
G1 X103.3920 Y105.3292 Z2.6836 E0.01732 F600
G1 X103.2248 Y105.2821 Z2.8300 E0.02040 F600
G1 X103.1069 Y105.1822 Z3.0300 E0.02270 F600
G1 X103.0504 Y105.0667 Z3.2300 E0.02135 F600
G1 X103.0483 Y104.9734 Z3.3764 E0.01559 F600
G1 X103.0836 Y104.9309 Z3.4300 E0.00691 F600
G1 X103.1343 Y104.9528 Z3.3764 E0.00691 F600
G1 X103.1748 Y105.0368 Z3.2300 E0.01559 F600
G1 X103.1769 Y105.1654 Z3.0300 E0.02135 F600
G1 X103.1172 Y105.3080 Z2.8300 E0.02270 F600
G1 X102.9896 Y105.4258 Z2.6836 E0.02040 F600
G1 X102.8136 Y105.4836 Z2.6300 E0.01732 F600
G1 X102.6294 Y105.4637 Z2.6836 E0.01732 F600
G1 X102.4801 Y105.3749 Z2.8300 E0.02040 F600
G1 X102.3920 Y105.2479 Z3.0300 E0.02270 F600
G1 X102.3673 Y105.1216 Z3.2300 E0.02135 F600
G1 X102.3895 Y105.0311 Z3.3764 E0.01559 F600
G1 X102.4346 Y104.9991 Z3.4300 E0.00691 F600
G1 X102.4779 Y105.0334 Z3.3764 E0.00691 F600
G1 X102.4953 Y105.1250 Z3.2300 E0.01559 F600
G1 X102.4640 Y105.2498 Z3.0300 E0.02135 F600
G1 X102.3694 Y105.3720 Z2.8300 E0.02270 F600
G1 X102.2157 Y105.4528 Z2.6836 E0.02040 F600
G1 X102.0307 Y105.4631 Z2.6300 E0.01732 F600
G1 X101.8579 Y105.3962 Z2.6836 E0.01732 F600
G1 X101.7367 Y105.2718 Z2.8300 E0.02040 F600
G1 X101.6845 Y105.1263 Z3.0300 E0.02270 F600
G1 X101.6933 Y104.9980 Z3.2300 E0.02135 F600
G1 X101.7382 Y104.9162 Z3.3764 E0.01559 F600
G1 X101.7900 Y104.8970 Z3.4300 E0.00691 F600
G1 X101.8230 Y104.9414 Z3.3764 E0.00691 F600
G1 X101.8160 Y105.0343 Z3.2300 E0.01559 F600
G1 X101.7535 Y105.1468 Z3.0300 E0.02135 F600
G1 X101.6305 Y105.2404 Z2.8300 E0.02270 F600
G1 X101.4611 Y105.2786 Z2.6836 E0.02040 F600
G1 X101.2798 Y105.2406 Z2.6300 E0.01732 F600
G1 X101.1302 Y105.1313 Z2.6836 E0.01732 F600
G1 X101.0453 Y104.9798 Z2.8300 E0.02040 F600
G1 X101.0326 Y104.8258 Z3.0300 E0.02270 F600
G1 X101.0743 Y104.7041 Z3.2300 E0.02135 F600
G1 X101.1388 Y104.6367 Z3.3764 E0.01559 F600
G1 X101.1938 Y104.6316 Z3.4300 E0.00691 F600
G1 X101.2142 Y104.6829 Z3.3764 E0.00691 F600
G1 X101.1834 Y104.7710 Z3.2300 E0.01559 F600
G1 X101.0939 Y104.8634 Z3.0300 E0.02135 F600
G1 X100.9509 Y104.9220 Z2.8300 E0.02270 F600
G1 X100.7773 Y104.9151 Z2.6836 E0.02040 F600
G1 X100.6120 Y104.8314 Z2.6300 E0.01732 F600
G1 X100.4959 Y104.6871 Z2.6836 E0.01732 F600
G1 X100.4530 Y104.5188 Z2.8300 E0.02040 F600
G1 X100.4806 Y104.3667 Z3.0300 E0.02270 F600
G1 X100.5524 Y104.2600 Z3.2300 E0.02135 F600
G1 X100.6321 Y104.2116 Z3.3764 E0.01559 F600
G1 X100.6866 Y104.2209 Z3.4300 E0.00691 F600
G1 X100.6930 Y104.2757 Z3.3764 E0.00691 F600
G1 X100.6405 Y104.3528 Z3.2300 E0.01559 F600
G1 X100.5302 Y104.4189 Z3.0300 E0.02135 F600
G1 X100.3768 Y104.4385 Z2.8300 E0.02270 F600
G1 X100.2110 Y104.3869 Z2.6836 E0.02040 F600
G1 X100.0729 Y104.2634 Z2.6300 E0.01732 F600
G1 X99.9981 Y104.0939 Z2.6836 E0.01732 F600
G1 X100.0003 Y103.9202 Z2.8300 E0.02040 F600
G1 X100.0663 Y103.7804 Z3.0300 E0.02270 F600
G1 X100.1633 Y103.6959 Z3.2300 E0.02135 F600
G1 X100.2528 Y103.6698 Z3.3764 E0.01559 F600
G1 X100.3030 Y103.6929 Z3.4300 E0.00691 F600
G1 X100.2950 Y103.7476 Z3.3764 E0.00691 F600
G1 X100.2243 Y103.8084 Z3.2300 E0.01559 F600
G1 X100.1006 Y103.8437 Z3.0300 E0.02135 F600
G1 X99.9475 Y103.8229 Z2.8300 E0.02270 F600
G1 X99.8006 Y103.7302 Z2.6836 E0.02040 F600
G1 X99.6993 Y103.5751 Z2.6300 E0.01732 F600
G1 X99.6708 Y103.3920 Z2.6836 E0.01732 F600
G1 X99.7179 Y103.2248 Z2.8300 E0.02040 F600
G1 X99.8178 Y103.1069 Z3.0300 E0.02270 F600
G1 X99.9333 Y103.0504 Z3.2300 E0.02135 F600
G1 X100.0266 Y103.0483 Z3.3764 E0.01559 F600
G1 X100.0691 Y103.0836 Z3.4300 E0.00691 F600
G1 X100.0472 Y103.1343 Z3.3764 E0.00691 F600
G1 X99.9632 Y103.1748 Z3.2300 E0.01559 F600
G1 X99.8346 Y103.1769 Z3.0300 E0.02135 F600
G1 X99.6920 Y103.1172 Z2.8300 E0.02270 F600
G1 X99.5742 Y102.9896 Z2.6836 E0.02040 F600
G1 X99.5164 Y102.8136 Z2.6300 E0.01732 F600
G1 X99.5363 Y102.6294 Z2.6836 E0.01732 F600
G1 X99.6251 Y102.4801 Z2.8300 E0.02040 F600
G1 X99.7521 Y102.3920 Z3.0300 E0.02270 F600
G1 X99.8784 Y102.3673 Z3.2300 E0.02135 F600
G1 X99.9689 Y102.3895 Z3.3764 E0.01559 F600
G1 X100.0009 Y102.4346 Z3.4300 E0.00691 F600
G1 X99.9666 Y102.4779 Z3.3764 E0.00691 F600
G1 X99.8750 Y102.4953 Z3.2300 E0.01559 F600
G1 X99.7502 Y102.4640 Z3.0300 E0.02135 F600
G1 X99.6280 Y102.3694 Z2.8300 E0.02270 F600
G1 X99.5472 Y102.2157 Z2.6836 E0.02040 F600
G1 X99.5369 Y102.0307 Z2.6300 E0.01732 F600
G1 X99.6038 Y101.8579 Z2.6836 E0.01732 F600
G1 X99.7282 Y101.7367 Z2.8300 E0.02040 F600
G1 X99.8737 Y101.6845 Z3.0300 E0.02270 F600
G1 X100.0020 Y101.6933 Z3.2300 E0.02135 F600
G1 X100.0838 Y101.7382 Z3.3764 E0.01559 F600
G1 X100.1030 Y101.7900 Z3.4300 E0.00691 F600
G1 X100.0586 Y101.8230 Z3.3764 E0.00691 F600
G1 X99.9657 Y101.8160 Z3.2300 E0.01559 F600
G1 X99.8532 Y101.7535 Z3.0300 E0.02135 F600
G1 X99.7596 Y101.6305 Z2.8300 E0.02270 F600
G1 X99.7214 Y101.4611 Z2.6836 E0.02040 F600
G1 X99.7594 Y101.2798 Z2.6300 E0.01732 F600
G1 X99.8687 Y101.1302 Z2.6836 E0.01732 F600
G1 X100.0202 Y101.0453 Z2.8300 E0.02040 F600
G1 X100.1742 Y101.0326 Z3.0300 E0.02270 F600
G1 X100.2959 Y101.0743 Z3.2300 E0.02135 F600
G1 X100.3633 Y101.1388 Z3.3764 E0.01559 F600
G1 X100.3684 Y101.1938 Z3.4300 E0.00691 F600
G1 X100.3171 Y101.2142 Z3.3764 E0.00691 F600
G1 X100.2290 Y101.1834 Z3.2300 E0.01559 F600
G1 X100.1366 Y101.0939 Z3.0300 E0.02135 F600
G1 X100.0780 Y100.9509 Z2.8300 E0.02270 F600
G1 X100.0849 Y100.7773 Z2.6836 E0.02040 F600
G1 X100.1686 Y100.6120 Z2.6300 E0.01732 F600
G1 X100.3129 Y100.4959 Z2.6836 E0.01732 F600
G1 X100.4812 Y100.4530 Z2.8300 E0.02040 F600
G1 X100.6333 Y100.4806 Z3.0300 E0.02270 F600
G1 X100.7400 Y100.5524 Z3.2300 E0.02135 F600
G1 X100.7884 Y100.6321 Z3.3764 E0.01559 F600
G1 X100.7791 Y100.6866 Z3.4300 E0.00691 F600
G1 X100.7243 Y100.6930 Z3.3764 E0.00691 F600
G1 X100.6472 Y100.6405 Z3.2300 E0.01559 F600
G1 X100.5811 Y100.5302 Z3.0300 E0.02135 F600
G1 X100.5615 Y100.3768 Z2.8300 E0.02270 F600
G1 X100.6131 Y100.2110 Z2.6836 E0.02040 F600
G1 X100.7366 Y100.0729 Z2.6300 E0.01732 F600
G1 X100.9061 Y99.9981 Z2.6836 E0.01732 F600
G1 X101.0798 Y100.0003 Z2.8300 E0.02040 F600
G1 X101.2196 Y100.0663 Z3.0300 E0.02270 F600
G1 X101.3041 Y100.1633 Z3.2300 E0.02135 F600
G1 X101.3302 Y100.2528 Z3.3764 E0.01559 F600
G1 X101.3071 Y100.3030 Z3.4300 E0.00691 F600
; row 6/6
; closing rim (2 turns)
G1 X101.2500 Y100.3349 Z3.8300 E0.03640 F600
G1 X101.4832 Y100.2161 Z3.8300 E0.02350 F600
G1 X101.7275 Y100.1224 Z3.8300 E0.02350 F600
G1 X101.9802 Y100.0546 Z3.8300 E0.02350 F600
G1 X102.2387 Y100.0137 Z3.8300 E0.02350 F600
G1 X102.5000 Y100.0000 Z3.8300 E0.02350 F600
G1 X102.7613 Y100.0137 Z3.8300 E0.02350 F600
G1 X103.0198 Y100.0546 Z3.8300 E0.02350 F600
G1 X103.2725 Y100.1224 Z3.8300 E0.02350 F600
G1 X103.5168 Y100.2161 Z3.8300 E0.02350 F600
G1 X103.7500 Y100.3349 Z3.8300 E0.02350 F600
G1 X103.9695 Y100.4775 Z3.8300 E0.02350 F600
G1 X104.1728 Y100.6421 Z3.8300 E0.02350 F600
G1 X104.3579 Y100.8272 Z3.8300 E0.02350 F600
G1 X104.5225 Y101.0305 Z3.8300 E0.02350 F600
G1 X104.6651 Y101.2500 Z3.8300 E0.02350 F600
G1 X104.7839 Y101.4832 Z3.8300 E0.02350 F600
G1 X104.8776 Y101.7275 Z3.8300 E0.02350 F600
G1 X104.9454 Y101.9802 Z3.8300 E0.02350 F600
G1 X104.9863 Y102.2387 Z3.8300 E0.02350 F600
G1 X105.0000 Y102.5000 Z3.8300 E0.02350 F600
G1 X104.9863 Y102.7613 Z3.8300 E0.02350 F600
G1 X104.9454 Y103.0198 Z3.8300 E0.02350 F600
G1 X104.8776 Y103.2725 Z3.8300 E0.02350 F600
G1 X104.7839 Y103.5168 Z3.8300 E0.02350 F600
G1 X104.6651 Y103.7500 Z3.8300 E0.02350 F600
G1 X104.5225 Y103.9695 Z3.8300 E0.02350 F600
G1 X104.3579 Y104.1728 Z3.8300 E0.02350 F600
G1 X104.1728 Y104.3579 Z3.8300 E0.02350 F600
G1 X103.9695 Y104.5225 Z3.8300 E0.02350 F600
G1 X103.7500 Y104.6651 Z3.8300 E0.02350 F600
G1 X103.5168 Y104.7839 Z3.8300 E0.02350 F600
G1 X103.2725 Y104.8776 Z3.8300 E0.02350 F600
G1 X103.0198 Y104.9454 Z3.8300 E0.02350 F600
G1 X102.7613 Y104.9863 Z3.8300 E0.02350 F600
G1 X102.5000 Y105.0000 Z3.8300 E0.02350 F600
G1 X102.2387 Y104.9863 Z3.8300 E0.02350 F600
G1 X101.9802 Y104.9454 Z3.8300 E0.02350 F600
G1 X101.7275 Y104.8776 Z3.8300 E0.02350 F600
G1 X101.4832 Y104.7839 Z3.8300 E0.02350 F600
G1 X101.2500 Y104.6651 Z3.8300 E0.02350 F600
G1 X101.0305 Y104.5225 Z3.8300 E0.02350 F600
G1 X100.8272 Y104.3579 Z3.8300 E0.02350 F600
G1 X100.6421 Y104.1728 Z3.8300 E0.02350 F600
G1 X100.4775 Y103.9695 Z3.8300 E0.02350 F600
G1 X100.3349 Y103.7500 Z3.8300 E0.02350 F600
G1 X100.2161 Y103.5168 Z3.8300 E0.02350 F600
G1 X100.1224 Y103.2725 Z3.8300 E0.02350 F600
G1 X100.0546 Y103.0198 Z3.8300 E0.02350 F600
G1 X100.0137 Y102.7613 Z3.8300 E0.02350 F600
G1 X100.0000 Y102.5000 Z3.8300 E0.02350 F600
G1 X100.0137 Y102.2387 Z3.8300 E0.02350 F600
G1 X100.0546 Y101.9802 Z3.8300 E0.02350 F600
G1 X100.1224 Y101.7275 Z3.8300 E0.02350 F600
G1 X100.2161 Y101.4832 Z3.8300 E0.02350 F600
G1 X100.3349 Y101.2500 Z3.8300 E0.02350 F600
G1 X100.4775 Y101.0305 Z3.8300 E0.02350 F600
G1 X100.6421 Y100.8272 Z3.8300 E0.02350 F600
G1 X100.8272 Y100.6421 Z3.8300 E0.02350 F600
G1 X101.0305 Y100.4775 Z3.8300 E0.02350 F600
G1 X101.2500 Y100.3349 Z4.2300 E0.04292 F600
G1 X101.4832 Y100.2161 Z4.2300 E0.02350 F600
G1 X101.7275 Y100.1224 Z4.2300 E0.02350 F600
G1 X101.9802 Y100.0546 Z4.2300 E0.02350 F600
G1 X102.2387 Y100.0137 Z4.2300 E0.02350 F600
G1 X102.5000 Y100.0000 Z4.2300 E0.02350 F600
G1 X102.7613 Y100.0137 Z4.2300 E0.02350 F600
G1 X103.0198 Y100.0546 Z4.2300 E0.02350 F600
G1 X103.2725 Y100.1224 Z4.2300 E0.02350 F600
G1 X103.5168 Y100.2161 Z4.2300 E0.02350 F600
G1 X103.7500 Y100.3349 Z4.2300 E0.02350 F600
G1 X103.9695 Y100.4775 Z4.2300 E0.02350 F600
G1 X104.1728 Y100.6421 Z4.2300 E0.02350 F600
G1 X104.3579 Y100.8272 Z4.2300 E0.02350 F600
G1 X104.5225 Y101.0305 Z4.2300 E0.02350 F600
G1 X104.6651 Y101.2500 Z4.2300 E0.02350 F600
G1 X104.7839 Y101.4832 Z4.2300 E0.02350 F600
G1 X104.8776 Y101.7275 Z4.2300 E0.02350 F600
G1 X104.9454 Y101.9802 Z4.2300 E0.02350 F600
G1 X104.9863 Y102.2387 Z4.2300 E0.02350 F600
G1 X105.0000 Y102.5000 Z4.2300 E0.02350 F600
G1 X104.9863 Y102.7613 Z4.2300 E0.02350 F600
G1 X104.9454 Y103.0198 Z4.2300 E0.02350 F600
G1 X104.8776 Y103.2725 Z4.2300 E0.02350 F600
G1 X104.7839 Y103.5168 Z4.2300 E0.02350 F600
G1 X104.6651 Y103.7500 Z4.2300 E0.02350 F600
G1 X104.5225 Y103.9695 Z4.2300 E0.02350 F600
G1 X104.3579 Y104.1728 Z4.2300 E0.02350 F600
G1 X104.1728 Y104.3579 Z4.2300 E0.02350 F600
G1 X103.9695 Y104.5225 Z4.2300 E0.02350 F600
G1 X103.7500 Y104.6651 Z4.2300 E0.02350 F600
G1 X103.5168 Y104.7839 Z4.2300 E0.02350 F600
G1 X103.2725 Y104.8776 Z4.2300 E0.02350 F600
G1 X103.0198 Y104.9454 Z4.2300 E0.02350 F600
G1 X102.7613 Y104.9863 Z4.2300 E0.02350 F600
G1 X102.5000 Y105.0000 Z4.2300 E0.02350 F600
G1 X102.2387 Y104.9863 Z4.2300 E0.02350 F600
G1 X101.9802 Y104.9454 Z4.2300 E0.02350 F600
G1 X101.7275 Y104.8776 Z4.2300 E0.02350 F600
G1 X101.4832 Y104.7839 Z4.2300 E0.02350 F600
G1 X101.2500 Y104.6651 Z4.2300 E0.02350 F600
G1 X101.0305 Y104.5225 Z4.2300 E0.02350 F600
G1 X100.8272 Y104.3579 Z4.2300 E0.02350 F600
G1 X100.6421 Y104.1728 Z4.2300 E0.02350 F600
G1 X100.4775 Y103.9695 Z4.2300 E0.02350 F600
G1 X100.3349 Y103.7500 Z4.2300 E0.02350 F600
G1 X100.2161 Y103.5168 Z4.2300 E0.02350 F600
G1 X100.1224 Y103.2725 Z4.2300 E0.02350 F600
G1 X100.0546 Y103.0198 Z4.2300 E0.02350 F600
G1 X100.0137 Y102.7613 Z4.2300 E0.02350 F600
G1 X100.0000 Y102.5000 Z4.2300 E0.02350 F600
G1 X100.0137 Y102.2387 Z4.2300 E0.02350 F600
G1 X100.0546 Y101.9802 Z4.2300 E0.02350 F600
G1 X100.1224 Y101.7275 Z4.2300 E0.02350 F600
G1 X100.2161 Y101.4832 Z4.2300 E0.02350 F600
G1 X100.3349 Y101.2500 Z4.2300 E0.02350 F600
G1 X100.4775 Y101.0305 Z4.2300 E0.02350 F600
G1 X100.6421 Y100.8272 Z4.2300 E0.02350 F600
G1 X100.8272 Y100.6421 Z4.2300 E0.02350 F600
G1 X101.0305 Y100.4775 Z4.2300 E0.02350 F600
G1 E-0.6000 F3600

PRINT_END
; total filament: 35.6 mm
