; Voron Trident continuous non-planar G-code
; nozzle=0.4 line_width=0.45 layer_height=0.2
; max_z_velocity=25.0 mm/s (feedrate clamped to honour this)

PRINT_START EXTRUDER=210 BED=60 MATERIAL=PLA
M83            ; relative extrusion
G92 E0
M107           ; fan off for first layer(s)

G1 X100.0000 Y100.0000 Z0.2000 F12000  ; travel
G1 X105.0000 Y100.0000 Z0.2000 E0.21000 F1200
G1 X105.0000 Y105.0000 Z0.2000 E0.21000 F1200
G1 X100.0000 Y105.0000 Z0.2000 E0.21000 F1200
G1 X100.0000 Y100.0000 Z0.2000 E0.21000 F1200
G1 E-0.6000 F3600
G1 X101.0000 Y101.0000 Z0.2000 F12000  ; travel
G1 E0.6000 F2400
G1 X104.0000 Y101.0000 Z0.2000 E0.15000 F1200
G1 X101.0000 Y104.0000 Z0.2000 E0.15000 F1200
G1 X104.0000 Y104.0000 Z0.2000 E0.15000 F1200
G1 E-0.6000 F3600
G1 X104.0000 Y104.0000 Z0.4000 F1500  ; travel
G1 X100.0000 Y100.0000 Z0.4000 F12000  ; travel
G1 E0.6000 F2400
G1 X105.0000 Y100.0000 Z0.4000 E0.21000 F1200
G1 X105.0000 Y105.0000 Z0.4000 E0.21000 F1200
G1 X100.0000 Y105.0000 Z0.4000 E0.21000 F1200
G1 X100.0000 Y100.0000 Z0.4000 E0.21000 F1200
G1 E-0.6000 F3600
; hybrid: non-planar wall begins here (z=0.4500)
M106 S255  ; fan 100%
; move to profile spiral start
G1 X101.1070 Y100.5827 Z5.4500 F1545  ; travel
G1 X101.1070 Y100.5827 Z0.4500 F1500  ; travel
G1 E0.6000 F2400
; wall spiral
G1 X101.1070 Y100.5827 Z0.4500 E0.00000 F1200
G1 X101.2500 Y100.3349 Z0.4541 E0.01070 F1200
G1 X101.5359 Y100.3345 Z0.4595 E0.01070 F1200
G1 X101.7962 Y100.3338 Z0.4658 E0.00974 F1200
G1 X102.0394 Y100.3330 Z0.4724 E0.00910 F1200
G1 X102.2722 Y100.3322 Z0.4786 E0.00871 F1200
G1 X102.5000 Y100.3315 Z0.4836 E0.00853 F1200
G1 X102.7280 Y100.3310 Z0.4868 E0.00853 F1200
G1 X102.9610 Y100.3310 Z0.4879 E0.00872 F1200
G1 X103.2045 Y100.3316 Z0.4866 E0.00911 F1200
G1 X103.4649 Y100.3329 Z0.4833 E0.00974 F1200
G1 X103.7500 Y100.3349 Z0.4786 E0.01067 F1200
G1 X103.8946 Y100.5805 Z0.4732 E0.01066 F1200
G1 X104.0266 Y100.8045 Z0.4683 E0.00973 F1200
G1 X104.1501 Y101.0143 Z0.4650 E0.00911 F1200
G1 X104.2680 Y101.2155 Z0.4643 E0.00873 F1200
G1 X104.3830 Y101.4128 Z0.4671 E0.00855 F1200
G1 X104.4975 Y101.6107 Z0.4739 E0.00856 F1200
G1 X104.6136 Y101.8132 Z0.4848 E0.00875 F1200
G1 X104.7339 Y102.0252 Z0.4994 E0.00913 F1200
G1 X104.8615 Y102.2518 Z0.5167 E0.00975 F1200
G1 X105.0000 Y102.5000 Z0.5355 E0.01066 F1200
G1 X104.8619 Y102.7482 Z0.5541 E0.01065 F1200
G1 X104.7355 Y102.9752 Z0.5710 E0.00974 F1200
G1 X104.6164 Y103.1877 Z0.5843 E0.00913 F1200
G1 X104.5016 Y103.3912 Z0.5929 E0.00875 F1200
G1 X104.3881 Y103.5901 Z0.5955 E0.00857 F1200
G1 X104.2735 Y103.7885 Z0.5920 E0.00857 F1200
G1 X104.1552 Y103.9904 Z0.5825 E0.00876 F1200
G1 X104.0308 Y104.2001 Z0.5680 E0.00914 F1200
G1 X103.8970 Y104.4228 Z0.5500 E0.00974 F1200
G1 X103.7500 Y104.6651 Z0.5305 E0.01063 F1200
G1 X103.4669 Y104.6717 Z0.5119 E0.01062 F1200
G1 X103.2074 Y104.6772 Z0.4964 E0.00973 F1200
G1 X102.9637 Y104.6816 Z0.4863 E0.00913 F1200
G1 X102.7296 Y104.6846 Z0.4833 E0.00876 F1200
G1 X102.5000 Y104.6860 Z0.4885 E0.00859 F1200
G1 X102.2703 Y104.6857 Z0.5021 E0.00861 F1200
G1 X102.0359 Y104.6835 Z0.5235 E0.00881 F1200
G1 X101.7919 Y104.6794 Z0.5513 E0.00919 F1200
G1 X101.5324 Y104.6733 Z0.5833 E0.00979 F1200
G1 X101.2500 Y104.6651 Z0.6168 E0.01064 F1200
G1 X101.1014 Y104.4250 Z0.6488 E0.01063 F1200
G1 X100.9656 Y104.2041 Z0.6762 E0.00976 F1200
G1 X100.8389 Y103.9957 Z0.6963 E0.00916 F1200
G1 X100.7184 Y103.7944 Z0.7071 E0.00879 F1200
G1 X100.6019 Y103.5959 Z0.7075 E0.00861 F1200
G1 X100.4872 Y103.3962 Z0.6972 E0.00863 F1200
G1 X100.3722 Y103.1914 Z0.6772 E0.00882 F1200
G1 X100.2547 Y102.9773 Z0.6494 E0.00920 F1200
G1 X100.1318 Y102.7489 Z0.6167 E0.00978 F1200
G1 X100.0000 Y102.5000 Z0.5825 E0.01062 F1200
G1 X100.1314 Y102.2510 Z0.5506 E0.01060 F1200
G1 X100.2532 Y102.0224 Z0.5246 E0.00974 F1200
G1 X100.3694 Y101.8077 Z0.5077 E0.00916 F1200
G1 X100.4831 Y101.6020 Z0.5024 E0.00880 F1200
G1 X100.5968 Y101.4012 Z0.5099 E0.00864 F1200
G1 X100.7130 Y101.2016 Z0.5302 E0.00867 F1200
G1 X100.8337 Y100.9996 Z0.5622 E0.00889 F1200
G1 X100.9614 Y100.7913 Z0.6033 E0.00927 F1200
G1 X101.0990 Y100.5717 Z0.6500 E0.00985 F2400
G1 X101.2500 Y100.3349 Z0.6912 E0.01259 F2400
G1 X101.5301 Y100.3216 Z0.7300 E0.01433 F2400
G1 X101.7885 Y100.3102 Z0.7629 E0.01449 F2400
G1 X102.0326 Y100.3012 Z0.7865 E0.01378 F2400
G1 X102.2682 Y100.2949 Z0.7986 E0.01325 F2400
G1 X102.5000 Y100.2918 Z0.7977 E0.01301 F2400
G1 X102.7320 Y100.2922 Z0.7839 E0.01292 F2400
G1 X102.9684 Y100.2965 Z0.7584 E0.01203 F2400
G1 X103.2132 Y100.3049 Z0.7237 E0.01098 F2400
G1 X103.4716 Y100.3177 Z0.6833 E0.00980 F2400
G1 X103.7500 Y100.3349 Z0.6415 E0.00860 F2400
G1 X103.9048 Y100.5665 Z0.6027 E0.00681 F2400
G1 X104.0469 Y100.7820 Z0.5712 E0.00501 F2400
G1 X104.1794 Y100.9879 Z0.5508 E0.00395 F2400
G1 X104.3046 Y101.1889 Z0.5443 E0.00355 F2400
G1 X104.4243 Y101.3890 Z0.5530 E0.00375 F2400
G1 X104.5402 Y101.5916 Z0.5768 E0.00452 F2400
G1 X104.6537 Y101.8002 Z0.6143 E0.00582 F2400
G1 X104.7666 Y102.0182 Z0.6623 E0.00762 F2400
G1 X104.8811 Y102.2497 Z0.7167 E0.00988 F2400
G1 X105.0000 Y102.5000 Z0.7725 E0.01254 F2400
G1 X104.8822 Y102.7504 Z0.8247 E0.01425 F2400
G1 X104.7703 Y102.9826 Z0.8681 E0.01453 F2400
G1 X104.6605 Y103.2020 Z0.8985 E0.01388 F2400
G1 X104.5500 Y103.4127 Z0.9129 E0.01338 F2400
G1 X104.4363 Y103.6179 Z0.9097 E0.01317 F2400
G1 X104.3176 Y103.8205 Z0.8891 E0.01310 F2400
G1 X104.1917 Y104.0232 Z0.8531 E0.01221 F2400
G1 X104.0567 Y104.2289 Z0.8051 E0.01112 F2400
G1 X103.9105 Y104.4413 Z0.7500 E0.00987 F2400
G1 X103.7500 Y104.6651 Z0.6934 E0.00857 F2400
G1 X103.4764 Y104.6931 Z0.6413 E0.00678 F2400
G1 X103.2201 Y104.7162 Z0.5994 E0.00502 F2400
G1 X102.9748 Y104.7336 Z0.5722 E0.00398 F2400
G1 X102.7360 Y104.7449 Z0.5633 E0.00358 F2400
G1 X102.5000 Y104.7497 Z0.5744 E0.00380 F2400
G1 X102.2638 Y104.7476 Z0.6050 E0.00459 F2400
G1 X102.0242 Y104.7382 Z0.6530 E0.00592 F2400
G1 X101.7782 Y104.7214 Z0.7142 E0.00775 F2400
G1 X101.5218 Y104.6971 Z0.7833 E0.00998 F2400
G1 X101.2500 Y104.6651 Z0.8539 E0.01254 F2400
G1 X101.0858 Y104.4465 Z0.9193 E0.01423 F2400
G1 X100.9346 Y104.2386 Z0.9732 E0.01460 F2400
G1 X100.7942 Y104.0359 Z1.0104 E0.01399 F2400
G1 X100.6630 Y103.8347 Z1.0271 E0.01352 F2400
G1 X100.5397 Y103.6318 Z1.0216 E0.01333 F2400
G1 X100.4232 Y103.4246 Z0.9943 E0.01330 F2400
G1 X100.3125 Y103.2108 Z0.9477 E0.01242 F2400
G1 X100.2062 Y102.9876 Z0.8865 E0.01130 F2400
G1 X100.1028 Y102.7520 Z0.8167 E0.00998 F2400
G1 X100.0000 Y102.5000 Z0.7454 E0.00857 F2400
G1 X100.1018 Y102.2479 Z0.6800 E0.00677 F2400
G1 X100.2026 Y102.0117 Z0.6275 E0.00505 F2400
G1 X100.3057 Y101.7870 Z0.5936 E0.00401 F2400
G1 X100.4134 Y101.5710 Z0.5824 E0.00362 F2400
G1 X100.5277 Y101.3613 Z0.5957 E0.00384 F2400
G1 X100.6500 Y101.1559 Z0.6331 E0.00466 F2400
G1 X100.7819 Y100.9530 Z0.6916 E0.00603 F2400
G1 X100.9247 Y100.7505 Z0.7662 E0.00789 F2400
G1 X101.0801 Y100.5456 Z0.8500 E0.01012 F2400
G1 X101.2500 Y100.3349 Z0.9282 E0.01250 F2400
G1 X101.5169 Y100.2919 Z1.0005 E0.01416 F2400
G1 X101.7712 Y100.2570 Z1.0599 E0.01464 F2400
G1 X102.0177 Y100.2307 Z1.1006 E0.01410 F2400
G1 X102.2597 Y100.2139 Z1.1186 E0.01366 F2400
G1 X102.5000 Y100.2071 Z1.1118 E0.01350 F2400
G1 X102.7406 Y100.2108 Z1.0810 E0.01348 F2400
G1 X102.9835 Y100.2252 Z1.0289 E0.01260 F2400
G1 X103.2309 Y100.2507 Z0.9608 E0.01144 F2400
G1 X103.4852 Y100.2873 Z0.8833 E0.01004 F2400
G1 X103.7500 Y100.3349 Z0.8044 E0.00855 F2400
G1 X103.9245 Y100.5394 Z0.7321 E0.00674 F2400
G1 X104.0855 Y100.7391 Z0.6741 E0.00506 F2400
G1 X104.2346 Y100.9382 Z0.6367 E0.00404 F2400
G1 X104.3725 Y101.1395 Z0.6243 E0.00366 F2400
G1 X104.5000 Y101.3453 Z0.6388 E0.00390 F2400
G1 X104.6174 Y101.5573 Z0.6798 E0.00473 F2400
G1 X104.7252 Y101.7770 Z0.7437 E0.00613 F2400
G1 X104.8242 Y102.0060 Z0.8252 E0.00800 F2400
G1 X104.9153 Y102.2461 Z0.9167 E0.01020 F2400
G1 X105.0000 Y102.5000 Z1.0096 E0.01257 F2400
G1 X104.9165 Y102.7540 Z1.0952 E0.01421 F2400
G1 X104.8285 Y102.9949 Z1.1651 E0.01478 F2400
G1 X104.7333 Y103.2256 Z1.2126 E0.01426 F2400
G1 X104.6290 Y103.4479 Z1.2329 E0.01383 F2400
G1 X104.5143 Y103.6630 Z1.2220 E0.01369 F2400
G1 X104.3880 Y103.8717 Z1.1827 E0.01358 F2400
G1 X104.2493 Y104.0751 Z1.1197 E0.01267 F2400
G1 X104.0973 Y104.2740 Z1.0394 E0.01152 F2400
G1 X103.9312 Y104.4699 Z0.9500 E0.01018 F2400
G1 X103.7500 Y104.6651 Z0.8606 E0.00879 F2400
G1 X103.4909 Y104.7256 Z0.7803 E0.00723 F2400
G1 X103.2390 Y104.7745 Z0.7173 E0.00583 F2400
G1 X102.9912 Y104.8107 Z0.6780 E0.00502 F2400
G1 X102.7453 Y104.8336 Z0.6667 E0.00478 F2400
G1 X102.5000 Y104.8424 Z0.6847 E0.00508 F2400
G1 X102.2544 Y104.8368 Z0.7306 E0.00588 F2400
G1 X102.0077 Y104.8163 Z0.8003 E0.00709 F2400
G1 X101.7589 Y104.7808 Z0.8873 E0.00861 F2400
G1 X101.5070 Y104.7303 Z0.9833 E0.01026 F2400
G1 X101.2500 Y104.6651 Z1.0794 E0.01190 F2400
G1 X101.0642 Y104.4762 Z1.1663 E0.01289 F2400
G1 X100.8924 Y104.2855 Z1.2360 E0.01308 F2400
G1 X100.7339 Y104.0902 Z1.2820 E0.01299 F2400
G1 X100.5888 Y103.8886 Z1.3000 E0.01271 F2400
G1 X100.4571 Y103.6795 Z1.2887 E0.01236 F2400
G1 X100.3389 Y103.4622 Z1.2494 E0.01195 F2400
G1 X100.2344 Y103.2361 Z1.1863 E0.01147 F2400
G1 X100.1435 Y103.0009 Z1.1060 E0.01087 F2400
G1 X100.0656 Y102.7559 Z1.0167 E0.01018 F2400
G1 X100.0000 Y102.5000 Z0.9273 E0.00949 F2400
G1 X100.0643 Y102.2440 Z0.8470 E0.00862 F2400
G1 X100.1391 Y101.9982 Z0.7840 E0.00774 F2400
G1 X100.2264 Y101.7612 Z0.7447 E0.00722 F2400
G1 X100.3273 Y101.5326 Z0.7333 E0.00706 F2400
G1 X100.4428 Y101.3123 Z0.7513 E0.00726 F2400
G1 X100.5733 Y101.1002 Z0.7973 E0.00778 F2400
G1 X100.7192 Y100.8966 Z0.8670 E0.00853 F2400
G1 X100.8806 Y100.7014 Z0.9540 E0.00941 F2400
G1 X101.0574 Y100.5145 Z1.0500 E0.01028 F2400
G1 X101.2500 Y100.3349 Z1.1460 E0.01142 F2400
G1 X101.5013 Y100.2570 Z1.2330 E0.01205 F2400
G1 X101.7509 Y100.1946 Z1.3027 E0.01211 F2400
G1 X102.0002 Y100.1487 Z1.3487 E0.01195 F2400
G1 X102.2499 Y100.1201 Z1.3667 E0.01169 F2400
G1 X102.5000 Y100.1096 Z1.3553 E0.01142 F2400
G1 X102.7504 Y100.1175 Z1.3160 E0.01115 F2400
G1 X103.0008 Y100.1440 Z1.2530 E0.01088 F2400
G1 X103.2508 Y100.1893 Z1.1727 E0.01056 F2400
G1 X103.5004 Y100.2530 Z1.0833 E0.01020 F2400
G1 X103.7500 Y100.3349 Z0.9940 E0.00984 F2400
G1 X103.9463 Y100.5093 Z0.9137 E0.00933 F2400
G1 X104.1282 Y100.6917 Z0.8506 E0.00876 F2400
G1 X104.2952 Y100.8836 Z0.8113 E0.00841 F2400
G1 X104.4468 Y101.0856 Z0.8000 E0.00831 F2400
G1 X104.5821 Y101.2979 Z0.8180 E0.00846 F2400
G1 X104.7007 Y101.5202 Z0.8640 E0.00883 F2400
G1 X104.8020 Y101.7520 Z0.9337 E0.00933 F2400
G1 X104.8856 Y101.9929 Z1.0206 E0.00985 F2400
G1 X104.9515 Y102.2423 Z1.1167 E0.01030 F2400
G1 X105.0000 Y102.5000 Z1.2127 E0.01061 F2400
G1 X104.9525 Y102.7578 Z1.2997 E0.01056 F2400
G1 X104.8892 Y103.0078 Z1.3694 E0.01021 F2400
G1 X104.8087 Y103.2502 Z1.4153 E0.00984 F2400
G1 X104.7105 Y103.4842 Z1.4333 E0.00954 F2400
G1 X104.5941 Y103.7090 Z1.4220 E0.00948 F2400
G1 X104.4597 Y103.9238 Z1.3827 E0.00959 F2400
G1 X104.3075 Y104.1275 Z1.3197 E0.00980 F2400
G1 X104.1381 Y104.3193 Z1.2394 E0.01004 F2400
G1 X103.9520 Y104.4986 Z1.1500 E0.01023 F2400
G1 X103.7500 Y104.6651 Z1.0606 E0.01035 F2400
G1 X103.5052 Y104.7578 Z0.9803 E0.01024 F2400
G1 X103.2577 Y104.8318 Z0.9173 E0.00995 F2400
G1 X103.0072 Y104.8861 Z0.8780 E0.00970 F2400
G1 X102.7543 Y104.9197 Z0.8667 E0.00955 F2400
G1 X102.5000 Y104.9319 Z0.8847 E0.00955 F2400
G1 X102.2454 Y104.9224 Z0.9306 E0.00969 F2400
G1 X101.9918 Y104.8907 Z1.0003 E0.00991 F2400
G1 X101.7406 Y104.8371 Z1.0873 E0.01015 F2400
G1 X101.4930 Y104.7617 Z1.1833 E0.01033 F2400
G1 X101.2500 Y104.6651 Z1.2794 E0.01042 F2400
G1 X101.0442 Y104.5038 Z1.3663 E0.01031 F2400
G1 X100.8532 Y104.3289 Z1.4360 E0.01003 F2400
G1 X100.6784 Y104.1402 Z1.4820 E0.00978 F2400
G1 X100.5208 Y103.9379 Z1.5000 E0.00962 F2400
G1 X100.3819 Y103.7229 Z1.4887 E0.00959 F2400
G1 X100.2627 Y103.4961 Z1.4494 E0.00970 F2400
G1 X100.1642 Y103.2589 Z1.3863 E0.00989 F2400
G1 X100.0873 Y103.0128 Z1.3060 E0.01010 F2400
G1 X100.0325 Y102.7593 Z1.2167 E0.01026 F2400
G1 X100.0000 Y102.5000 Z1.1273 E0.01034 F2400
G1 X100.0314 Y102.2405 Z1.0470 E0.01023 F2400
G1 X100.0837 Y101.9864 Z0.9840 E0.00999 F2400
G1 X100.1575 Y101.7389 Z0.9447 E0.00978 F2400
G1 X100.2529 Y101.4995 Z0.9333 E0.00965 F2400
G1 X100.3699 Y101.2702 Z0.9513 E0.00966 F2400
G1 X100.5079 Y101.0526 Z0.9973 E0.00979 F2400
G1 X100.6660 Y100.8487 Z1.0670 E0.01000 F2400
G1 X100.8433 Y100.6601 Z1.1540 E0.01022 F2400
G1 X101.0385 Y100.4884 Z1.2500 E0.01037 F2400
G1 X101.2500 Y100.3349 Z1.3460 E0.01042 F2400
G1 X101.4885 Y100.2281 Z1.4330 E0.01031 F2400
G1 X101.7343 Y100.1434 Z1.5027 E0.01007 F2400
G1 X101.9860 Y100.0818 Z1.5487 E0.00985 F2400
G1 X102.2419 Y100.0443 Z1.5667 E0.00970 F2400
G1 X102.5000 Y100.0314 Z1.5553 E0.00968 F2400
G1 X102.7582 Y100.0432 Z1.5160 E0.00978 F2400
G1 X103.0144 Y100.0799 Z1.4530 E0.00997 F2400
G1 X103.2664 Y100.1412 Z1.3727 E0.01016 F2400
G1 X103.5123 Y100.2264 Z1.2833 E0.01029 F2400
G1 X103.7500 Y100.3349 Z1.1940 E0.01033 F2400
G1 X103.9631 Y100.4862 Z1.1137 E0.01023 F2400
G1 X104.1606 Y100.6557 Z1.0506 E0.01002 F2400
G1 X104.3409 Y100.8425 Z1.0113 E0.00982 F2400
G1 X104.5022 Y101.0453 Z1.0000 E0.00971 F2400
G1 X104.6429 Y101.2628 Z1.0180 E0.00972 F2400
G1 X104.7619 Y101.4930 Z1.0640 E0.00985 F2400
G1 X104.8578 Y101.7339 Z1.1337 E0.01005 F2400
G1 X104.9298 Y101.9835 Z1.2206 E0.01025 F2400
G1 X104.9773 Y102.2396 Z1.3167 E0.01039 F2400
G1 X105.0000 Y102.5000 Z1.4127 E0.01042 F2400
G1 X104.9778 Y102.7604 Z1.4997 E0.01031 F2400
G1 X104.9313 Y103.0168 Z1.5694 E0.01009 F2400
G1 X104.8606 Y103.2670 Z1.6153 E0.00988 F2400
G1 X104.7660 Y103.5089 Z1.6333 E0.00974 F2400
G1 X104.6480 Y103.7401 Z1.6220 E0.00972 F2400
G1 X104.5076 Y103.9586 Z1.5827 E0.00983 F2400
G1 X104.3460 Y104.1622 Z1.5197 E0.01001 F2400
G1 X104.1648 Y104.3489 Z1.4394 E0.01019 F2400
G1 X103.9655 Y104.5171 Z1.3500 E0.01031 F2400
G1 X103.7500 Y104.6651 Z1.2606 E0.01034 F2400
G1 X103.5143 Y104.7781 Z1.1803 E0.01023 F2400
G1 X103.2693 Y104.8677 Z1.1173 E0.01004 F2400
G1 X103.0171 Y104.9327 Z1.0780 E0.00986 F2400
G1 X102.7599 Y104.9724 Z1.0667 E0.00975 F2400
G1 X102.5000 Y104.9861 Z1.0847 E0.00976 F2400
G1 X102.2400 Y104.9735 Z1.1306 E0.00989 F2400
G1 X101.9825 Y104.9347 Z1.2003 E0.01009 F2400
G1 X101.7300 Y104.8699 Z1.2873 E0.01028 F2400
G1 X101.4850 Y104.7797 Z1.3833 E0.01041 F2400
G1 X101.2500 Y104.6651 Z1.4794 E0.01042 F2400
G1 X101.0329 Y104.5193 Z1.5663 E0.01031 F2400
G1 X100.8316 Y104.3530 Z1.6360 E0.01011 F2400
G1 X100.6480 Y104.1675 Z1.6820 E0.00991 F2400
G1 X100.4843 Y103.9645 Z1.7000 E0.00978 F2400
G1 X100.3420 Y103.7459 Z1.6887 E0.00977 F2400
G1 X100.2228 Y103.5139 Z1.6494 E0.00987 F2400
G1 X100.1280 Y103.2707 Z1.5863 E0.01005 F2400
G1 X100.0588 Y103.0189 Z1.5060 E0.01022 F2400
G1 X100.0159 Y102.7611 Z1.4167 E0.01033 F2400
G1 X100.0000 Y102.5000 Z1.3273 E0.01034 F2400
G1 X100.0155 Y102.2389 Z1.2470 E0.01024 F2400
G1 X100.0573 Y101.9808 Z1.1840 E0.01006 F2400
G1 X100.1252 Y101.7284 Z1.1447 E0.00989 F2400
G1 X100.2187 Y101.4843 Z1.1333 E0.00979 F2400
G1 X100.3369 Y101.2512 Z1.1513 E0.00980 F2400
G1 X100.4788 Y101.0315 Z1.1973 E0.00993 F2400
G1 X100.6429 Y100.8278 Z1.2670 E0.01013 F2400
G1 X100.8274 Y100.6424 Z1.3540 E0.01032 F2400
G1 X101.0305 Y100.4775 Z1.4500 E0.01043 F2400
G1 X101.2500 Y100.3349 Z1.5460 E0.01043 F2400
G1 X101.4832 Y100.2161 Z1.6330 E0.01032 F2400
G1 X101.7275 Y100.1224 Z1.7027 E0.01013 F2400
G1 X101.9802 Y100.0546 Z1.7487 E0.00994 F2400
G1 X102.2387 Y100.0137 Z1.7667 E0.00981 F2400
G1 X102.5000 Y100.0000 Z1.7553 E0.00980 F2400
G1 X102.7613 Y100.0137 Z1.7160 E0.00990 F2400
G1 X103.0198 Y100.0546 Z1.6530 E0.01007 F2400
G1 X103.2725 Y100.1224 Z1.5727 E0.01024 F2400
G1 X103.5168 Y100.2161 Z1.4833 E0.01035 F2400
G1 X103.7500 Y100.3349 Z1.3940 E0.01035 F2400
G1 X103.9695 Y100.4775 Z1.3137 E0.01024 F2400
G1 X104.1728 Y100.6421 Z1.2506 E0.01007 F2400
G1 X104.3579 Y100.8272 Z1.2113 E0.00990 F2400
G1 X104.5225 Y101.0305 Z1.2000 E0.00980 F2400
G1 X104.6651 Y101.2500 Z1.2180 E0.00981 F2400
G1 X104.7839 Y101.4832 Z1.2640 E0.00994 F2400
G1 X104.8776 Y101.7275 Z1.3337 E0.01013 F2400
G1 X104.9454 Y101.9802 Z1.4206 E0.01032 F2400
G1 X104.9863 Y102.2387 Z1.5167 E0.01043 F2400
G1 X105.0000 Y102.5000 Z1.6127 E0.01043 F2400
G1 X104.9863 Y102.7613 Z1.6997 E0.01032 F2400
G1 X104.9454 Y103.0198 Z1.7694 E0.01013 F2400
G1 X104.8776 Y103.2725 Z1.8153 E0.00994 F2400
G1 X104.7839 Y103.5168 Z1.8333 E0.00981 F2400
G1 X104.6651 Y103.7500 Z1.8220 E0.00980 F2400
G1 X104.5225 Y103.9695 Z1.7827 E0.00990 F2400
G1 X104.3579 Y104.1728 Z1.7197 E0.01007 F2400
G1 X104.1728 Y104.3579 Z1.6394 E0.01024 F2400
G1 X103.9695 Y104.5225 Z1.5500 E0.01035 F2400
G1 X103.7500 Y104.6651 Z1.4606 E0.01035 F2400
G1 X103.5168 Y104.7839 Z1.3803 E0.01024 F2400
G1 X103.2725 Y104.8776 Z1.3173 E0.01007 F2400
G1 X103.0198 Y104.9454 Z1.2780 E0.00990 F2400
G1 X102.7613 Y104.9863 Z1.2667 E0.00980 F2400
G1 X102.5000 Y105.0000 Z1.2847 E0.00981 F2400
G1 X102.2387 Y104.9863 Z1.3306 E0.00994 F2400
G1 X101.9802 Y104.9454 Z1.4003 E0.01013 F2400
G1 X101.7275 Y104.8776 Z1.4873 E0.01032 F2400
G1 X101.4832 Y104.7839 Z1.5833 E0.01043 F2400
G1 X101.2500 Y104.6651 Z1.6794 E0.01043 F2400
G1 X101.0305 Y104.5225 Z1.7663 E0.01032 F2400
G1 X100.8272 Y104.3579 Z1.8360 E0.01013 F2400
G1 X100.6421 Y104.1728 Z1.8820 E0.00994 F2400
G1 X100.4775 Y103.9695 Z1.9000 E0.00981 F2400
G1 X100.3349 Y103.7500 Z1.8887 E0.00980 F2400
G1 X100.2161 Y103.5168 Z1.8494 E0.00990 F2400
G1 X100.1224 Y103.2725 Z1.7863 E0.01007 F2400
G1 X100.0546 Y103.0198 Z1.7060 E0.01024 F2400
G1 X100.0137 Y102.7613 Z1.6167 E0.01035 F2400
G1 X100.0000 Y102.5000 Z1.5273 E0.01035 F2400
G1 X100.0137 Y102.2387 Z1.4470 E0.01024 F2400
G1 X100.0546 Y101.9802 Z1.3840 E0.01007 F2400
G1 X100.1224 Y101.7275 Z1.3447 E0.00990 F2400
G1 X100.2161 Y101.4832 Z1.3333 E0.00980 F2400
G1 X100.3349 Y101.2500 Z1.3513 E0.00981 F2400
G1 X100.4775 Y101.0305 Z1.3973 E0.00994 F2400
G1 X100.6421 Y100.8272 Z1.4670 E0.01013 F2400
G1 X100.8272 Y100.6421 Z1.5540 E0.01032 F2400
G1 X101.0305 Y100.4775 Z1.6500 E0.01043 F2400
G1 X101.2500 Y100.3349 Z1.7460 E0.01043 F2400
G1 X101.4832 Y100.2161 Z1.8330 E0.01032 F2400
G1 X101.7275 Y100.1224 Z1.9027 E0.01013 F2400
G1 X101.9802 Y100.0546 Z1.9487 E0.00994 F2400
G1 X102.2387 Y100.0137 Z1.9667 E0.00981 F2400
G1 X102.5000 Y100.0000 Z1.9553 E0.00980 F2400
G1 X102.7613 Y100.0137 Z1.9160 E0.00990 F2400
G1 X103.0198 Y100.0546 Z1.8530 E0.01007 F2400
G1 X103.2725 Y100.1224 Z1.7727 E0.01024 F2400
G1 X103.5168 Y100.2161 Z1.6833 E0.01035 F2400
G1 X103.7500 Y100.3349 Z1.5940 E0.01035 F2400
G1 X103.9695 Y100.4775 Z1.5137 E0.01024 F2400
G1 X104.1728 Y100.6421 Z1.4506 E0.01007 F2400
G1 X104.3579 Y100.8272 Z1.4113 E0.00990 F2400
G1 X104.5225 Y101.0305 Z1.4000 E0.00980 F2400
G1 X104.6651 Y101.2500 Z1.4180 E0.00981 F2400
G1 X104.7839 Y101.4832 Z1.4640 E0.00994 F2400
G1 X104.8776 Y101.7275 Z1.5337 E0.01013 F2400
G1 X104.9454 Y101.9802 Z1.6206 E0.01032 F2400
G1 X104.9863 Y102.2387 Z1.7167 E0.01043 F2400
G1 X105.0000 Y102.5000 Z1.8127 E0.01043 F2400
G1 X104.9863 Y102.7613 Z1.8997 E0.01032 F2400
G1 X104.9454 Y103.0198 Z1.9694 E0.01013 F2400
G1 X104.8776 Y103.2725 Z2.0153 E0.00994 F2400
G1 X104.7839 Y103.5168 Z2.0333 E0.00981 F2400
G1 X104.6651 Y103.7500 Z2.0220 E0.00980 F2400
G1 X104.5225 Y103.9695 Z1.9827 E0.00990 F2400
G1 X104.3579 Y104.1728 Z1.9197 E0.01007 F2400
G1 X104.1728 Y104.3579 Z1.8394 E0.01024 F2400
G1 X103.9695 Y104.5225 Z1.7500 E0.01035 F2400
G1 X103.7500 Y104.6651 Z1.6606 E0.01035 F2400
G1 X103.5168 Y104.7839 Z1.5803 E0.01024 F2400
G1 X103.2725 Y104.8776 Z1.5173 E0.01007 F2400
G1 X103.0198 Y104.9454 Z1.4780 E0.00990 F2400
G1 X102.7613 Y104.9863 Z1.4667 E0.00980 F2400
G1 X102.5000 Y105.0000 Z1.4847 E0.00981 F2400
G1 X102.2387 Y104.9863 Z1.5306 E0.00994 F2400
G1 X101.9802 Y104.9454 Z1.6003 E0.01013 F2400
G1 X101.7275 Y104.8776 Z1.6873 E0.01032 F2400
G1 X101.4832 Y104.7839 Z1.7833 E0.01043 F2400
G1 X101.2500 Y104.6651 Z1.8794 E0.01043 F2400
G1 X101.0305 Y104.5225 Z1.9663 E0.01032 F2400
G1 X100.8272 Y104.3579 Z2.0360 E0.01013 F2400
G1 X100.6421 Y104.1728 Z2.0820 E0.00994 F2400
G1 X100.4775 Y103.9695 Z2.1000 E0.00981 F2400
G1 X100.3349 Y103.7500 Z2.0887 E0.00980 F2400
G1 X100.2161 Y103.5168 Z2.0494 E0.00990 F2400
G1 X100.1224 Y103.2725 Z1.9863 E0.01007 F2400
G1 X100.0546 Y103.0198 Z1.9060 E0.01024 F2400
G1 X100.0137 Y102.7613 Z1.8167 E0.01035 F2400
G1 X100.0000 Y102.5000 Z1.7273 E0.01035 F2400
G1 X100.0137 Y102.2387 Z1.6470 E0.01024 F2400
G1 X100.0546 Y101.9802 Z1.5840 E0.01007 F2400
G1 X100.1224 Y101.7275 Z1.5447 E0.00990 F2400
G1 X100.2161 Y101.4832 Z1.5333 E0.00980 F2400
G1 X100.3349 Y101.2500 Z1.5513 E0.00981 F2400
G1 X100.4775 Y101.0305 Z1.5973 E0.00994 F2400
G1 X100.6421 Y100.8272 Z1.6670 E0.01013 F2400
G1 X100.8272 Y100.6421 Z1.7540 E0.01032 F2400
G1 X101.0305 Y100.4775 Z1.8500 E0.01043 F2400
G1 X101.2500 Y100.3349 Z1.9460 E0.01043 F2400
G1 X101.4832 Y100.2161 Z2.0330 E0.01032 F2400
G1 X101.7275 Y100.1224 Z2.1027 E0.01013 F2400
G1 X101.9802 Y100.0546 Z2.1487 E0.00994 F2400
G1 X102.2387 Y100.0137 Z2.1667 E0.00981 F2400
G1 X102.5000 Y100.0000 Z2.1553 E0.00980 F2400
G1 X102.7613 Y100.0137 Z2.1160 E0.00990 F2400
G1 X103.0198 Y100.0546 Z2.0530 E0.01007 F2400
G1 X103.2725 Y100.1224 Z1.9727 E0.01024 F2400
G1 X103.5168 Y100.2161 Z1.8833 E0.01035 F2400
G1 X103.7500 Y100.3349 Z1.7940 E0.01035 F2400
G1 X103.9695 Y100.4775 Z1.7137 E0.01024 F2400
G1 X104.1728 Y100.6421 Z1.6506 E0.01007 F2400
G1 X104.3579 Y100.8272 Z1.6113 E0.00990 F2400
G1 X104.5225 Y101.0305 Z1.6000 E0.00980 F2400
G1 X104.6651 Y101.2500 Z1.6180 E0.00981 F2400
G1 X104.7839 Y101.4832 Z1.6640 E0.00994 F2400
G1 X104.8776 Y101.7275 Z1.7337 E0.01013 F2400
G1 X104.9454 Y101.9802 Z1.8206 E0.01032 F2400
G1 X104.9863 Y102.2387 Z1.9167 E0.01043 F2400
G1 X105.0000 Y102.5000 Z2.0127 E0.01043 F2400
G1 X104.9863 Y102.7613 Z2.0997 E0.01032 F2400
G1 X104.9454 Y103.0198 Z2.1694 E0.01013 F2400
G1 X104.8776 Y103.2725 Z2.2153 E0.00994 F2400
G1 X104.7839 Y103.5168 Z2.2333 E0.00981 F2400
G1 X104.6651 Y103.7500 Z2.2220 E0.00980 F2400
G1 X104.5225 Y103.9695 Z2.1827 E0.00990 F2400
G1 X104.3579 Y104.1728 Z2.1197 E0.01007 F2400
G1 X104.1728 Y104.3579 Z2.0394 E0.01024 F2400
G1 X103.9695 Y104.5225 Z1.9500 E0.01035 F2400
G1 X103.7500 Y104.6651 Z1.8606 E0.01035 F2400
G1 X103.5168 Y104.7839 Z1.7803 E0.01024 F2400
G1 X103.2725 Y104.8776 Z1.7173 E0.01007 F2400
G1 X103.0198 Y104.9454 Z1.6780 E0.00990 F2400
G1 X102.7613 Y104.9863 Z1.6667 E0.00980 F2400
G1 X102.5000 Y105.0000 Z1.6847 E0.00981 F2400
G1 X102.2387 Y104.9863 Z1.7306 E0.00994 F2400
G1 X101.9802 Y104.9454 Z1.8003 E0.01013 F2400
G1 X101.7275 Y104.8776 Z1.8873 E0.01032 F2400
G1 X101.4832 Y104.7839 Z1.9833 E0.01043 F2400
G1 X101.2500 Y104.6651 Z2.0794 E0.01043 F2400
G1 X101.0305 Y104.5225 Z2.1663 E0.01032 F2400
G1 X100.8272 Y104.3579 Z2.2360 E0.01013 F2400
G1 X100.6421 Y104.1728 Z2.2820 E0.00994 F2400
G1 X100.4775 Y103.9695 Z2.3000 E0.00981 F2400
G1 X100.3349 Y103.7500 Z2.2887 E0.00980 F2400
G1 X100.2161 Y103.5168 Z2.2494 E0.00990 F2400
G1 X100.1224 Y103.2725 Z2.1863 E0.01007 F2400
G1 X100.0546 Y103.0198 Z2.1060 E0.01024 F2400
G1 X100.0137 Y102.7613 Z2.0167 E0.01035 F2400
G1 X100.0000 Y102.5000 Z1.9273 E0.01035 F2400
G1 X100.0137 Y102.2387 Z1.8470 E0.01024 F2400
G1 X100.0546 Y101.9802 Z1.7840 E0.01007 F2400
G1 X100.1224 Y101.7275 Z1.7447 E0.00990 F2400
G1 X100.2161 Y101.4832 Z1.7333 E0.00980 F2400
G1 X100.3349 Y101.2500 Z1.7513 E0.00981 F2400
G1 X100.4775 Y101.0305 Z1.7973 E0.00994 F2400
G1 X100.6421 Y100.8272 Z1.8670 E0.01013 F2400
G1 X100.8272 Y100.6421 Z1.9540 E0.01032 F2400
G1 X101.0305 Y100.4775 Z2.0500 E0.01043 F2400
G1 X101.2500 Y100.3349 Z2.1460 E0.01043 F2400
G1 X101.4832 Y100.2161 Z2.2330 E0.01032 F2400
G1 X101.7275 Y100.1224 Z2.3027 E0.01013 F2400
G1 X101.9802 Y100.0546 Z2.3487 E0.00994 F2400
G1 X102.2387 Y100.0137 Z2.3667 E0.00981 F2400
G1 X102.5000 Y100.0000 Z2.3553 E0.00980 F2400
G1 X102.7613 Y100.0137 Z2.3160 E0.00990 F2400
G1 X103.0198 Y100.0546 Z2.2530 E0.01007 F2400
G1 X103.2725 Y100.1224 Z2.1727 E0.01024 F2400
G1 X103.5168 Y100.2161 Z2.0833 E0.01035 F2400
G1 X103.7500 Y100.3349 Z1.9940 E0.01035 F2400
G1 X103.9695 Y100.4775 Z1.9137 E0.01024 F2400
G1 X104.1728 Y100.6421 Z1.8506 E0.01007 F2400
G1 X104.3579 Y100.8272 Z1.8113 E0.00990 F2400
G1 X104.5225 Y101.0305 Z1.8000 E0.00980 F2400
G1 X104.6651 Y101.2500 Z1.8180 E0.00981 F2400
G1 X104.7839 Y101.4832 Z1.8640 E0.00994 F2400
G1 X104.8776 Y101.7275 Z1.9337 E0.01013 F2400
G1 X104.9454 Y101.9802 Z2.0206 E0.01032 F2400
G1 X104.9863 Y102.2387 Z2.1167 E0.01043 F2400
G1 X105.0000 Y102.5000 Z2.2127 E0.01043 F2400
G1 X104.9863 Y102.7613 Z2.2997 E0.01032 F2400
G1 X104.9454 Y103.0198 Z2.3694 E0.01013 F2400
G1 X104.8776 Y103.2725 Z2.4153 E0.00994 F2400
G1 X104.7839 Y103.5168 Z2.4333 E0.00981 F2400
G1 X104.6651 Y103.7500 Z2.4220 E0.00980 F2400
G1 X104.5225 Y103.9695 Z2.3827 E0.00990 F2400
G1 X104.3579 Y104.1728 Z2.3197 E0.01007 F2400
G1 X104.1728 Y104.3579 Z2.2394 E0.01024 F2400
G1 X103.9695 Y104.5225 Z2.1500 E0.01035 F2400
G1 X103.7500 Y104.6651 Z2.0606 E0.01035 F2400
G1 X103.5168 Y104.7839 Z1.9803 E0.01024 F2400
G1 X103.2725 Y104.8776 Z1.9173 E0.01007 F2400
G1 X103.0198 Y104.9454 Z1.8780 E0.00990 F2400
G1 X102.7613 Y104.9863 Z1.8667 E0.00980 F2400
G1 X102.5000 Y105.0000 Z1.8847 E0.00981 F2400
G1 X102.2387 Y104.9863 Z1.9306 E0.00994 F2400
G1 X101.9802 Y104.9454 Z2.0003 E0.01013 F2400
G1 X101.7275 Y104.8776 Z2.0873 E0.01032 F2400
G1 X101.4832 Y104.7839 Z2.1833 E0.01043 F2400
G1 X101.2500 Y104.6651 Z2.2794 E0.01043 F2400
G1 X101.0305 Y104.5225 Z2.3663 E0.01032 F2400
G1 X100.8272 Y104.3579 Z2.4360 E0.01013 F2400
G1 X100.6421 Y104.1728 Z2.4820 E0.00994 F2400
G1 X100.4775 Y103.9695 Z2.5000 E0.00981 F2400
G1 X100.3349 Y103.7500 Z2.4887 E0.00980 F2400
G1 X100.2161 Y103.5168 Z2.4494 E0.00990 F2400
G1 X100.1224 Y103.2725 Z2.3863 E0.01007 F2400
G1 X100.0546 Y103.0198 Z2.3060 E0.01024 F2400
G1 X100.0137 Y102.7613 Z2.2167 E0.01035 F2400
G1 X100.0000 Y102.5000 Z2.1273 E0.01035 F2400
G1 X100.0137 Y102.2387 Z2.0470 E0.01024 F2400
G1 X100.0546 Y101.9802 Z1.9840 E0.01007 F2400
G1 X100.1224 Y101.7275 Z1.9447 E0.00990 F2400
G1 X100.2161 Y101.4832 Z1.9333 E0.00980 F2400
G1 X100.3349 Y101.2500 Z1.9513 E0.00981 F2400
G1 X100.4775 Y101.0305 Z1.9973 E0.00994 F2400
G1 X100.6421 Y100.8272 Z2.0670 E0.01013 F2400
G1 X100.8272 Y100.6421 Z2.1540 E0.01032 F2400
G1 X101.0305 Y100.4775 Z2.2500 E0.01043 F2400
G1 X101.2500 Y100.3349 Z2.3460 E0.01043 F2400
G1 X101.4832 Y100.2161 Z2.4330 E0.01032 F2400
G1 X101.7275 Y100.1224 Z2.5027 E0.01013 F2400
G1 X101.9802 Y100.0546 Z2.5487 E0.00994 F2400
G1 X102.2387 Y100.0137 Z2.5667 E0.00981 F2400
G1 X102.5000 Y100.0000 Z2.5553 E0.00980 F2400
G1 X102.7613 Y100.0137 Z2.5160 E0.00990 F2400
G1 X103.0198 Y100.0546 Z2.4530 E0.01007 F2400
G1 X103.2725 Y100.1224 Z2.3727 E0.01024 F2400
G1 X103.5168 Y100.2161 Z2.2833 E0.01035 F2400
G1 X103.7500 Y100.3349 Z2.1940 E0.01035 F2400
G1 X103.9695 Y100.4775 Z2.1137 E0.01024 F2400
G1 X104.1728 Y100.6421 Z2.0506 E0.01007 F2400
G1 X104.3579 Y100.8272 Z2.0113 E0.00990 F2400
G1 X104.5225 Y101.0305 Z2.0000 E0.00980 F2400
G1 X104.6651 Y101.2500 Z2.0180 E0.00981 F2400
G1 X104.7839 Y101.4832 Z2.0640 E0.00994 F2400
G1 X104.8776 Y101.7275 Z2.1337 E0.01013 F2400
G1 X104.9454 Y101.9802 Z2.2206 E0.01032 F2400
G1 X104.9863 Y102.2387 Z2.3167 E0.01043 F2400
G1 X105.0000 Y102.5000 Z2.4127 E0.01043 F2400
G1 X104.9863 Y102.7613 Z2.4997 E0.01032 F2400
G1 X104.9454 Y103.0198 Z2.5694 E0.01013 F2400
G1 X104.8776 Y103.2725 Z2.6153 E0.00994 F2400
G1 X104.7839 Y103.5168 Z2.6333 E0.00981 F2400
G1 X104.6651 Y103.7500 Z2.6220 E0.00980 F2400
G1 X104.5225 Y103.9695 Z2.5827 E0.00990 F2400
G1 X104.3579 Y104.1728 Z2.5197 E0.01007 F2400
G1 X104.1728 Y104.3579 Z2.4394 E0.01024 F2400
G1 X103.9695 Y104.5225 Z2.3500 E0.01035 F2400
G1 X103.7500 Y104.6651 Z2.2606 E0.01035 F2400
G1 X103.5168 Y104.7839 Z2.1803 E0.01024 F2400
G1 X103.2725 Y104.8776 Z2.1173 E0.01007 F2400
G1 X103.0198 Y104.9454 Z2.0780 E0.00990 F2400
G1 X102.7613 Y104.9863 Z2.0667 E0.00980 F2400
G1 X102.5000 Y105.0000 Z2.0847 E0.00981 F2400
G1 X102.2387 Y104.9863 Z2.1306 E0.00994 F2400
G1 X101.9802 Y104.9454 Z2.2003 E0.01013 F2400
G1 X101.7275 Y104.8776 Z2.2873 E0.01032 F2400
G1 X101.4832 Y104.7839 Z2.3833 E0.01043 F2400
G1 X101.2500 Y104.6651 Z2.4794 E0.01043 F2400
G1 X101.0305 Y104.5225 Z2.5663 E0.01032 F2400
G1 X100.8272 Y104.3579 Z2.6360 E0.01013 F2400
G1 X100.6421 Y104.1728 Z2.6820 E0.00994 F2400
G1 X100.4775 Y103.9695 Z2.7000 E0.00981 F2400
G1 X100.3349 Y103.7500 Z2.6887 E0.00980 F2400
G1 X100.2161 Y103.5168 Z2.6494 E0.00990 F2400
G1 X100.1224 Y103.2725 Z2.5863 E0.01007 F2400
G1 X100.0546 Y103.0198 Z2.5060 E0.01024 F2400
G1 X100.0137 Y102.7613 Z2.4167 E0.01035 F2400
G1 X100.0000 Y102.5000 Z2.3273 E0.01035 F2400
G1 X100.0137 Y102.2387 Z2.2470 E0.01024 F2400
G1 X100.0546 Y101.9802 Z2.1840 E0.01007 F2400
G1 X100.1224 Y101.7275 Z2.1447 E0.00990 F2400
G1 X100.2161 Y101.4832 Z2.1333 E0.00980 F2400
G1 X100.3349 Y101.2500 Z2.1513 E0.00981 F2400
G1 X100.4775 Y101.0305 Z2.1973 E0.00994 F2400
G1 X100.6421 Y100.8272 Z2.2670 E0.01013 F2400
G1 X100.8272 Y100.6421 Z2.3540 E0.01032 F2400
G1 X101.0305 Y100.4775 Z2.4500 E0.01043 F2400
G1 X101.2500 Y100.3349 Z2.5460 E0.01043 F2400
G1 X101.4832 Y100.2161 Z2.6330 E0.01032 F2400
G1 X101.7275 Y100.1224 Z2.7027 E0.01013 F2400
G1 X101.9802 Y100.0546 Z2.7487 E0.00994 F2400
G1 X102.2387 Y100.0137 Z2.7667 E0.00981 F2400
G1 X102.5000 Y100.0000 Z2.7553 E0.00980 F2400
G1 X102.7613 Y100.0137 Z2.7160 E0.00990 F2400
G1 X103.0198 Y100.0546 Z2.6530 E0.01007 F2400
G1 X103.2725 Y100.1224 Z2.5727 E0.01024 F2400
G1 X103.5168 Y100.2161 Z2.4833 E0.01035 F2400
G1 X103.7500 Y100.3349 Z2.3940 E0.01035 F2400
G1 X103.9695 Y100.4775 Z2.3137 E0.01024 F2400
G1 X104.1728 Y100.6421 Z2.2506 E0.01007 F2400
G1 X104.3579 Y100.8272 Z2.2113 E0.00990 F2400
G1 X104.5225 Y101.0305 Z2.2000 E0.00980 F2400
G1 X104.6651 Y101.2500 Z2.2180 E0.00981 F2400
G1 X104.7839 Y101.4832 Z2.2640 E0.00994 F2400
G1 X104.8776 Y101.7275 Z2.3337 E0.01013 F2400
G1 X104.9454 Y101.9802 Z2.4206 E0.01032 F2400
G1 X104.9863 Y102.2387 Z2.5167 E0.01043 F2400
G1 X105.0000 Y102.5000 Z2.6127 E0.01043 F2400
G1 X104.9863 Y102.7613 Z2.6997 E0.01032 F2400
G1 X104.9454 Y103.0198 Z2.7694 E0.01013 F2400
G1 X104.8776 Y103.2725 Z2.8153 E0.00994 F2400
G1 X104.7839 Y103.5168 Z2.8333 E0.00981 F2400
G1 X104.6651 Y103.7500 Z2.8220 E0.00980 F2400
G1 X104.5225 Y103.9695 Z2.7827 E0.00990 F2400
G1 X104.3579 Y104.1728 Z2.7197 E0.01007 F2400
G1 X104.1728 Y104.3579 Z2.6394 E0.01024 F2400
G1 X103.9695 Y104.5225 Z2.5500 E0.01035 F2400
G1 X103.7500 Y104.6651 Z2.4606 E0.01035 F2400
G1 X103.5168 Y104.7839 Z2.3803 E0.01024 F2400
G1 X103.2725 Y104.8776 Z2.3173 E0.01007 F2400
G1 X103.0198 Y104.9454 Z2.2780 E0.00990 F2400
G1 X102.7613 Y104.9863 Z2.2667 E0.00980 F2400
G1 X102.5000 Y105.0000 Z2.2847 E0.00981 F2400
G1 X102.2387 Y104.9863 Z2.3306 E0.00994 F2400
G1 X101.9802 Y104.9454 Z2.4003 E0.01013 F2400
G1 X101.7275 Y104.8776 Z2.4873 E0.01032 F2400
G1 X101.4832 Y104.7839 Z2.5833 E0.01043 F2400
G1 X101.2500 Y104.6651 Z2.6794 E0.01043 F2400
G1 X101.0305 Y104.5225 Z2.7663 E0.01032 F2400
G1 X100.8272 Y104.3579 Z2.8360 E0.01013 F2400
G1 X100.6421 Y104.1728 Z2.8820 E0.00994 F2400
G1 X100.4775 Y103.9695 Z2.9000 E0.00981 F2400
G1 X100.3349 Y103.7500 Z2.8887 E0.00980 F2400
G1 X100.2161 Y103.5168 Z2.8494 E0.00990 F2400
G1 X100.1224 Y103.2725 Z2.7863 E0.01007 F2400
G1 X100.0546 Y103.0198 Z2.7060 E0.01024 F2400
G1 X100.0137 Y102.7613 Z2.6167 E0.01035 F2400
G1 X100.0000 Y102.5000 Z2.5273 E0.01035 F2400
G1 X100.0137 Y102.2387 Z2.4470 E0.01024 F2400
G1 X100.0546 Y101.9802 Z2.3840 E0.01007 F2400
G1 X100.1224 Y101.7275 Z2.3447 E0.00990 F2400
G1 X100.2161 Y101.4832 Z2.3333 E0.00980 F2400
G1 X100.3349 Y101.2500 Z2.3513 E0.00981 F2400
G1 X100.4775 Y101.0305 Z2.3973 E0.00994 F2400
G1 X100.6421 Y100.8272 Z2.4670 E0.01013 F2400
G1 X100.8272 Y100.6421 Z2.5540 E0.01032 F2400
G1 X101.0305 Y100.4775 Z2.6500 E0.01043 F2400
G1 X101.2500 Y100.3349 Z2.7460 E0.01043 F2400
G1 X101.4832 Y100.2161 Z2.8330 E0.01032 F2400
G1 X101.7275 Y100.1224 Z2.9027 E0.01013 F2400
G1 X101.9802 Y100.0546 Z2.9487 E0.00994 F2400
G1 X102.2387 Y100.0137 Z2.9667 E0.00981 F2400
G1 X102.5000 Y100.0000 Z2.9553 E0.00980 F2400
G1 X102.7613 Y100.0137 Z2.9160 E0.00990 F2400
G1 X103.0198 Y100.0546 Z2.8530 E0.01007 F2400
G1 X103.2725 Y100.1224 Z2.7727 E0.01024 F2400
G1 X103.5168 Y100.2161 Z2.6833 E0.01035 F2400
G1 X103.7500 Y100.3349 Z2.5940 E0.01035 F2400
G1 X103.9695 Y100.4775 Z2.5137 E0.01024 F2400
G1 X104.1728 Y100.6421 Z2.4506 E0.01007 F2400
G1 X104.3579 Y100.8272 Z2.4113 E0.00990 F2400
G1 X104.5225 Y101.0305 Z2.4000 E0.00980 F2400
G1 X104.6651 Y101.2500 Z2.4180 E0.00981 F2400
G1 X104.7839 Y101.4832 Z2.4640 E0.00994 F2400
G1 X104.8776 Y101.7275 Z2.5337 E0.01013 F2400
G1 X104.9454 Y101.9802 Z2.6206 E0.01032 F2400
G1 X104.9863 Y102.2387 Z2.7167 E0.01043 F2400
G1 X105.0000 Y102.5000 Z2.8127 E0.01043 F2400
G1 X104.9863 Y102.7613 Z2.8997 E0.01032 F2400
G1 X104.9454 Y103.0198 Z2.9694 E0.01013 F2400
G1 X104.8776 Y103.2725 Z3.0153 E0.00994 F2400
G1 X104.7839 Y103.5168 Z3.0333 E0.00981 F2400
G1 X104.6651 Y103.7500 Z3.0220 E0.00980 F2400
G1 X104.5225 Y103.9695 Z2.9827 E0.00990 F2400
G1 X104.3579 Y104.1728 Z2.9197 E0.01007 F2400
G1 X104.1728 Y104.3579 Z2.8394 E0.01024 F2400
G1 X103.9695 Y104.5225 Z2.7500 E0.01035 F2400
G1 X103.7500 Y104.6651 Z2.6606 E0.01035 F2400
G1 X103.5168 Y104.7839 Z2.5803 E0.01024 F2400
G1 X103.2725 Y104.8776 Z2.5173 E0.01007 F2400
G1 X103.0198 Y104.9454 Z2.4780 E0.00990 F2400
G1 X102.7613 Y104.9863 Z2.4667 E0.00980 F2400
G1 X102.5000 Y105.0000 Z2.4847 E0.00981 F2400
G1 X102.2387 Y104.9863 Z2.5306 E0.00994 F2400
G1 X101.9802 Y104.9454 Z2.6003 E0.01013 F2400
G1 X101.7275 Y104.8776 Z2.6873 E0.01032 F2400
G1 X101.4832 Y104.7839 Z2.7833 E0.01043 F2400
G1 X101.2500 Y104.6651 Z2.8794 E0.01043 F2400
G1 X101.0305 Y104.5225 Z2.9663 E0.01032 F2400
G1 X100.8272 Y104.3579 Z3.0360 E0.01013 F2400
G1 X100.6421 Y104.1728 Z3.0820 E0.00994 F2400
G1 X100.4775 Y103.9695 Z3.1000 E0.00981 F2400
G1 X100.3349 Y103.7500 Z3.0887 E0.00980 F2400
G1 X100.2161 Y103.5168 Z3.0494 E0.00990 F2400
G1 X100.1224 Y103.2725 Z2.9863 E0.01007 F2400
G1 X100.0546 Y103.0198 Z2.9060 E0.01024 F2400
G1 X100.0137 Y102.7613 Z2.8167 E0.01035 F2400
G1 X100.0000 Y102.5000 Z2.7273 E0.01035 F2400
G1 X100.0137 Y102.2387 Z2.6470 E0.01024 F2400
G1 X100.0546 Y101.9802 Z2.5840 E0.01007 F2400
G1 X100.1224 Y101.7275 Z2.5447 E0.00990 F2400
G1 X100.2161 Y101.4832 Z2.5333 E0.00980 F2400
G1 X100.3349 Y101.2500 Z2.5513 E0.00981 F2400
G1 X100.4775 Y101.0305 Z2.5973 E0.00994 F2400
G1 X100.6421 Y100.8272 Z2.6670 E0.01013 F2400
G1 X100.8272 Y100.6421 Z2.7540 E0.01032 F2400
G1 X101.0305 Y100.4775 Z2.8500 E0.01043 F2400
G1 X101.2500 Y100.3349 Z2.9460 E0.01043 F2400
G1 X101.4832 Y100.2161 Z3.0330 E0.01032 F2400
G1 X101.7275 Y100.1224 Z3.1027 E0.01013 F2400
G1 X101.9802 Y100.0546 Z3.1487 E0.00994 F2400
G1 X102.2387 Y100.0137 Z3.1667 E0.00981 F2400
G1 X102.5000 Y100.0000 Z3.1553 E0.00980 F2400
G1 X102.7613 Y100.0137 Z3.1160 E0.00990 F2400
G1 X103.0198 Y100.0546 Z3.0530 E0.01007 F2400
G1 X103.2725 Y100.1224 Z2.9727 E0.01024 F2400
G1 X103.5168 Y100.2161 Z2.8833 E0.01035 F2400
G1 X103.7500 Y100.3349 Z2.7940 E0.01035 F2400
G1 X103.9695 Y100.4775 Z2.7137 E0.01024 F2400
G1 X104.1728 Y100.6421 Z2.6506 E0.01007 F2400
G1 X104.3579 Y100.8272 Z2.6113 E0.00990 F2400
G1 X104.5225 Y101.0305 Z2.6000 E0.00980 F2400
G1 X104.6651 Y101.2500 Z2.6180 E0.00981 F2400
G1 X104.7839 Y101.4832 Z2.6640 E0.00994 F2400
G1 X104.8776 Y101.7275 Z2.7337 E0.01013 F2400
G1 X104.9454 Y101.9802 Z2.8206 E0.01032 F2400
G1 X104.9863 Y102.2387 Z2.9167 E0.01043 F2400
G1 X105.0000 Y102.5000 Z3.0127 E0.01043 F2400
G1 X104.9863 Y102.7613 Z3.0997 E0.01032 F2400
G1 X104.9454 Y103.0198 Z3.1694 E0.01013 F2400
G1 X104.8776 Y103.2725 Z3.2153 E0.00994 F2400
G1 X104.7839 Y103.5168 Z3.2333 E0.00981 F2400
G1 X104.6651 Y103.7500 Z3.2220 E0.00980 F2400
G1 X104.5225 Y103.9695 Z3.1827 E0.00990 F2400
G1 X104.3579 Y104.1728 Z3.1197 E0.01007 F2400
G1 X104.1728 Y104.3579 Z3.0394 E0.01024 F2400
G1 X103.9695 Y104.5225 Z2.9500 E0.01035 F2400
G1 X103.7500 Y104.6651 Z2.8606 E0.01035 F2400
G1 X103.5168 Y104.7839 Z2.7803 E0.01024 F2400
G1 X103.2725 Y104.8776 Z2.7173 E0.01007 F2400
G1 X103.0198 Y104.9454 Z2.6780 E0.00990 F2400
G1 X102.7613 Y104.9863 Z2.6667 E0.00980 F2400
G1 X102.5000 Y105.0000 Z2.6847 E0.00981 F2400
G1 X102.2387 Y104.9863 Z2.7306 E0.00994 F2400
G1 X101.9802 Y104.9454 Z2.8003 E0.01013 F2400
G1 X101.7275 Y104.8776 Z2.8873 E0.01032 F2400
G1 X101.4832 Y104.7839 Z2.9833 E0.01043 F2400
G1 X101.2500 Y104.6651 Z3.0794 E0.01043 F2400
G1 X101.0305 Y104.5225 Z3.1663 E0.01032 F2400
G1 X100.8272 Y104.3579 Z3.2360 E0.01013 F2400
G1 X100.6421 Y104.1728 Z3.2820 E0.00994 F2400
G1 X100.4775 Y103.9695 Z3.3000 E0.00981 F2400
G1 X100.3349 Y103.7500 Z3.2887 E0.00980 F2400
G1 X100.2161 Y103.5168 Z3.2494 E0.00990 F2400
G1 X100.1224 Y103.2725 Z3.1863 E0.01007 F2400
G1 X100.0546 Y103.0198 Z3.1060 E0.01024 F2400
G1 X100.0137 Y102.7613 Z3.0167 E0.01035 F2400
G1 X100.0000 Y102.5000 Z2.9273 E0.01035 F2400
G1 X100.0137 Y102.2387 Z2.8470 E0.01024 F2400
G1 X100.0546 Y101.9802 Z2.7840 E0.01007 F2400
G1 X100.1224 Y101.7275 Z2.7447 E0.00990 F2400
G1 X100.2161 Y101.4832 Z2.7333 E0.00980 F2400
G1 X100.3349 Y101.2500 Z2.7513 E0.00981 F2400
G1 X100.4775 Y101.0305 Z2.7973 E0.00994 F2400
G1 X100.6421 Y100.8272 Z2.8670 E0.01013 F2400
G1 X100.8272 Y100.6421 Z2.9540 E0.01032 F2400
G1 X101.0305 Y100.4775 Z3.0500 E0.01043 F2400
G1 X101.2500 Y100.3349 Z3.1460 E0.01043 F2400
G1 X101.4832 Y100.2161 Z3.2330 E0.01032 F2400
G1 X101.7275 Y100.1224 Z3.3027 E0.01013 F2400
G1 X101.9802 Y100.0546 Z3.3487 E0.00994 F2400
G1 X102.2387 Y100.0137 Z3.3667 E0.00981 F2400
G1 X102.5000 Y100.0000 Z3.3553 E0.00980 F2400
G1 X102.7613 Y100.0137 Z3.3160 E0.00990 F2400
G1 X103.0198 Y100.0546 Z3.2530 E0.01007 F2400
G1 X103.2725 Y100.1224 Z3.1727 E0.01024 F2400
G1 X103.5168 Y100.2161 Z3.0833 E0.01035 F2400
G1 X103.7500 Y100.3349 Z2.9940 E0.01035 F2400
G1 X103.9695 Y100.4775 Z2.9137 E0.01024 F2400
G1 X104.1728 Y100.6421 Z2.8506 E0.01007 F2400
G1 X104.3579 Y100.8272 Z2.8113 E0.00990 F2400
G1 X104.5225 Y101.0305 Z2.8000 E0.00980 F2400
G1 X104.6651 Y101.2500 Z2.8180 E0.00981 F2400
G1 X104.7839 Y101.4832 Z2.8640 E0.00994 F2400
G1 X104.8776 Y101.7275 Z2.9337 E0.01013 F2400
G1 X104.9454 Y101.9802 Z3.0206 E0.01032 F2400
G1 X104.9863 Y102.2387 Z3.1167 E0.01043 F2400
G1 X105.0000 Y102.5000 Z3.2127 E0.01043 F2400
G1 X104.9863 Y102.7613 Z3.2997 E0.01032 F2400
G1 X104.9454 Y103.0198 Z3.3694 E0.01013 F2400
G1 X104.8776 Y103.2725 Z3.4153 E0.00994 F2400
G1 X104.7839 Y103.5168 Z3.4333 E0.00981 F2400
G1 X104.6651 Y103.7500 Z3.4220 E0.00980 F2400
G1 X104.5225 Y103.9695 Z3.3827 E0.00990 F2400
G1 X104.3579 Y104.1728 Z3.3197 E0.01007 F2400
G1 X104.1728 Y104.3579 Z3.2394 E0.01024 F2400
G1 X103.9695 Y104.5225 Z3.1500 E0.01035 F2400
G1 X103.7500 Y104.6651 Z3.0606 E0.01035 F2400
G1 X103.5168 Y104.7839 Z2.9803 E0.01024 F2400
G1 X103.2725 Y104.8776 Z2.9173 E0.01007 F2400
G1 X103.0198 Y104.9454 Z2.8780 E0.00990 F2400
G1 X102.7613 Y104.9863 Z2.8667 E0.00980 F2400
G1 X102.5000 Y105.0000 Z2.8847 E0.00981 F2400
G1 X102.2387 Y104.9863 Z2.9306 E0.00994 F2400
G1 X101.9802 Y104.9454 Z3.0003 E0.01013 F2400
G1 X101.7275 Y104.8776 Z3.0873 E0.01032 F2400
G1 X101.4832 Y104.7839 Z3.1833 E0.01043 F2400
G1 X101.2500 Y104.6651 Z3.2794 E0.01043 F2400
G1 X101.0305 Y104.5225 Z3.3663 E0.01032 F2400
G1 X100.8272 Y104.3579 Z3.4360 E0.01013 F2400
G1 X100.6421 Y104.1728 Z3.4820 E0.00994 F2400
G1 X100.4775 Y103.9695 Z3.5000 E0.00981 F2400
G1 X100.3349 Y103.7500 Z3.4887 E0.00980 F2400
G1 X100.2161 Y103.5168 Z3.4494 E0.00990 F2400
G1 X100.1224 Y103.2725 Z3.3863 E0.01007 F2400
G1 X100.0546 Y103.0198 Z3.3060 E0.01024 F2400
G1 X100.0137 Y102.7613 Z3.2167 E0.01035 F2400
G1 X100.0000 Y102.5000 Z3.1273 E0.01035 F2400
G1 X100.0137 Y102.2387 Z3.0470 E0.01024 F2400
G1 X100.0546 Y101.9802 Z2.9840 E0.01007 F2400
G1 X100.1224 Y101.7275 Z2.9447 E0.00990 F2400
G1 X100.2161 Y101.4832 Z2.9333 E0.00980 F2400
G1 X100.3349 Y101.2500 Z2.9513 E0.00981 F2400
G1 X100.4775 Y101.0305 Z2.9973 E0.00994 F2400
G1 X100.6421 Y100.8272 Z3.0670 E0.01013 F2400
G1 X100.8272 Y100.6421 Z3.1540 E0.01032 F2400
G1 X101.0305 Y100.4775 Z3.2500 E0.01043 F2400
G1 X101.2500 Y100.3349 Z3.3427 E0.01021 F2400
G1 X101.4832 Y100.2161 Z3.4263 E0.00994 F2400
G1 X101.7275 Y100.1224 Z3.4927 E0.00960 F2400
G1 X101.9802 Y100.0546 Z3.5353 E0.00926 F2400
G1 X102.2387 Y100.0137 Z3.5500 E0.00899 F2400
G1 X102.5000 Y100.0000 Z3.5353 E0.00883 F2400
G1 X102.7613 Y100.0137 Z3.4927 E0.00876 F2400
G1 X103.0198 Y100.0546 Z3.4263 E0.00875 F2400
G1 X103.2725 Y100.1224 Z3.3427 E0.00874 F2400
G1 X103.5168 Y100.2161 Z3.2500 E0.00866 F2400
G1 X103.7500 Y100.3349 Z3.1573 E0.00848 F2400
G1 X103.9695 Y100.4775 Z3.0737 E0.00822 F2400
G1 X104.1728 Y100.6421 Z3.0073 E0.00791 F2400
G1 X104.3579 Y100.8272 Z2.9647 E0.00761 F2400
G1 X104.5225 Y101.0305 Z2.9500 E0.00736 F2400
G1 X104.6651 Y101.2500 Z2.9647 E0.00719 F2400
G1 X104.7839 Y101.4832 Z3.0073 E0.00711 F2400
G1 X104.8776 Y101.7275 Z3.0737 E0.00707 F2400
G1 X104.9454 Y101.9802 Z3.1573 E0.00702 F2400
G1 X104.9863 Y102.2387 Z3.2500 E0.00693 F2400
G1 X105.0000 Y102.5000 Z3.3427 E0.00675 F2400
G1 X104.9863 Y102.7613 Z3.4263 E0.00651 F2400
G1 X104.9454 Y103.0198 Z3.4927 E0.00623 F2400
G1 X104.8776 Y103.2725 Z3.5353 E0.00595 F2400
G1 X104.7839 Y103.5168 Z3.5500 E0.00572 F2400
G1 X104.6651 Y103.7500 Z3.5353 E0.00556 F2400
G1 X104.5225 Y103.9695 Z3.4927 E0.00546 F2400
G1 X104.3579 Y104.1728 Z3.4263 E0.00539 F2400
G1 X104.1728 Y104.3579 Z3.3427 E0.00531 F2400
G1 X103.9695 Y104.5225 Z3.2500 E0.00519 F2400
G1 X103.7500 Y104.6651 Z3.1573 E0.00502 F2400
G1 X103.5168 Y104.7839 Z3.0737 E0.00480 F2400
G1 X103.2725 Y104.8776 Z3.0073 E0.00455 F2400
G1 X103.0198 Y104.9454 Z2.9647 E0.00430 F2400
G1 X102.7613 Y104.9863 Z2.9500 E0.00409 F2400
G1 X102.5000 Y105.0000 Z2.9647 E0.00392 F2400
G1 X102.2387 Y104.9863 Z3.0073 E0.00380 F2400
G1 X101.9802 Y104.9454 Z3.0737 E0.00370 F2400
G1 X101.7275 Y104.8776 Z3.1573 E0.00360 F2400
G1 X101.4832 Y104.7839 Z3.2500 E0.00346 F2400
G1 X101.2500 Y104.6651 Z3.3427 E0.00329 F2400
G1 X101.0305 Y104.5225 Z3.4263 E0.00308 F2400
G1 X100.8272 Y104.3579 Z3.4927 E0.00286 F2400
G1 X100.6421 Y104.1728 Z3.5353 E0.00265 F2400
G1 X100.4775 Y103.9695 Z3.5500 E0.00245 F2400
G1 X100.3349 Y103.7500 Z3.5353 E0.00245 F2400
G1 X100.2161 Y103.5168 Z3.4927 E0.00248 F2400
G1 X100.1224 Y103.2725 Z3.4263 E0.00253 F2400
G1 X100.0546 Y103.0198 Z3.3427 E0.00257 F2400
G1 X100.0137 Y102.7613 Z3.2500 E0.00260 F2400
G1 X100.0000 Y102.5000 Z3.1573 E0.00260 F2400
G1 X100.0137 Y102.2387 Z3.0737 E0.00257 F2400
G1 X100.0546 Y101.9802 Z3.0073 E0.00253 F2400
G1 X100.1224 Y101.7275 Z2.9647 E0.00248 F2400
G1 X100.2161 Y101.4832 Z2.9500 E0.00245 F2400
G1 X100.3349 Y101.2500 Z2.9647 E0.00245 F2400
G1 X100.4775 Y101.0305 Z3.0073 E0.00248 F2400
G1 X100.6421 Y100.8272 Z3.0737 E0.00253 F2400
G1 X100.8272 Y100.6421 Z3.1573 E0.00257 F2400
G1 E-0.6000 F3600

PRINT_END
; total filament: 10.8 mm
; WARNING: 29 moves had local layer height clamped to [0.25,1.5]x nominal (steep non-planar geometry)
