;LAYER_CHANGE
;Z:0.20
M83
G92 E0
G1 X100.000 Y100.000 Z0.20 F600
G1 X105.000 Y100.000 E0.2100 F1200
G1 X105.000 Y105.000 E0.2100 F1200
G1 X100.000 Y105.000 E0.2100 F1200
G1 X100.000 Y100.000 E0.2100 F1200
G1 E-0.6000 F2400
G1 X101.000 Y101.000 F9000
G1 E0.6000 F2400
G1 X104.000 Y101.000 E0.1500 F1200
G1 X101.000 Y104.000 E0.1500 F1200
G1 X104.000 Y104.000 E0.1500 F1200
G1 E-0.6000 F2400
;LAYER_CHANGE
;Z:0.40
G1 Z0.40 F600
G1 X100.000 Y100.000 F9000
G1 E0.6000 F2400
G1 X105.000 Y100.000 E0.2100 F1200
G1 X105.000 Y105.000 E0.2100 F1200
G1 X100.000 Y105.000 E0.2100 F1200
G1 X100.000 Y100.000 E0.2100 F1200
G1 E-0.6000 F2400
