;LAYER_CHANGE
;Z:0.20
M82
G92 E0
G1 X100.000 Y100.000 Z0.20 F600
G1 X105.000 Y100.000 E0.2100 F1200
G1 X105.000 Y105.000 E0.4200 F1200
G1 X100.000 Y105.000 E0.6300 F1200
G1 X100.000 Y100.000 E0.8400 F1200
G1 E0.2400 F2400
G1 X101.000 Y101.000 F9000
G1 E0.8400 F2400
G1 X104.000 Y101.000 E0.9900 F1200
G1 X101.000 Y104.000 E1.1400 F1200
G1 X104.000 Y104.000 E1.2900 F1200
G1 E0.6900 F2400
;LAYER_CHANGE
;Z:0.40
G1 Z0.40 F600
G1 X100.000 Y100.000 F9000
G1 E1.2900 F2400
G1 X105.000 Y100.000 E1.5000 F1200
G1 X105.000 Y105.000 E1.7100 F1200
G1 X100.000 Y105.000 E1.9200 F1200
G1 X100.000 Y100.000 E2.1300 F1200
G1 E1.5300 F2400
