; Trident continuous non-planar G-code
; nozzle=0.4 line_width=0.45 layer_height=0.3
; max_z_velocity=25.0 mm/s (feedrate clamped to honour this)

PRINT_START EXTRUDER=250 BED=80 MATERIAL=PETG
M83            ; relative extrusion
G92 E0
M107           ; fan off for first layer(s)
SET_PRESSURE_ADVANCE ADVANCE=0.0325

; move to surface spiral start (centre)
G1 Z17.3000 F1500  ; initial safe lift
G1 X117.5000 Y117.5000 Z17.3000 F12000  ; travel
G1 X117.5000 Y117.5000 Z12.3000 F1500  ; travel
G1 E0.2000 F2400
G1 X117.5000 Y117.5000 Z12.3000 E0.00000 F1080
G1 X117.2669 Y117.3976 Z12.3000 E0.01358 F1080
G1 X117.6477 Y117.1639 Z12.3000 E0.02382 F1080
G1 X117.9442 Y117.4700 Z12.3000 E0.02273 F1080
G1 X117.8434 Y117.8764 Z12.3000 E0.02232 F1080
G1 X117.4743 Y118.0652 Z12.3000 E0.02211 F1080
G1 X117.0787 Y117.9500 Z12.3000 E0.02197 F1080
G1 X116.8466 Y117.6118 Z12.3000 E0.02187 F1080
G1 X116.8594 Y117.2031 Z12.3000 E0.02180 F1080
G1 X117.0969 Y116.8715 Z12.3000 E0.02175 F1080
G1 X117.4729 Y116.7154 Z12.3000 E0.02171 F1080
G1 X117.8757 Y116.7694 Z12.3000 E0.02167 F1080
G1 X118.2025 Y117.0102 Z12.3000 E0.02164 F1080
G1 X118.3809 Y117.3742 Z12.3000 E0.02162 F1080
G1 X118.3787 Y117.7792 Z12.3000 E0.02160 F1080
G1 X118.2029 Y118.1437 Z12.3000 E0.02158 F1080
G1 X117.8915 Y118.4018 Z12.3000 E0.02156 F1080
G1 X117.5028 Y118.5123 Z12.3000 E0.02155 F1080
G1 X117.1021 Y118.4615 Z12.3000 E0.02154 F1080
G1 X116.7513 Y118.2618 Z12.3000 E0.02153 F1080
G1 X116.5000 Y117.9460 Z12.3000 E0.02152 F1080
G1 X116.3805 Y117.5608 Z12.3000 E0.02151 F1080
G1 X116.4054 Y117.1583 Z12.3000 E0.02150 F1080
G1 X116.5683 Y116.7896 Z12.3000 E0.02149 F1080
G1 X116.8465 Y116.4982 Z12.3000 E0.02148 F1080
G1 X117.2057 Y116.3160 Z12.3000 E0.02148 F1080
G1 X117.6047 Y116.2609 Z12.3000 E0.02147 F1080
G1 X118.0001 Y116.3364 Z12.3000 E0.02147 F1080
G1 X118.3518 Y116.5323 Z12.3000 E0.02146 F1080
G1 X118.6256 Y116.8271 Z12.3000 E0.02146 F1080
G1 X118.7970 Y117.1912 Z12.3000 E0.02145 F1080
G1 X118.8518 Y117.5897 Z12.3000 E0.02145 F1080
G1 X118.7870 Y117.9866 Z12.3000 E0.02145 F1080
G1 X118.6100 Y118.3478 Z12.3000 E0.02144 F1080
G1 X118.3374 Y118.6433 Z12.3000 E0.02144 F1080
G1 X117.9928 Y118.8503 Z12.3000 E0.02144 F1080
G1 X117.6043 Y118.9536 Z12.3000 E0.02143 F1080
G1 X117.2025 Y118.9468 Z12.3000 E0.02143 F1080
G1 X116.8175 Y118.8317 Z12.3000 E0.02143 F1080
G1 X116.4770 Y118.6182 Z12.3000 E0.02142 F1080
G1 X116.2048 Y118.3228 Z12.3000 E0.02142 F1080
G1 X116.0187 Y117.9668 Z12.3000 E0.02142 F1080
G1 X115.9302 Y117.5750 Z12.3000 E0.02142 F1080
G1 X115.9441 Y117.1736 Z12.3000 E0.02142 F1080
G1 X116.0582 Y116.7885 Z12.3000 E0.02141 F1080
G1 X116.2642 Y116.4438 Z12.3000 E0.02141 F1080
G1 X116.5485 Y116.1602 Z12.3000 E0.02141 F1080
G1 X116.8931 Y115.9542 Z12.3000 E0.02141 F1080
G1 X117.2770 Y115.8369 Z12.3000 E0.02141 F1080
G1 X117.6778 Y115.8143 Z12.3000 E0.02140 F1080
G1 X118.0727 Y115.8867 Z12.3000 E0.02140 F1080
G1 X118.4397 Y116.0491 Z12.3000 E0.02140 F1080
G1 X118.7594 Y116.2918 Z12.3000 E0.02140 F1080
G1 X119.0151 Y116.6011 Z12.3000 E0.02140 F1080
G1 X119.1940 Y116.9603 Z12.3000 E0.02140 F1080
G1 X119.2878 Y117.3505 Z12.3000 E0.02140 F1080
G1 X119.2924 Y117.7518 Z12.3000 E0.02140 F1080
G1 X119.2084 Y118.1441 Z12.3000 E0.02139 F1080
G1 X119.0407 Y118.5086 Z12.3000 E0.02139 F1080
G1 X118.7980 Y118.8281 Z12.3000 E0.02139 F1080
G1 X118.4924 Y119.0879 Z12.3000 E0.02139 F1080
G1 X118.1384 Y119.2766 Z12.3000 E0.02139 F1080
G1 X117.7525 Y119.3861 Z12.3000 E0.02139 F1080
G1 X117.3522 Y119.4123 Z12.3000 E0.02139 F1080
G1 X116.9553 Y119.3546 Z12.3000 E0.02139 F1080
G1 X116.5788 Y119.2162 Z12.3000 E0.02139 F1080
G1 X116.2388 Y119.0035 Z12.3000 E0.02139 F1080
G1 X115.9491 Y118.7262 Z12.3000 E0.02138 F1080
G1 X115.7214 Y118.3961 Z12.3000 E0.02138 F1080
G1 X115.5645 Y118.0270 Z12.3000 E0.02138 F1080
G1 X115.4842 Y117.6341 Z12.3000 E0.02138 F1080
G1 X115.4832 Y117.2331 Z12.3000 E0.02138 F1080
G1 X115.5608 Y116.8397 Z12.3000 E0.02138 F1080
G1 X115.7137 Y116.4690 Z12.3000 E0.02138 F1080
G1 X115.9354 Y116.1349 Z12.3000 E0.02138 F1080
G1 X116.2172 Y115.8498 Z12.3000 E0.02138 F1080
G1 X116.5483 Y115.6237 Z12.3000 E0.02138 F1080
G1 X116.9163 Y115.4645 Z12.3000 E0.02138 F1080
G1 X117.3077 Y115.3777 Z12.3000 E0.02138 F1080
G1 X117.7084 Y115.3657 Z12.3000 E0.02138 F1080
G1 X118.1043 Y115.4285 Z12.3000 E0.02138 F1080
G1 X118.4818 Y115.5636 Z12.3000 E0.02137 F1080
G1 X118.8279 Y115.7657 Z12.3000 E0.02137 F1080
G1 X119.1313 Y116.0278 Z12.3000 E0.02137 F1080
G1 X119.3820 Y116.3405 Z12.3000 E0.02137 F1080
G1 X119.5720 Y116.6935 Z12.3000 E0.02137 F1080
G1 X119.6955 Y117.0748 Z12.3000 E0.02137 F1080
G1 X119.7489 Y117.4720 Z12.3000 E0.02137 F1080
G1 X119.7310 Y117.8724 Z12.3000 E0.02137 F1080
G1 X119.6426 Y118.2634 Z12.3000 E0.02137 F1080
G1 X119.4869 Y118.6327 Z12.3000 E0.02137 F1080
G1 X119.2692 Y118.9691 Z12.3000 E0.02137 F1080
G1 X118.9963 Y119.2626 Z12.3000 E0.02137 F1080
G1 X118.6768 Y119.5046 Z12.3000 E0.02137 F1080
G1 X118.3205 Y119.6880 Z12.3000 E0.02137 F1080
G1 X117.9381 Y119.8079 Z12.3000 E0.02137 F1080
G1 X117.5409 Y119.8609 Z12.3000 E0.02137 F1080
G1 X117.1404 Y119.8460 Z12.3000 E0.02137 F1080
G1 X116.7482 Y119.7639 Z12.3000 E0.02137 F1080
G1 X116.3753 Y119.6173 Z12.3000 E0.02137 F1080
G1 X116.0320 Y119.4106 Z12.3000 E0.02137 F1080
G1 X115.7277 Y119.1498 Z12.3000 E0.02137 F1080
G1 X115.4707 Y118.8424 Z12.3000 E0.02137 F1080
G1 X115.2676 Y118.4970 Z12.3000 E0.02136 F1080
G1 X115.1237 Y118.1231 Z12.3000 E0.02136 F1080
G1 X115.0425 Y117.7307 Z12.3000 E0.02136 F1080
G1 X115.0259 Y117.3304 Z12.3000 E0.02136 F1080
G1 X115.0740 Y116.9326 Z12.3000 E0.02136 F1080
G1 X115.1853 Y116.5477 Z12.3000 E0.02136 F1080
G1 X115.3566 Y116.1855 Z12.3000 E0.02136 F1080
G1 X115.5832 Y115.8551 Z12.3000 E0.02136 F1080
G1 X115.8593 Y115.5648 Z12.3000 E0.02136 F1080
G1 X116.1776 Y115.3215 Z12.3000 E0.02136 F1080
G1 X116.5301 Y115.1312 Z12.3000 E0.02136 F1080
G1 X116.9080 Y114.9982 Z12.3000 E0.02136 F1080
G1 X117.3020 Y114.9256 Z12.3000 E0.02136 F1080
G1 X117.7025 Y114.9148 Z12.3000 E0.02136 F1080
G1 X118.0998 Y114.9659 Z12.3000 E0.02136 F1080
G1 X118.4846 Y115.0773 Z12.3000 E0.02136 F1080
G1 X118.8479 Y115.2462 Z12.3000 E0.02136 F1080
G1 X119.1812 Y115.4684 Z12.3000 E0.02136 F1080
G1 X119.4770 Y115.7385 Z12.3000 E0.02136 F1080
G1 X119.7286 Y116.0502 Z12.3000 E0.02136 F1080
G1 X119.9306 Y116.3962 Z12.3000 E0.02136 F1080
G1 X120.0784 Y116.7684 Z12.3000 E0.02136 F1080
G1 X120.1691 Y117.1586 Z12.3000 E0.02136 F1080
G1 X120.2009 Y117.5579 Z12.3000 E0.02136 F1080
G1 X120.1733 Y117.9575 Z12.3000 E0.02136 F1080
G1 X120.0871 Y118.3487 Z12.3000 E0.02136 F1080
G1 X119.9444 Y118.7229 Z12.3000 E0.02136 F1080
G1 X119.7485 Y119.0723 Z12.3000 E0.02136 F1080
G1 X119.5038 Y119.3895 Z12.3000 E0.02136 F1080
G1 X119.2157 Y119.6677 Z12.3000 E0.02136 F1080
G1 X118.8904 Y119.9014 Z12.3000 E0.02136 F1080
G1 X118.5349 Y120.0858 Z12.3000 E0.02136 F1080
G1 X118.1566 Y120.2173 Z12.3000 E0.02136 F1080
G1 X117.7633 Y120.2934 Z12.3000 E0.02136 F1080
G1 X117.3633 Y120.3127 Z12.3000 E0.02136 F1080
G1 X116.9645 Y120.2750 Z12.3000 E0.02136 F1080
G1 X116.5751 Y120.1813 Z12.3000 E0.02136 F1080
G1 X116.2028 Y120.0336 Z12.3000 E0.02136 F1080
G1 X115.8550 Y119.8352 Z12.3000 E0.02135 F1080
G1 X115.5383 Y119.5900 Z12.3000 E0.02135 F1080
G1 X115.2588 Y119.3031 Z12.3000 E0.02135 F1080
G1 X115.0220 Y118.9802 Z12.3000 E0.02135 F1080
G1 X114.8321 Y118.6275 Z12.3000 E0.02135 F1080
G1 X114.6927 Y118.2521 Z12.3000 E0.02135 F1080
G1 X114.6063 Y117.8610 Z12.3000 E0.02135 F1080
G1 X114.5743 Y117.4619 Z12.3000 E0.02135 F1080
G1 X114.5971 Y117.0620 Z12.3000 E0.02135 F1080
G1 X114.6742 Y116.6690 Z12.3000 E0.02135 F1080
G1 X114.8038 Y116.2901 Z12.3000 E0.02135 F1080
G1 X114.9835 Y115.9322 Z12.3000 E0.02135 F1080
G1 X115.2098 Y115.6018 Z12.3000 E0.02135 F1080
G1 X115.4784 Y115.3048 Z12.3000 E0.02135 F1080
G1 X115.7844 Y115.0465 Z12.3000 E0.02135 F1080
G1 X116.1222 Y114.8313 Z12.3000 E0.02135 F1080
G1 X116.4855 Y114.6630 Z12.3000 E0.02135 F1080
G1 X116.8680 Y114.5444 Z12.3000 E0.02135 F1080
G1 X117.2628 Y114.4774 Z12.3000 E0.02135 F1080
G1 X117.6630 Y114.4630 Z12.3000 E0.02135 F1080
G1 X118.0616 Y114.5014 Z12.3000 E0.02135 F1080
G1 X118.4517 Y114.5916 Z12.3000 E0.02135 F1080
G1 X118.8267 Y114.7320 Z12.3000 E0.02135 F1080
G1 X119.1803 Y114.9201 Z12.3000 E0.02135 F1080
G1 X119.5064 Y115.1524 Z12.3000 E0.02135 F1080
G1 X119.7997 Y115.4250 Z12.3000 E0.02135 F1080
G1 X120.0554 Y115.7332 Z12.3000 E0.02135 F1080
G1 X120.2693 Y116.0717 Z12.3000 E0.02135 F1080
G1 X120.4380 Y116.4349 Z12.3000 E0.02135 F1080
G1 X120.5588 Y116.8166 Z12.3000 E0.02135 F1080
G1 X120.6301 Y117.2106 Z12.3000 E0.02135 F1080
G1 X120.6506 Y117.6105 Z12.3000 E0.02135 F1080
G1 X120.6202 Y118.0098 Z12.3000 E0.02135 F1080
G1 X120.5397 Y118.4020 Z12.3000 E0.02135 F1080
G1 X120.4103 Y118.7809 Z12.3000 E0.02135 F1080
G1 X120.2343 Y119.1406 Z12.3000 E0.02135 F1080
G1 X120.0146 Y119.4753 Z12.3000 E0.02135 F1080
G1 X119.7548 Y119.7800 Z12.3000 E0.02135 F1080
G1 X119.4591 Y120.0499 Z12.3000 E0.02135 F1080
G1 X119.1321 Y120.2810 Z12.3000 E0.02135 F1080
G1 X118.7789 Y120.4697 Z12.3000 E0.02135 F1080
G1 X118.4052 Y120.6133 Z12.3000 E0.02135 F1080
G1 X118.0166 Y120.7098 Z12.3000 E0.02135 F1080
G1 X117.6191 Y120.7577 Z12.3000 E0.02135 F1080
G1 X117.2187 Y120.7565 Z12.3000 E0.02135 F1080
G1 X116.8215 Y120.7064 Z12.3000 E0.02135 F1080
G1 X116.4333 Y120.6082 Z12.3000 E0.02135 F1080
G1 X116.0600 Y120.4636 Z12.3000 E0.02135 F1080
G1 X115.7070 Y120.2747 Z12.3000 E0.02135 F1080
G1 X115.3794 Y120.0444 Z12.3000 E0.02135 F1080
G1 X115.0820 Y119.7764 Z12.3000 E0.02135 F1080
G1 X114.8191 Y119.4745 Z12.3000 E0.02135 F1080
G1 X114.5943 Y119.1432 Z12.3000 E0.02135 F1080
G1 X114.4108 Y118.7873 Z12.3000 E0.02135 F1080
G1 X114.2711 Y118.4121 Z12.3000 E0.02135 F1080
G1 X114.1771 Y118.0230 Z12.3000 E0.02135 F1080
G1 X114.1300 Y117.6254 Z12.3000 E0.02135 F1080
G1 X114.1304 Y117.2250 Z12.3000 E0.02135 F1080
G1 X114.1781 Y116.8275 Z12.3000 E0.02135 F1080
G1 X114.2723 Y116.4384 Z12.3000 E0.02135 F1080
G1 X114.4117 Y116.0631 Z12.3000 E0.02135 F1080
G1 X114.5942 Y115.7067 Z12.3000 E0.02135 F1080
G1 X114.8171 Y115.3742 Z12.3000 E0.02135 F1080
G1 X115.0774 Y115.0700 Z12.3000 E0.02135 F1080
G1 X115.3713 Y114.7981 Z12.3000 E0.02135 F1080
G1 X115.6948 Y114.5623 Z12.3000 E0.02135 F1080
G1 X116.0434 Y114.3656 Z12.3000 E0.02135 F1080
G1 X116.4125 Y114.2105 Z12.3000 E0.02135 F1080
G1 X116.7970 Y114.0990 Z12.3000 E0.02135 F1080
G1 X117.1918 Y114.0325 Z12.3000 E0.02135 F1080
G1 X117.5916 Y114.0118 Z12.3000 E0.02135 F1080
G1 X117.9911 Y114.0371 Z12.3000 E0.02135 F1080
G1 X118.3852 Y114.1078 Z12.3000 E0.02135 F1080
G1 X118.7686 Y114.2230 Z12.3000 E0.02135 F1080
G1 X119.1364 Y114.3811 Z12.3000 E0.02135 F1080
G1 X119.4838 Y114.5799 Z12.3000 E0.02135 F1080
G1 X119.8066 Y114.8168 Z12.3000 E0.02135 F1080
G1 X120.1005 Y115.0886 Z12.3000 E0.02135 F1080
G1 X120.3619 Y115.3918 Z12.3000 E0.02135 F1080
G1 X120.5875 Y115.7225 Z12.3000 E0.02135 F1080
G1 X120.7746 Y116.0764 Z12.3000 E0.02135 F1080
G1 X120.9209 Y116.4490 Z12.3000 E0.02135 F1080
G1 X121.0246 Y116.8357 Z12.3000 E0.02135 F1080
G1 X121.0846 Y117.2315 Z12.3000 E0.02134 F1080
G1 X121.1002 Y117.6315 Z12.3000 E0.02134 F1080
G1 X121.0713 Y118.0308 Z12.3000 E0.02134 F1080
G1 X120.9984 Y118.4244 Z12.3000 E0.02134 F1080
G1 X120.8825 Y118.8075 Z12.3000 E0.02134 F1080
G1 X120.7250 Y119.1756 Z12.3000 E0.02134 F1080
G1 X120.5280 Y119.5240 Z12.3000 E0.02134 F1080
G1 X120.2939 Y119.8488 Z12.3000 E0.02134 F1080
G1 X120.0257 Y120.1459 Z12.3000 E0.02134 F1080
G1 X119.7266 Y120.4120 Z12.3000 E0.02134 F1080
G1 X119.4003 Y120.6439 Z12.3000 E0.02134 F1080
G1 X119.0507 Y120.8388 Z12.3000 E0.02134 F1080
G1 X118.6820 Y120.9947 Z12.3000 E0.02134 F1080
G1 X118.2985 Y121.1096 Z12.3000 E0.02134 F1080
G1 X117.9049 Y121.1825 Z12.3000 E0.02134 F1080
G1 X117.5057 Y121.2124 Z12.3000 E0.02134 F1080
G1 X117.1057 Y121.1991 Z12.3000 E0.02134 F1080
G1 X116.7093 Y121.1430 Z12.3000 E0.02134 F1080
G1 X116.3213 Y121.0447 Z12.3000 E0.02134 F1080
G1 X115.9460 Y120.9054 Z12.3000 E0.02134 F1080
G1 X115.5878 Y120.7268 Z12.3000 E0.02134 F1080
G1 X115.2506 Y120.5110 Z12.3000 E0.02134 F1080
G1 X114.9383 Y120.2606 Z12.3000 E0.02134 F1080
G1 X114.6543 Y119.9785 Z12.3000 E0.02134 F1080
G1 X114.4019 Y119.6679 Z12.3000 E0.02134 F1080
G1 X114.1837 Y119.3323 Z12.3000 E0.02134 F1080
G1 X114.0021 Y118.9756 Z12.3000 E0.02134 F1080
G1 X113.8591 Y118.6017 Z12.3000 E0.02134 F1080
G1 X113.7562 Y118.2149 Z12.3000 E0.02134 F1080
G1 X113.6944 Y117.8194 Z12.3000 E0.02134 F1080
G1 X113.6743 Y117.4196 Z12.3000 E0.02134 F1080
G1 X113.6962 Y117.0199 Z12.3000 E0.02134 F1080
G1 X113.7596 Y116.6247 Z12.3000 E0.02134 F1080
G1 X113.8638 Y116.2382 Z12.3000 E0.02134 F1080
G1 X114.0075 Y115.8647 Z12.3000 E0.02134 F1080
G1 X114.1893 Y115.5080 Z12.3000 E0.02134 F1080
G1 X114.4069 Y115.1721 Z12.3000 E0.02134 F1080
G1 X114.6581 Y114.8604 Z12.3000 E0.02134 F1080
G1 X114.9401 Y114.5763 Z12.3000 E0.02134 F1080
G1 X115.2498 Y114.3228 Z12.3000 E0.02134 F1080
G1 X115.5839 Y114.1023 Z12.3000 E0.02134 F1080
G1 X115.9388 Y113.9173 Z12.3000 E0.02134 F1080
G1 X116.3108 Y113.7696 Z12.3000 E0.02134 F1080
G1 X116.6960 Y113.6606 Z12.3000 E0.02134 F1080
G1 X117.0902 Y113.5914 Z12.3000 E0.02134 F1080
G1 X117.4894 Y113.5627 Z12.3000 E0.02134 F1080
G1 X117.8895 Y113.5747 Z12.3000 E0.02134 F1080
G1 X118.2863 Y113.6272 Z12.3000 E0.02134 F1080
G1 X118.6758 Y113.7195 Z12.3000 E0.02134 F1080
G1 X119.0539 Y113.8507 Z12.3000 E0.02134 F1080
G1 X119.4169 Y114.0194 Z12.3000 E0.02134 F1080
G1 X119.7611 Y114.2237 Z12.3000 E0.02134 F1080
G1 X120.0830 Y114.4616 Z12.3000 E0.02134 F1080
G1 X120.3795 Y114.7305 Z12.3000 E0.02134 F1080
G1 X120.6475 Y115.0278 Z12.3000 E0.02134 F1080
G1 X120.8845 Y115.3503 Z12.3000 E0.02134 F1080
G1 X121.0882 Y115.6949 Z12.3000 E0.02134 F1080
G1 X121.2565 Y116.0580 Z12.3000 E0.02134 F1080
G1 X121.3879 Y116.4361 Z12.3000 E0.02134 F1080
G1 X121.4812 Y116.8253 Z12.3000 E0.02134 F1080
G1 X121.5355 Y117.2219 Z12.3000 E0.02134 F1080
G1 X121.5503 Y117.6218 Z12.3000 E0.02134 F1080
G1 X121.5256 Y118.0213 Z12.3000 E0.02134 F1080
G1 X121.4617 Y118.4164 Z12.3000 E0.02134 F1080
G1 X121.3592 Y118.8033 Z12.3000 E0.02134 F1080
G1 X121.2192 Y119.1783 Z12.3000 E0.02134 F1080
G1 X121.0432 Y119.5378 Z12.3000 E0.02134 F1080
G1 X120.8328 Y119.8783 Z12.3000 E0.02134 F1080
G1 X120.5902 Y120.1966 Z12.3000 E0.02134 F1080
G1 X120.3178 Y120.4898 Z12.3000 E0.02134 F1080
G1 X120.0181 Y120.7551 Z12.3000 E0.02134 F1080
G1 X119.6940 Y120.9900 Z12.3000 E0.02134 F1080
G1 X119.3487 Y121.1923 Z12.3000 E0.02134 F1080
G1 X118.9854 Y121.3603 Z12.3000 E0.02134 F1080
G1 X118.6076 Y121.4923 Z12.3000 E0.02134 F1080
G1 X118.2187 Y121.5873 Z12.3000 E0.02134 F1080
G1 X117.8226 Y121.6444 Z12.3000 E0.02134 F1080
G1 X117.4228 Y121.6631 Z12.3000 E0.02134 F1080
G1 X117.0231 Y121.6433 Z12.3000 E0.02134 F1080
G1 X116.6270 Y121.5854 Z12.3000 E0.02134 F1080
G1 X116.2384 Y121.4897 Z12.3000 E0.02134 F1080
G1 X115.8607 Y121.3574 Z12.3000 E0.02134 F1080
G1 X115.4973 Y121.1896 Z12.3000 E0.02134 F1080
G1 X115.1516 Y120.9880 Z12.3000 E0.02134 F1080
G1 X114.8265 Y120.7545 Z12.3000 E0.02134 F1080
G1 X114.5252 Y120.4911 Z12.3000 E0.02134 F1080
G1 X114.2501 Y120.2004 Z12.3000 E0.02134 F1080
G1 X114.0038 Y119.8849 Z12.3000 E0.02134 F1080
G1 X113.7884 Y119.5476 Z12.3000 E0.02134 F1080
G1 X113.6058 Y119.1914 Z12.3000 E0.02134 F1080
G1 X113.4576 Y118.8197 Z12.3000 E0.02134 F1080
G1 X113.3449 Y118.4356 Z12.3000 E0.02134 F1080
G1 X113.2688 Y118.0427 Z12.3000 E0.02134 F1080
G1 X113.2299 Y117.6444 Z12.3000 E0.02134 F1080
G1 X113.2284 Y117.2442 Z12.3000 E0.02134 F1080
G1 X113.2643 Y116.8456 Z12.3000 E0.02134 F1080
G1 X113.3372 Y116.4520 Z12.3000 E0.02134 F1080
G1 X113.4465 Y116.0670 Z12.3000 E0.02134 F1080
G1 X113.5911 Y115.6938 Z12.3000 E0.02134 F1080
G1 X113.7698 Y115.3357 Z12.3000 E0.02134 F1080
G1 X113.9808 Y114.9957 Z12.3000 E0.02134 F1080
G1 X114.2225 Y114.6766 Z12.3000 E0.02134 F1080
G1 X114.4926 Y114.3813 Z12.3000 E0.02134 F1080
G1 X114.7888 Y114.1121 Z12.3000 E0.02134 F1080
G1 X115.1085 Y113.8714 Z12.3000 E0.02134 F1080
G1 X115.4490 Y113.6612 Z12.3000 E0.02134 F1080
G1 X115.8074 Y113.4831 Z12.3000 E0.02134 F1080
G1 X116.1807 Y113.3386 Z12.3000 E0.02134 F1080
G1 X116.5656 Y113.2289 Z12.3000 E0.02134 F1080
G1 X116.9589 Y113.1549 Z12.3000 E0.02134 F1080
G1 X117.3573 Y113.1172 Z12.3000 E0.02134 F1080
G1 X117.7575 Y113.1159 Z12.3000 E0.02134 F1080
G1 X118.1562 Y113.1510 Z12.3000 E0.02134 F1080
G1 X118.5500 Y113.2222 Z12.3000 E0.02134 F1080
G1 X118.9357 Y113.3289 Z12.3000 E0.02134 F1080
G1 X119.3102 Y113.4702 Z12.3000 E0.02134 F1080
G1 X119.6703 Y113.6447 Z12.3000 E0.02134 F1080
G1 X120.0132 Y113.8511 Z12.3000 E0.02134 F1080
G1 X120.3361 Y114.0875 Z12.3000 E0.02134 F1080
G1 X120.6364 Y114.3521 Z12.3000 E0.02134 F1080
G1 X120.9116 Y114.6427 Z12.3000 E0.02134 F1080
G1 X121.1596 Y114.9568 Z12.3000 E0.02134 F1080
G1 X121.3784 Y115.2919 Z12.3000 E0.02134 F1080
G1 X121.5663 Y115.6452 Z12.3000 E0.02134 F1080
G1 X121.7219 Y116.0140 Z12.3000 E0.02134 F1080
G1 X121.8438 Y116.3951 Z12.3000 E0.02134 F1080
G1 X121.9313 Y116.7856 Z12.3000 E0.02134 F1080
G1 X121.9837 Y117.1824 Z12.3000 E0.02134 F1080
G1 X122.0006 Y117.5823 Z12.3000 E0.02134 F1080
G1 X121.9818 Y117.9820 Z12.3000 E0.02134 F1080
G1 X121.9277 Y118.3785 Z12.3000 E0.02134 F1080
G1 X121.8387 Y118.7687 Z12.3000 E0.02134 F1080
G1 X121.7155 Y119.1495 Z12.3000 E0.02134 F1080
G1 X121.5591 Y119.5179 Z12.3000 E0.02134 F1080
G1 X121.3709 Y119.8710 Z12.3000 E0.02134 F1080
G1 X121.1523 Y120.2063 Z12.3000 E0.02134 F1080
G1 X120.9050 Y120.5209 Z12.3000 E0.02134 F1080
G1 X120.6311 Y120.8127 Z12.3000 E0.02134 F1080
G1 X120.3326 Y121.0793 Z12.3000 E0.02134 F1080
G1 X120.0120 Y121.3187 Z12.3000 E0.02134 F1080
G1 X119.6716 Y121.5292 Z12.3000 E0.02134 F1080
G1 X119.3141 Y121.7091 Z12.3000 E0.02134 F1080
G1 X118.9423 Y121.8571 Z12.3000 E0.02134 F1080
G1 X118.5590 Y121.9722 Z12.3000 E0.02134 F1080
G1 X118.1671 Y122.0535 Z12.3000 E0.02134 F1080
G1 X117.7697 Y122.1004 Z12.3000 E0.02134 F1080
G1 X117.3697 Y122.1127 Z12.3000 E0.02134 F1080
G1 X116.9701 Y122.0903 Z12.3000 E0.02134 F1080
G1 X116.5740 Y122.0333 Z12.3000 E0.02134 F1080
G1 X116.1843 Y121.9424 Z12.3000 E0.02134 F1080
G1 X115.8039 Y121.8181 Z12.3000 E0.02134 F1080
G1 X115.4356 Y121.6616 Z12.3000 E0.02134 F1080
G1 X115.0821 Y121.4739 Z12.3000 E0.02134 F1080
G1 X114.7461 Y121.2565 Z12.3000 E0.02134 F1080
G1 X114.4300 Y121.0111 Z12.3000 E0.02134 F1080
G1 X114.1361 Y120.7395 Z12.3000 E0.02134 F1080
G1 X113.8666 Y120.4437 Z12.3000 E0.02134 F1080
G1 X113.6233 Y120.1260 Z12.3000 E0.02134 F1080
G1 X113.4080 Y119.7886 Z12.3000 E0.02134 F1080
G1 X113.2223 Y119.4341 Z12.3000 E0.02134 F1080
G1 X113.0675 Y119.0651 Z12.3000 E0.02134 F1080
G1 X112.9446 Y118.6842 Z12.3000 E0.02134 F1080
G1 X112.8545 Y118.2943 Z12.3000 E0.02134 F1080
G1 X112.7979 Y117.8982 Z12.3000 E0.02134 F1080
G1 X112.7750 Y117.4986 Z12.3000 E0.02134 F1080
G1 X112.7860 Y117.0986 Z12.3000 E0.02134 F1080
G1 X112.8307 Y116.7009 Z12.3000 E0.02134 F1080
G1 X112.9089 Y116.3085 Z12.3000 E0.02134 F1080
G1 X113.0199 Y115.9240 Z12.3000 E0.02134 F1080
G1 X113.1629 Y115.5502 Z12.3000 E0.02134 F1080
G1 X113.3367 Y115.1898 Z12.3000 E0.02134 F1080
G1 X113.5403 Y114.8452 Z12.3000 E0.02134 F1080
G1 X113.7720 Y114.5190 Z12.3000 E0.02134 F1080
G1 X114.0303 Y114.2133 Z12.3000 E0.02134 F1080
G1 X114.3132 Y113.9302 Z12.3000 E0.02134 F1080
G1 X114.6187 Y113.6718 Z12.3000 E0.02134 F1080
G1 X114.9448 Y113.4398 Z12.3000 E0.02134 F1080
G1 X115.2891 Y113.2358 Z12.3000 E0.02134 F1080
G1 X115.6491 Y113.0612 Z12.3000 E0.02134 F1080
G1 X116.0225 Y112.9171 Z12.3000 E0.02134 F1080
G1 X116.4065 Y112.8045 Z12.3000 E0.02134 F1080
G1 X116.7985 Y112.7242 Z12.3000 E0.02134 F1080
G1 X117.1959 Y112.6766 Z12.3000 E0.02134 F1080
G1 X117.5958 Y112.6620 Z12.3000 E0.02134 F1080
G1 X117.9955 Y112.6806 Z12.3000 E0.02134 F1080
G1 X118.3924 Y112.7320 Z12.3000 E0.02134 F1080
G1 X118.7836 Y112.8160 Z12.3000 E0.02134 F1080
G1 X119.1666 Y112.9320 Z12.3000 E0.02134 F1080
G1 X119.5388 Y113.0790 Z12.3000 E0.02134 F1080
G1 X119.8977 Y113.2561 Z12.3000 E0.02134 F1080
G1 X120.2408 Y113.4621 Z12.3000 E0.02134 F1080
G1 X120.5658 Y113.6955 Z12.3000 E0.02134 F1080
G1 X120.8707 Y113.9547 Z12.3000 E0.02134 F1080
G1 X121.1534 Y114.2379 Z12.3000 E0.02134 F1080
G1 X121.4120 Y114.5433 Z12.3000 E0.02134 F1080
G1 X121.6448 Y114.8688 Z12.3000 E0.02134 F1080
G1 X121.8504 Y115.2121 Z12.3000 E0.02134 F1080
G1 X122.0273 Y115.5710 Z12.3000 E0.02134 F1080
G1 X122.1745 Y115.9431 Z12.3000 E0.02134 F1080
G1 X122.2910 Y116.3260 Z12.3000 E0.02134 F1080
G1 X122.3761 Y116.7170 Z12.3000 E0.02134 F1080
G1 X122.4293 Y117.1136 Z12.3000 E0.02134 F1080
G1 X122.4502 Y117.5132 Z12.3000 E0.02134 F1080
G1 X122.4387 Y117.9132 Z12.3000 E0.02134 F1080
G1 X122.3950 Y118.3110 Z12.3000 E0.02134 F1080
G1 X122.3194 Y118.7040 Z12.3000 E0.02134 F1080
G1 X122.2124 Y119.0896 Z12.3000 E0.02134 F1080
G1 X122.0748 Y119.4653 Z12.3000 E0.02134 F1080
G1 X121.9074 Y119.8288 Z12.3000 E0.02134 F1080
G1 X121.7114 Y120.1777 Z12.3000 E0.02134 F1080
G1 X121.4881 Y120.5097 Z12.3000 E0.02134 F1080
G1 X121.2389 Y120.8228 Z12.3000 E0.02134 F1080
G1 X120.9655 Y121.1150 Z12.3000 E0.02134 F1080
G1 X120.6696 Y121.3844 Z12.3000 E0.02134 F1080
G1 X120.3532 Y121.6294 Z12.3000 E0.02134 F1080
G1 X120.0182 Y121.8484 Z12.3000 E0.02134 F1080
G1 X119.6669 Y122.0400 Z12.3000 E0.02134 F1080
G1 X119.3015 Y122.2031 Z12.3000 E0.02134 F1080
G1 X118.9243 Y122.3366 Z12.3000 E0.02134 F1080
G1 X118.5377 Y122.4399 Z12.3000 E0.02134 F1080
G1 X118.1441 Y122.5121 Z12.3000 E0.02134 F1080
G1 X117.7460 Y122.5530 Z12.3000 E0.02134 F1080
G1 X117.3460 Y122.5623 Z12.3000 E0.02134 F1080
G1 X116.9465 Y122.5400 Z12.3000 E0.02134 F1080
G1 X116.5499 Y122.4863 Z12.3000 E0.02134 F1080
G1 X116.1589 Y122.4015 Z12.3000 E0.02134 F1080
G1 X115.7757 Y122.2861 Z12.3000 E0.02134 F1080
G1 X115.4028 Y122.1410 Z12.3000 E0.02134 F1080
G1 X115.0424 Y121.9671 Z12.3000 E0.02134 F1080
G1 X114.6967 Y121.7654 Z12.3000 E0.02134 F1080
G1 X114.3680 Y121.5373 Z12.3000 E0.02134 F1080
G1 X114.0581 Y121.2842 Z12.3000 E0.02134 F1080
G1 X113.7689 Y121.0076 Z12.3000 E0.02134 F1080
G1 X113.5022 Y120.7092 Z12.3000 E0.02134 F1080
G1 X113.2596 Y120.3910 Z12.3000 E0.02134 F1080
G1 X113.0425 Y120.0549 Z12.3000 E0.02134 F1080
G1 X112.8523 Y119.7028 Z12.3000 E0.02134 F1080
G1 X112.6900 Y119.3371 Z12.3000 E0.02134 F1080
G1 X112.5566 Y118.9598 Z12.3000 E0.02134 F1080
G1 X112.4529 Y118.5733 Z12.3000 E0.02134 F1080
G1 X112.3794 Y118.1800 Z12.3000 E0.02134 F1080
G1 X112.3366 Y117.7821 Z12.3000 E0.02134 F1080
G1 X112.3247 Y117.3821 Z12.3000 E0.02134 F1080
G1 X112.3437 Y116.9824 Z12.3000 E0.02134 F1080
G1 X112.3936 Y116.5854 Z12.3000 E0.02134 F1080
G1 X112.4738 Y116.1934 Z12.3000 E0.02134 F1080
G1 X112.5841 Y115.8087 Z12.3000 E0.02134 F1080
G1 X112.7236 Y115.4337 Z12.3000 E0.02134 F1080
G1 X112.8915 Y115.0704 Z12.3000 E0.02134 F1080
G1 X113.0867 Y114.7212 Z12.3000 E0.02134 F1080
G1 X113.3082 Y114.3879 Z12.3000 E0.02134 F1080
G1 X113.5546 Y114.0726 Z12.3000 E0.02134 F1080
G1 X113.8244 Y113.7770 Z12.3000 E0.02134 F1080
G1 X114.1159 Y113.5030 Z12.3000 E0.02134 F1080
G1 X114.4276 Y113.2520 Z12.3000 E0.02134 F1080
G1 X114.7574 Y113.0255 Z12.3000 E0.02134 F1080
G1 X115.1036 Y112.8248 Z12.3000 E0.02134 F1080
G1 X115.4641 Y112.6510 Z12.3000 E0.02134 F1080
G1 X115.8367 Y112.5052 Z12.3000 E0.02134 F1080
G1 X116.2193 Y112.3881 Z12.3000 E0.02134 F1080
G1 X116.6097 Y112.3003 Z12.3000 E0.02134 F1080
G1 X117.0057 Y112.2424 Z12.3000 E0.02134 F1080
G1 X117.4048 Y112.2146 Z12.3000 E0.02134 F1080
G1 X117.8050 Y112.2172 Z12.3000 E0.02134 F1080
G1 X118.2038 Y112.2499 Z12.3000 E0.02134 F1080
G1 X118.5990 Y112.3127 Z12.3000 E0.02134 F1080
G1 X118.9883 Y112.4051 Z12.3000 E0.02134 F1080
G1 X119.3696 Y112.5265 Z12.3000 E0.02134 F1080
G1 X119.7406 Y112.6763 Z12.3000 E0.02134 F1080
G1 X120.0993 Y112.8536 Z12.3000 E0.02134 F1080
G1 X120.4437 Y113.0574 Z12.3000 E0.02134 F1080
G1 X120.7719 Y113.2864 Z12.3000 E0.02134 F1080
G1 X121.0819 Y113.5393 Z12.3000 E0.02134 F1080
G1 X121.3722 Y113.8148 Z12.3000 E0.02134 F1080
G1 X121.6410 Y114.1112 Z12.3000 E0.02134 F1080
G1 X121.8869 Y114.4268 Z12.3000 E0.02134 F1080
G1 X122.1086 Y114.7600 Z12.3000 E0.02134 F1080
G1 X122.3048 Y115.1087 Z12.3000 E0.02134 F1080
G1 X122.4744 Y115.4711 Z12.3000 E0.02134 F1080
G1 X122.6166 Y115.8451 Z12.3000 E0.02134 F1080
G1 X122.7306 Y116.2287 Z12.3000 E0.02134 F1080
G1 X122.8158 Y116.6196 Z12.3000 E0.02134 F1080
G1 X122.8718 Y117.0158 Z12.3000 E0.02134 F1080
G1 X122.8982 Y117.4151 Z12.3000 E0.02134 F1080
G1 X122.8950 Y117.8152 Z12.3000 E0.02134 F1080
G1 X122.8621 Y118.2140 Z12.3000 E0.02134 F1080
G1 X122.7999 Y118.6093 Z12.3000 E0.02134 F1080
G1 X122.7087 Y118.9989 Z12.3000 E0.02134 F1080
G1 X122.5889 Y119.3807 Z12.3000 E0.02134 F1080
G1 X122.4414 Y119.7526 Z12.3000 E0.02134 F1080
G1 X122.2668 Y120.1127 Z12.3000 E0.02134 F1080
G1 X122.0663 Y120.4590 Z12.3000 E0.02134 F1080
G1 X121.8408 Y120.7895 Z12.3000 E0.02134 F1080
G1 X121.5917 Y121.1026 Z12.3000 E0.02134 F1080
G1 X121.3203 Y121.3967 Z12.3000 E0.02134 F1080
G1 X121.0280 Y121.6700 Z12.3000 E0.02134 F1080
G1 X120.7166 Y121.9212 Z12.3000 E0.02134 F1080
G1 X120.3876 Y122.1489 Z12.3000 E0.02134 F1080
G1 X120.0428 Y122.3520 Z12.3000 E0.02134 F1080
G1 X119.6841 Y122.5294 Z12.3000 E0.02134 F1080
G1 X119.3135 Y122.6801 Z12.3000 E0.02134 F1080
G1 X118.9328 Y122.8035 Z12.3000 E0.02134 F1080
G1 X118.5442 Y122.8988 Z12.3000 E0.02134 F1080
G1 X118.1497 Y122.9655 Z12.3000 E0.02134 F1080
G1 X117.7513 Y123.0035 Z12.3000 E0.02134 F1080
G1 X117.3513 Y123.0124 Z12.3000 E0.02134 F1080
G1 X116.9517 Y122.9923 Z12.3000 E0.02134 F1080
G1 X116.5546 Y122.9433 Z12.3000 E0.02134 F1080
G1 X116.1620 Y122.8657 Z12.3000 E0.02134 F1080
G1 X115.7761 Y122.7599 Z12.3000 E0.02134 F1080
G1 X115.3989 Y122.6265 Z12.3000 E0.02134 F1080
G1 X115.0323 Y122.4662 Z12.3000 E0.02134 F1080
G1 X114.6782 Y122.2799 Z12.3000 E0.02134 F1080
G1 X114.3384 Y122.0686 Z12.3000 E0.02134 F1080
G1 X114.0147 Y121.8333 Z12.3000 E0.02134 F1080
G1 X113.7088 Y121.5754 Z12.3000 E0.02134 F1080
G1 X113.4222 Y121.2962 Z12.3000 E0.02134 F1080
G1 X113.1564 Y120.9971 Z12.3000 E0.02134 F1080
G1 X112.9127 Y120.6797 Z12.3000 E0.02134 F1080
G1 X112.6924 Y120.3457 Z12.3000 E0.02134 F1080
G1 X112.4965 Y119.9968 Z12.3000 E0.02134 F1080
G1 X112.3261 Y119.6348 Z12.3000 E0.02134 F1080
G1 X112.1820 Y119.2615 Z12.3000 E0.02134 F1080
G1 X112.0650 Y118.8789 Z12.3000 E0.02134 F1080
G1 X111.9755 Y118.4889 Z12.3000 E0.02133 F1080
G1 X111.9140 Y118.0935 Z12.3000 E0.02133 F1080
G1 X111.8809 Y117.6947 Z12.3000 E0.02133 F1080
G1 X111.8761 Y117.2946 Z12.3000 E0.02133 F1080
G1 X111.8999 Y116.8952 Z12.3000 E0.02133 F1080
G1 X111.9519 Y116.4985 Z12.3000 E0.02133 F1080
G1 X112.0319 Y116.1064 Z12.3000 E0.02133 F1080
G1 X112.1395 Y115.7210 Z12.3000 E0.02133 F1080
G1 X112.2742 Y115.3442 Z12.3000 E0.02133 F1080
G1 X112.4351 Y114.9779 Z12.3000 E0.02133 F1080
G1 X112.6216 Y114.6239 Z12.3000 E0.02133 F1080
G1 X112.8325 Y114.2839 Z12.3000 E0.02133 F1080
G1 X113.0670 Y113.9596 Z12.3000 E0.02133 F1080
G1 X113.3237 Y113.6527 Z12.3000 E0.02133 F1080
G1 X113.6014 Y113.3646 Z12.3000 E0.02133 F1080
G1 X113.8986 Y113.0968 Z12.3000 E0.02133 F1080
G1 X114.2140 Y112.8505 Z12.3000 E0.02133 F1080
G1 X114.5459 Y112.6270 Z12.3000 E0.02133 F1080
G1 X114.8926 Y112.4274 Z12.3000 E0.02133 F1080
G1 X115.2525 Y112.2525 Z12.3000 E0.02133 F1080
G1 X115.6238 Y112.1033 Z12.3000 E0.02133 F1080
G1 X116.0046 Y111.9804 Z12.3000 E0.02133 F1080
G1 X116.3930 Y111.8845 Z12.3000 E0.02133 F1080
G1 X116.7873 Y111.8159 Z12.3000 E0.02133 F1080
G1 X117.1853 Y111.7751 Z12.3000 E0.02133 F1080
G1 X117.5852 Y111.7621 Z12.3000 E0.02133 F1080
G1 X117.9850 Y111.7770 Z12.3000 E0.02133 F1080
G1 X118.3829 Y111.8197 Z12.3000 E0.02133 F1080
G1 X118.7768 Y111.8899 Z12.3000 E0.02133 F1080
G1 X119.1649 Y111.9874 Z12.3000 E0.02133 F1080
G1 X119.5452 Y112.1116 Z12.3000 E0.02133 F1080
G1 X119.9160 Y112.2619 Z12.3000 E0.02133 F1080
G1 X120.2756 Y112.4375 Z12.3000 E0.02133 F1080
G1 X120.6220 Y112.6376 Z12.3000 E0.02133 F1080
G1 X120.9539 Y112.8613 Z12.3000 E0.02133 F1080
G1 X121.2694 Y113.1073 Z12.3000 E0.02133 F1080
G1 X121.5672 Y113.3745 Z12.3000 E0.02133 F1080
G1 X121.8458 Y113.6617 Z12.3000 E0.02133 F1080
G1 X122.1040 Y113.9674 Z12.3000 E0.02133 F1080
G1 X122.3405 Y114.2901 Z12.3000 E0.02133 F1080
G1 X122.5542 Y114.6284 Z12.3000 E0.02133 F1080
G1 X122.7441 Y114.9806 Z12.3000 E0.02133 F1080
G1 X122.9094 Y115.3450 Z12.3000 E0.02133 F1080
G1 X123.0492 Y115.7198 Z12.3000 E0.02133 F1080
G1 X123.1630 Y116.1034 Z12.3000 E0.02133 F1080
G1 X123.2502 Y116.4939 Z12.3000 E0.02133 F1080
G1 X123.3105 Y116.8895 Z12.3000 E0.02133 F1080
G1 X123.3436 Y117.2882 Z12.3000 E0.02133 F1080
G1 X123.3493 Y117.6883 Z12.3000 E0.02133 F1080
G1 X123.3276 Y118.0879 Z12.3000 E0.02133 F1080
G1 X123.2787 Y118.4850 Z12.3000 E0.02133 F1080
G1 X123.2029 Y118.8778 Z12.3000 E0.02133 F1080
G1 X123.1004 Y119.2646 Z12.3000 E0.02133 F1080
G1 X122.9719 Y119.6435 Z12.3000 E0.02133 F1080
G1 X122.8178 Y120.0128 Z12.3000 E0.02133 F1080
G1 X122.6390 Y120.3707 Z12.3000 E0.02133 F1080
G1 X122.4363 Y120.7157 Z12.3000 E0.02133 F1080
G1 X122.2107 Y121.0461 Z12.3000 E0.02133 F1080
G1 X121.9631 Y121.3605 Z12.3000 E0.02133 F1080
G1 X121.6948 Y121.6573 Z12.3000 E0.02133 F1080
G1 X121.4071 Y121.9353 Z12.3000 E0.02133 F1080
G1 X121.1012 Y122.1932 Z12.3000 E0.02133 F1080
G1 X120.7785 Y122.4298 Z12.3000 E0.02133 F1080
G1 X120.4406 Y122.6441 Z12.3000 E0.02133 F1080
G1 X120.0890 Y122.8351 Z12.3000 E0.02133 F1080
G1 X119.7253 Y123.0020 Z12.3000 E0.02133 F1080
G1 X119.3513 Y123.1439 Z12.3000 E0.02133 F1080
G1 X118.9685 Y123.2604 Z12.3000 E0.02133 F1080
G1 X118.5787 Y123.3508 Z12.3000 E0.02133 F1080
G1 X118.1838 Y123.4149 Z12.3000 E0.02133 F1080
G1 X117.7854 Y123.4522 Z12.3000 E0.02133 F1080
G1 X117.3854 Y123.4628 Z12.3000 E0.02133 F1080
G1 X116.9856 Y123.4465 Z12.3000 E0.02133 F1080
G1 X116.5878 Y123.4034 Z12.3000 E0.02133 F1080
G1 X116.1938 Y123.3338 Z12.3000 E0.02133 F1080
G1 X115.8053 Y123.2380 Z12.3000 E0.02133 F1080
G1 X115.4241 Y123.1165 Z12.3000 E0.02133 F1080
G1 X115.0519 Y122.9698 Z12.3000 E0.02133 F1080
G1 X114.6903 Y122.7985 Z12.3000 E0.02133 F1080
G1 X114.3409 Y122.6036 Z12.3000 E0.02133 F1080
G1 X114.0053 Y122.3857 Z12.3000 E0.02133 F1080
G1 X113.6849 Y122.1461 Z12.3000 E0.02133 F1080
G1 X113.3812 Y121.8856 Z12.3000 E0.02133 F1080
G1 X113.0954 Y121.6055 Z12.3000 E0.02133 F1080
G1 X112.8289 Y121.3071 Z12.3000 E0.02133 F1080
G1 X112.5828 Y120.9916 Z12.3000 E0.02133 F1080
G1 X112.3581 Y120.6605 Z12.3000 E0.02133 F1080
G1 X112.1559 Y120.3153 Z12.3000 E0.02133 F1080
G1 X111.9770 Y119.9574 Z12.3000 E0.02133 F1080
G1 X111.8222 Y119.5885 Z12.3000 E0.02133 F1080
G1 X111.6920 Y119.2101 Z12.3000 E0.02133 F1080
G1 X111.5872 Y118.8240 Z12.3000 E0.02133 F1080
G1 X111.5081 Y118.4318 Z12.3000 E0.02133 F1080
G1 X111.4550 Y118.0352 Z12.3000 E0.02133 F1080
G1 X111.4281 Y117.6360 Z12.3000 E0.02133 F1080
G1 X111.4276 Y117.2359 Z12.3000 E0.02133 F1080
G1 X111.4535 Y116.8366 Z12.3000 E0.02133 F1080
G1 X111.5055 Y116.4399 Z12.3000 E0.02133 F1080
G1 X111.5835 Y116.0474 Z12.3000 E0.02133 F1080
G1 X111.6870 Y115.6610 Z12.3000 E0.02133 F1080
G1 X111.8157 Y115.2821 Z12.3000 E0.02133 F1080
G1 X111.9690 Y114.9125 Z12.3000 E0.02133 F1080
G1 X112.1461 Y114.5537 Z12.3000 E0.02133 F1080
G1 X112.3463 Y114.2073 Z12.3000 E0.02133 F1080
G1 X112.5688 Y113.8748 Z12.3000 E0.02133 F1080
G1 X112.8125 Y113.5574 Z12.3000 E0.02133 F1080
G1 X113.0764 Y113.2567 Z12.3000 E0.02133 F1080
G1 X113.3593 Y112.9738 Z12.3000 E0.02133 F1080
G1 X113.6601 Y112.7100 Z12.3000 E0.02133 F1080
G1 X113.9775 Y112.4663 Z12.3000 E0.02133 F1080
G1 X114.3100 Y112.2438 Z12.3000 E0.02133 F1080
G1 X114.6563 Y112.0434 Z12.3000 E0.02133 F1080
G1 X115.0149 Y111.8660 Z12.3000 E0.02133 F1080
G1 X115.3843 Y111.7122 Z12.3000 E0.02133 F1080
G1 X115.7629 Y111.5827 Z12.3000 E0.02133 F1080
G1 X116.1490 Y111.4780 Z12.3000 E0.02133 F1080
G1 X116.5412 Y111.3985 Z12.3000 E0.02133 F1080
G1 X116.9376 Y111.3447 Z12.3000 E0.02133 F1080
G1 X117.3368 Y111.3165 Z12.3000 E0.02133 F1080
G1 X117.7369 Y111.3143 Z12.3000 E0.02133 F1080
G1 X118.1363 Y111.3379 Z12.3000 E0.02133 F1080
G1 X118.5333 Y111.3872 Z12.3000 E0.02133 F1080
G1 X118.9264 Y111.4621 Z12.3000 E0.02133 F1080
G1 X119.3138 Y111.5621 Z12.3000 E0.02133 F1080
G1 X119.6939 Y111.6869 Z12.3000 E0.02133 F1080
G1 X120.0653 Y111.8359 Z12.3000 E0.02133 F1080
G1 X120.4262 Y112.0084 Z12.3000 E0.02133 F1080
G1 X120.7754 Y112.2038 Z12.3000 E0.02133 F1080
G1 X121.1113 Y112.4212 Z12.3000 E0.02133 F1080
G1 X121.4325 Y112.6598 Z12.3000 E0.02133 F1080
G1 X121.7378 Y112.9184 Z12.3000 E0.02133 F1080
G1 X122.0258 Y113.1961 Z12.3000 E0.02133 F1080
G1 X122.2955 Y113.4916 Z12.3000 E0.02133 F1080
G1 X122.5458 Y113.8038 Z12.3000 E0.02133 F1080
G1 X122.7755 Y114.1314 Z12.3000 E0.02133 F1080
G1 X122.9839 Y114.4729 Z12.3000 E0.02133 F1080
G1 X123.1700 Y114.8271 Z12.3000 E0.02133 F1080
G1 X123.3332 Y115.1924 Z12.3000 E0.02133 F1080
G1 X123.4727 Y115.5674 Z12.3000 E0.02133 F1080
G1 X123.5881 Y115.9505 Z12.3000 E0.02133 F1080
G1 X123.6788 Y116.3402 Z12.3000 E0.02133 F1080
G1 X123.7446 Y116.7349 Z12.3000 E0.02133 F1080
G1 X123.7851 Y117.1329 Z12.3000 E0.02133 F1080
G1 X123.8003 Y117.5327 Z12.3000 E0.02133 F1080
G1 X123.7901 Y117.9327 Z12.3000 E0.02133 F1080
G1 X123.7545 Y118.3312 Z12.3000 E0.02133 F1080
G1 X123.6937 Y118.7267 Z12.3000 E0.02133 F1080
G1 X123.6080 Y119.1175 Z12.3000 E0.02133 F1080
G1 X123.4977 Y119.5021 Z12.3000 E0.02133 F1080
G1 X123.3634 Y119.8790 Z12.3000 E0.02133 F1080
G1 X123.2054 Y120.2466 Z12.3000 E0.02133 F1080
G1 X123.0246 Y120.6035 Z12.3000 E0.02133 F1080
G1 X122.8216 Y120.9483 Z12.3000 E0.02133 F1080
G1 X122.5973 Y121.2796 Z12.3000 E0.02133 F1080
G1 X122.3525 Y121.5961 Z12.3000 E0.02133 F1080
G1 X122.0883 Y121.8965 Z12.3000 E0.02133 F1080
G1 X121.8057 Y122.1798 Z12.3000 E0.02133 F1080
G1 X121.5059 Y122.4447 Z12.3000 E0.02133 F1080
G1 X121.1900 Y122.6902 Z12.3000 E0.02133 F1080
G1 X120.8593 Y122.9154 Z12.3000 E0.02133 F1080
G1 X120.5151 Y123.1194 Z12.3000 E0.02133 F1080
G1 X120.1588 Y123.3015 Z12.3000 E0.02133 F1080
G1 X119.7918 Y123.4608 Z12.3000 E0.02133 F1080
G1 X119.4156 Y123.5969 Z12.3000 E0.02133 F1080
G1 X119.0315 Y123.7091 Z12.3000 E0.02133 F1080
G1 X118.6412 Y123.7971 Z12.3000 E0.02133 F1080
G1 X118.2462 Y123.8605 Z12.3000 E0.02133 F1080
G1 X117.8480 Y123.8992 Z12.3000 E0.02133 F1080
G1 X117.4481 Y123.9129 Z12.3000 E0.02133 F1080
G1 X117.0482 Y123.9016 Z12.3000 E0.02133 F1080
G1 X116.6497 Y123.8655 Z12.3000 E0.02133 F1080
G1 X116.2543 Y123.8046 Z12.3000 E0.02133 F1080
G1 X115.8634 Y123.7192 Z12.3000 E0.02133 F1080
G1 X115.4786 Y123.6097 Z12.3000 E0.02133 F1080
G1 X115.1013 Y123.4764 Z12.3000 E0.02133 F1080
G1 X114.7330 Y123.3200 Z12.3000 E0.02133 F1080
G1 X114.3752 Y123.1411 Z12.3000 E0.02133 F1080
G1 X114.0291 Y122.9403 Z12.3000 E0.02133 F1080
G1 X113.6962 Y122.7184 Z12.3000 E0.02133 F1080
G1 X113.3776 Y122.4763 Z12.3000 E0.02133 F1080
G1 X113.0746 Y122.2150 Z12.3000 E0.02133 F1080
G1 X112.7884 Y121.9355 Z12.3000 E0.02133 F1080
G1 X112.5200 Y121.6388 Z12.3000 E0.02133 F1080
G1 X112.2704 Y121.3261 Z12.3000 E0.02133 F1080
G1 X112.0406 Y120.9985 Z12.3000 E0.02133 F1080
G1 X111.8315 Y120.6575 Z12.3000 E0.02133 F1080
G1 X111.6437 Y120.3041 Z12.3000 E0.02133 F1080
G1 X111.4781 Y119.9399 Z12.3000 E0.02133 F1080
G1 X111.3352 Y119.5662 Z12.3000 E0.02133 F1080
G1 X111.2156 Y119.1844 Z12.3000 E0.02133 F1080
G1 X111.1196 Y118.7960 Z12.3000 E0.02133 F1080
G1 X111.0478 Y118.4024 Z12.3000 E0.02133 F1080
G1 X111.0002 Y118.0052 Z12.3000 E0.02133 F1080
G1 X110.9770 Y117.6057 Z12.3000 E0.02133 F1080
G1 X110.9784 Y117.2056 Z12.3000 E0.02133 F1080
G1 X111.0043 Y116.8064 Z12.3000 E0.02133 F1080
G1 X111.0546 Y116.4095 Z12.3000 E0.02133 F1080
G1 X111.1291 Y116.0164 Z12.3000 E0.02133 F1080
G1 X111.2275 Y115.6286 Z12.3000 E0.02133 F1080
G1 X111.3493 Y115.2475 Z12.3000 E0.02133 F1080
G1 X111.4943 Y114.8746 Z12.3000 E0.02133 F1080
G1 X111.6617 Y114.5112 Z12.3000 E0.02133 F1080
G1 X111.8509 Y114.1587 Z12.3000 E0.02133 F1080
G1 X112.0613 Y113.8184 Z12.3000 E0.02133 F1080
G1 X112.2921 Y113.4915 Z12.3000 E0.02133 F1080
G1 X112.5422 Y113.1793 Z12.3000 E0.02133 F1080
G1 X112.8109 Y112.8828 Z12.3000 E0.02133 F1080
G1 X113.0972 Y112.6033 Z12.3000 E0.02133 F1080
G1 X113.3998 Y112.3416 Z12.3000 E0.02133 F1080
G1 X113.7178 Y112.0988 Z12.3000 E0.02133 F1080
G1 X114.0500 Y111.8758 Z12.3000 E0.02133 F1080
G1 X114.3950 Y111.6732 Z12.3000 E0.02133 F1080
G1 X114.7517 Y111.4920 Z12.3000 E0.02133 F1080
G1 X115.1187 Y111.3326 Z12.3000 E0.02133 F1080
G1 X115.4947 Y111.1958 Z12.3000 E0.02133 F1080
G1 X115.8782 Y111.0820 Z12.3000 E0.02133 F1080
G1 X116.2680 Y110.9915 Z12.3000 E0.02133 F1080
G1 X116.6624 Y110.9247 Z12.3000 E0.02133 F1080
G1 X117.0602 Y110.8818 Z12.3000 E0.02133 F1080
G1 X117.4599 Y110.8631 Z12.3000 E0.02133 F1080
G1 X117.8599 Y110.8684 Z12.3000 E0.02133 F1080
G1 X118.2590 Y110.8978 Z12.3000 E0.02133 F1080
G1 X118.6555 Y110.9511 Z12.3000 E0.02133 F1080
G1 X119.0481 Y111.0283 Z12.3000 E0.02133 F1080
G1 X119.4353 Y111.1288 Z12.3000 E0.02133 F1080
G1 X119.8158 Y111.2525 Z12.3000 E0.02133 F1080
G1 X120.1882 Y111.3987 Z12.3000 E0.02133 F1080
G1 X120.5512 Y111.5671 Z12.3000 E0.02133 F1080
G1 X120.9034 Y111.7569 Z12.3000 E0.02133 F1080
G1 X121.2436 Y111.9674 Z12.3000 E0.02133 F1080
G1 X121.5706 Y112.1980 Z12.3000 E0.02133 F1080
G1 X121.8832 Y112.4477 Z12.3000 E0.02133 F1080
G1 X122.1803 Y112.7156 Z12.3000 E0.02133 F1080
G1 X122.4609 Y113.0008 Z12.3000 E0.02133 F1080
G1 X122.7239 Y113.3023 Z12.3000 E0.02133 F1080
G1 X122.9685 Y113.6189 Z12.3000 E0.02133 F1080
G1 X123.1938 Y113.9495 Z12.3000 E0.02133 F1080
G1 X123.3990 Y114.2930 Z12.3000 E0.02133 F1080
G1 X123.5833 Y114.6481 Z12.3000 E0.02133 F1080
G1 X123.7462 Y115.0136 Z12.3000 E0.02133 F1080
G1 X123.8870 Y115.3880 Z12.3000 E0.02133 F1080
G1 X124.0053 Y115.7702 Z12.3000 E0.02133 F1080
G1 X124.1008 Y116.1588 Z12.3000 E0.02133 F1080
G1 X124.1729 Y116.5523 Z12.3000 E0.02133 F1080
G1 X124.2216 Y116.9494 Z12.3000 E0.02133 F1080
G1 X124.2467 Y117.3487 Z12.3000 E0.02133 F1080
G1 X124.2481 Y117.7488 Z12.3000 E0.02133 F1080
G1 X124.2257 Y118.1483 Z12.3000 E0.02133 F1080
G1 X124.1798 Y118.5457 Z12.3000 E0.02133 F1080
G1 X124.1104 Y118.9397 Z12.3000 E0.02133 F1080
G1 X124.0178 Y119.3290 Z12.3000 E0.02133 F1080
G1 X123.9025 Y119.7121 Z12.3000 E0.02133 F1080
G1 X123.7647 Y120.0877 Z12.3000 E0.02133 F1080
G1 X123.6049 Y120.4545 Z12.3000 E0.02133 F1080
G1 X123.4239 Y120.8113 Z12.3000 E0.02133 F1080
G1 X123.2221 Y121.1568 Z12.3000 E0.02133 F1080
G1 X123.0003 Y121.4897 Z12.3000 E0.02133 F1080
G1 X122.7593 Y121.8091 Z12.3000 E0.02133 F1080
G1 X122.4999 Y122.1137 Z12.3000 E0.02133 F1080
G1 X122.2231 Y122.4026 Z12.3000 E0.02133 F1080
G1 X121.9298 Y122.6747 Z12.3000 E0.02133 F1080
G1 X121.6210 Y122.9291 Z12.3000 E0.02133 F1080
G1 X121.2978 Y123.1649 Z12.3000 E0.02133 F1080
G1 X120.9614 Y123.3814 Z12.3000 E0.02133 F1080
G1 X120.6128 Y123.5778 Z12.3000 E0.02133 F1080
G1 X120.2533 Y123.7535 Z12.3000 E0.02133 F1080
G1 X119.8842 Y123.9078 Z12.3000 E0.02133 F1080
G1 X119.5067 Y124.0403 Z12.3000 E0.02133 F1080
G1 X119.1221 Y124.1504 Z12.3000 E0.02133 F1080
G1 X118.7317 Y124.2379 Z12.3000 E0.02133 F1080
G1 X118.3368 Y124.3025 Z12.3000 E0.02133 F1080
G1 X117.9389 Y124.3439 Z12.3000 E0.02133 F1080
G1 X117.5392 Y124.3620 Z12.3000 E0.02133 F1080
G1 X117.1391 Y124.3568 Z12.3000 E0.02133 F1080
G1 X116.7401 Y124.3283 Z12.3000 E0.02133 F1080
G1 X116.3433 Y124.2766 Z12.3000 E0.02133 F1080
G1 X115.9503 Y124.2019 Z12.3000 E0.02133 F1080
G1 X115.5622 Y124.1045 Z12.3000 E0.02133 F1080
G1 X115.1805 Y123.9848 Z12.3000 E0.02133 F1080
G1 X114.8064 Y123.8430 Z12.3000 E0.02133 F1080
G1 X114.4411 Y123.6798 Z12.3000 E0.02133 F1080
G1 X114.0859 Y123.4957 Z12.3000 E0.02133 F1080
G1 X113.7420 Y123.2912 Z12.3000 E0.02133 F1080
G1 X113.4105 Y123.0673 Z12.3000 E0.02133 F1080
G1 X113.0925 Y122.8244 Z12.3000 E0.02133 F1080
G1 X112.7891 Y122.5636 Z12.3000 E0.02133 F1080
G1 X112.5013 Y122.2857 Z12.3000 E0.02133 F1080
G1 X112.2300 Y121.9917 Z12.3000 E0.02133 F1080
G1 X111.9762 Y121.6824 Z12.3000 E0.02133 F1080
G1 X111.7406 Y121.3590 Z12.3000 E0.02133 F1080
G1 X111.5241 Y121.0226 Z12.3000 E0.02133 F1080
G1 X111.3273 Y120.6742 Z12.3000 E0.02133 F1080
G1 X111.1510 Y120.3151 Z12.3000 E0.02133 F1080
G1 X110.9956 Y119.9464 Z12.3000 E0.02133 F1080
G1 X110.8617 Y119.5694 Z12.3000 E0.02133 F1080
G1 X110.7497 Y119.1853 Z12.3000 E0.02133 F1080
G1 X110.6600 Y118.7954 Z12.3000 E0.02133 F1080
G1 X110.5928 Y118.4010 Z12.3000 E0.02133 F1080
G1 X110.5484 Y118.0034 Z12.3000 E0.02133 F1080
G1 X110.5268 Y117.6039 Z12.3000 E0.02133 F1080
G1 X110.5282 Y117.2038 Z12.3000 E0.02133 F1080
G1 X110.5526 Y116.8045 Z12.3000 E0.02133 F1080
G1 X110.5998 Y116.4072 Z12.3000 E0.02133 F1080
G1 X110.6696 Y116.0132 Z12.3000 E0.02133 F1080
G1 X110.7618 Y115.6239 Z12.3000 E0.02133 F1080
G1 X110.8762 Y115.2406 Z12.3000 E0.02133 F1080
G1 X111.0123 Y114.8643 Z12.3000 E0.02133 F1080
G1 X111.1697 Y114.4965 Z12.3000 E0.02133 F1080
G1 X111.3478 Y114.1382 Z12.3000 E0.02133 F1080
G1 X111.5460 Y113.7907 Z12.3000 E0.02133 F1080
G1 X111.7637 Y113.4551 Z12.3000 E0.02133 F1080
G1 X112.0002 Y113.1324 Z12.3000 E0.02133 F1080
G1 X112.2547 Y112.8237 Z12.3000 E0.02133 F1080
G1 X112.5264 Y112.5300 Z12.3000 E0.02133 F1080
G1 X112.8143 Y112.2522 Z12.3000 E0.02133 F1080
G1 X113.1176 Y111.9912 Z12.3000 E0.02133 F1080
G1 X113.4351 Y111.7479 Z12.3000 E0.02133 F1080
G1 X113.7660 Y111.5230 Z12.3000 E0.02133 F1080
G1 X114.1092 Y111.3172 Z12.3000 E0.02133 F1080
G1 X114.4634 Y111.1312 Z12.3000 E0.02133 F1080
G1 X114.8276 Y110.9657 Z12.3000 E0.02133 F1080
G1 X115.2006 Y110.8210 Z12.3000 E0.02133 F1080
G1 X115.5812 Y110.6976 Z12.3000 E0.02133 F1080
G1 X115.9682 Y110.5960 Z12.3000 E0.02133 F1080
G1 X116.3603 Y110.5165 Z12.3000 E0.02133 F1080
G1 X116.7562 Y110.4592 Z12.3000 E0.02133 F1080
G1 X117.1548 Y110.4244 Z12.3000 E0.02133 F1080
G1 X117.5547 Y110.4122 Z12.3000 E0.02133 F1080
G1 X117.9546 Y110.4225 Z12.3000 E0.02133 F1080
G1 X118.3534 Y110.4554 Z12.3000 E0.02133 F1080
G1 X118.7496 Y110.5107 Z12.3000 E0.02133 F1080
G1 X119.1421 Y110.5882 Z12.3000 E0.02133 F1080
G1 X119.5296 Y110.6877 Z12.3000 E0.02133 F1080
G1 X119.9109 Y110.8088 Z12.3000 E0.02133 F1080
G1 X120.2848 Y110.9512 Z12.3000 E0.02133 F1080
G1 X120.6501 Y111.1144 Z12.3000 E0.02133 F1080
G1 X121.0056 Y111.2978 Z12.3000 E0.02133 F1080
G1 X121.3503 Y111.5009 Z12.3000 E0.02133 F1080
G1 X121.6831 Y111.7231 Z12.3000 E0.02133 F1080
G1 X122.0028 Y111.9635 Z12.3000 E0.02133 F1080
G1 X122.3086 Y112.2215 Z12.3000 E0.02133 F1080
G1 X122.5995 Y112.4962 Z12.3000 E0.02133 F1080
G1 X122.8745 Y112.7868 Z12.3000 E0.02133 F1080
G1 X123.1329 Y113.0922 Z12.3000 E0.02133 F1080
G1 X123.3737 Y113.4117 Z12.3000 E0.02133 F1080
G1 X123.5963 Y113.7441 Z12.3000 E0.02133 F1080
G1 X123.8001 Y114.0884 Z12.3000 E0.02133 F1080
G1 X123.9842 Y114.4436 Z12.3000 E0.02133 F1080
G1 X124.1483 Y114.8085 Z12.3000 E0.02133 F1080
G1 X124.2918 Y115.1820 Z12.3000 E0.02133 F1080
G1 X124.4142 Y115.5629 Z12.3000 E0.02133 F1080
G1 X124.5152 Y115.9500 Z12.3000 E0.02133 F1080
G1 X124.5945 Y116.3421 Z12.3000 E0.02133 F1080
G1 X124.6519 Y116.7381 Z12.3000 E0.02133 F1080
G1 X124.6872 Y117.1366 Z12.3000 E0.02133 F1080
G1 X124.7003 Y117.5364 Z12.3000 E0.02133 F1080
G1 X124.6911 Y117.9364 Z12.3000 E0.02133 F1080
G1 X124.6598 Y118.3353 Z12.3000 E0.02133 F1080
G1 X124.6063 Y118.7318 Z12.3000 E0.02133 F1080
G1 X124.5310 Y119.1247 Z12.3000 E0.02133 F1080
G1 X124.4340 Y119.5128 Z12.3000 E0.02133 F1080
G1 X124.3156 Y119.8950 Z12.3000 E0.02133 F1080
G1 X124.1763 Y120.2700 Z12.3000 E0.02133 F1080
G1 X124.0165 Y120.6368 Z12.3000 E0.02133 F1080
G1 X123.8366 Y120.9941 Z12.3000 E0.02133 F1080
G1 X123.6372 Y121.3410 Z12.3000 E0.02133 F1080
G1 X123.4190 Y121.6763 Z12.3000 E0.02133 F1080
G1 X123.1825 Y121.9991 Z12.3000 E0.02133 F1080
G1 X122.9287 Y122.3083 Z12.3000 E0.02133 F1080
G1 X122.6582 Y122.6030 Z12.3000 E0.02133 F1080
G1 X122.3718 Y122.8824 Z12.3000 E0.02133 F1080
G1 X122.0705 Y123.1456 Z12.3000 E0.02133 F1080
G1 X121.7551 Y123.3918 Z12.3000 E0.02133 F1080
G1 X121.4267 Y123.6203 Z12.3000 E0.02133 F1080
G1 X121.0862 Y123.8303 Z12.3000 E0.02133 F1080
G1 X120.7347 Y124.0214 Z12.3000 E0.02133 F1080
G1 X120.3732 Y124.1928 Z12.3000 E0.02133 F1080
G1 X120.0028 Y124.3441 Z12.3000 E0.02133 F1080
G1 X119.6247 Y124.4749 Z12.3000 E0.02133 F1080
G1 X119.2400 Y124.5847 Z12.3000 E0.02133 F1080
G1 X118.8499 Y124.6733 Z12.3000 E0.02133 F1080
G1 X118.4554 Y124.7403 Z12.3000 E0.02133 F1080
G1 X118.0580 Y124.7857 Z12.3000 E0.02133 F1080
G1 X117.6586 Y124.8092 Z12.3000 E0.02133 F1080
G1 X117.2585 Y124.8109 Z12.3000 E0.02133 F1080
G1 X116.8589 Y124.7907 Z12.3000 E0.02133 F1080
G1 X116.4611 Y124.7486 Z12.3000 E0.02133 F1080
G1 X116.0661 Y124.6849 Z12.3000 E0.02133 F1080
G1 X115.6752 Y124.5998 Z12.3000 E0.02133 F1080
G1 X115.2895 Y124.4934 Z12.3000 E0.02133 F1080
G1 X114.9102 Y124.3662 Z12.3000 E0.02133 F1080
G1 X114.5384 Y124.2184 Z12.3000 E0.02133 F1080
G1 X114.1752 Y124.0507 Z12.3000 E0.02133 F1080
G1 X113.8217 Y123.8634 Z12.3000 E0.02133 F1080
G1 X113.4788 Y123.6572 Z12.3000 E0.02133 F1080
G1 X113.1477 Y123.4326 Z12.3000 E0.02133 F1080
G1 X112.8293 Y123.1903 Z12.3000 E0.02133 F1080
G1 X112.5246 Y122.9312 Z12.3000 E0.02133 F1080
G1 X112.2343 Y122.6558 Z12.3000 E0.02133 F1080
G1 X111.9595 Y122.3651 Z12.3000 E0.02133 F1080
G1 X111.7008 Y122.0599 Z12.3000 E0.02133 F1080
G1 X111.4590 Y121.7412 Z12.3000 E0.02133 F1080
G1 X111.2348 Y121.4098 Z12.3000 E0.02133 F1080
G1 X111.0290 Y121.0668 Z12.3000 E0.02133 F1080
G1 X110.8419 Y120.7131 Z12.3000 E0.02133 F1080
G1 X110.6744 Y120.3498 Z12.3000 E0.02133 F1080
G1 X110.5266 Y119.9780 Z12.3000 E0.02133 F1080
G1 X110.3992 Y119.5987 Z12.3000 E0.02133 F1080
G1 X110.2925 Y119.2132 Z12.3000 E0.02133 F1080
G1 X110.2068 Y118.8224 Z12.3000 E0.02133 F1080
G1 X110.1422 Y118.4276 Z12.3000 E0.02133 F1080
G1 X110.0991 Y118.0298 Z12.3000 E0.02133 F1080
G1 X110.0774 Y117.6303 Z12.3000 E0.02133 F1080
G1 X110.0773 Y117.2302 Z12.3000 E0.02133 F1080
G1 X110.0987 Y116.8307 Z12.3000 E0.02133 F1080
G1 X110.1416 Y116.4330 Z10.8502 E0.08019 F1080
G1 X110.2059 Y116.0381 Z12.3000 E0.08019 F1080
G1 X110.2913 Y115.6472 Z10.6700 E0.08949 F1080
G1 X110.3975 Y115.2615 Z12.3000 E0.08949 F1080
G1 X110.5243 Y114.8821 Z11.7762 E0.03514 F1080
G1 X110.6714 Y114.5100 Z11.1795 E0.03831 F1080
G1 X110.8381 Y114.1463 Z12.3000 E0.06344 F1080
G1 X111.0241 Y113.7922 Z8.8745 E0.18389 F1080
G1 X111.2289 Y113.4484 Z10.2020 E0.07393 F1080
G1 X111.4517 Y113.1162 Z6.4456 E0.20142 F1080
G1 X111.6920 Y112.7963 Z6.3212 E0.02234 F1080
G1 X111.9491 Y112.4898 Z10.6549 E0.23205 F1080
G1 X112.2223 Y112.1975 Z7.0332 E0.19428 F1080
G1 X112.5106 Y111.9201 Z7.9265 E0.05219 F1080
G1 X112.8134 Y111.6586 Z4.2243 E0.19855 F1080
G1 X113.1297 Y111.4136 Z5.0099 E0.04701 F1080
G1 X113.4586 Y111.1859 Z8.0749 E0.16481 F1080
G1 X113.7992 Y110.9760 Z4.8850 E0.17142 F1080
G1 X114.1505 Y110.7846 Z5.2101 E0.02749 F1080
G1 X114.5115 Y110.6122 Z1.7616 E0.18511 F1080
G1 X114.8812 Y110.4593 Z1.4135 E0.02827 F1080
G1 X115.2585 Y110.3262 Z4.2335 E0.15187 F1080
G1 X115.6424 Y110.2134 Z0.3000 E0.21082 F1080
G1 X116.0317 Y110.1212 Z7.6020 E0.38993 F1080
G1 X116.4253 Y110.0499 Z0.3000 E0.38993 F1080
G1 X116.8222 Y109.9995 Z0.3000 E0.02133 F1080
G1 X117.2212 Y109.9703 Z0.3000 E0.02133 F1080
G1 X117.6212 Y109.9623 Z0.3000 E0.02133 F1080
G1 X118.0211 Y109.9756 Z0.3000 E0.02133 F1080
G1 X118.4197 Y110.0100 Z1.8918 E0.08751 F1080
G1 X118.8159 Y110.0655 Z0.3000 E0.08751 F1080
G1 X119.2086 Y110.1419 Z0.3000 E0.02133 F1080
G1 X119.5967 Y110.2390 Z1.7042 E0.07785 F1080
G1 X119.9791 Y110.3565 Z0.3000 E0.07785 F1080
G1 X120.3548 Y110.4941 Z0.3000 E0.02133 F1080
G1 X120.7227 Y110.6513 Z0.3000 E0.02133 F1080
G1 X121.0817 Y110.8278 Z0.3000 E0.02133 F1080
G1 X121.4309 Y111.0230 Z0.3000 E0.02133 F1080
G1 X121.7694 Y111.2363 Z0.3000 E0.02133 F1080
G1 X122.0961 Y111.4672 Z0.3000 E0.02133 F1080
G1 X122.4102 Y111.7150 Z0.3000 E0.02133 F1080
G1 X122.7108 Y111.9790 Z0.3000 E0.02133 F1080
G1 X122.9970 Y112.2585 Z0.3000 E0.02133 F1080
G1 X123.2682 Y112.5527 Z0.3000 E0.02133 F1080
G1 X123.5235 Y112.8607 Z0.3000 E0.02133 F1080
G1 X123.7622 Y113.1817 Z0.3000 E0.02133 F1080
G1 X123.9837 Y113.5149 Z0.3000 E0.02133 F1080
G1 X124.1874 Y113.8592 Z0.3000 E0.02133 F1080
G1 X124.3728 Y114.2137 Z0.3000 E0.02133 F1080
G1 X124.5393 Y114.5775 Z0.3000 E0.02133 F1080
G1 X124.6864 Y114.9496 Z0.3000 E0.02133 F1080
G1 X124.8139 Y115.3288 Z0.3000 E0.02133 F1080
G1 X124.9212 Y115.7142 Z0.3000 E0.02133 F1080
G1 X125.0083 Y116.1047 Z0.3000 E0.02133 F1080
G1 X125.0748 Y116.4992 Z0.3000 E0.02133 F1080
G1 X125.1205 Y116.8966 Z0.3000 E0.02133 F1080
G1 X125.1454 Y117.2959 Z0.3000 E0.02133 F1080
G1 X125.1493 Y117.6960 Z0.3000 E0.02133 F1080
G1 X125.1324 Y118.0957 Z0.3000 E0.02133 F1080
G1 X125.0946 Y118.4939 Z0.3000 E0.02133 F1080
G1 X125.0360 Y118.8897 Z0.3000 E0.02133 F1080
G1 X124.9569 Y119.2819 Z0.3000 E0.02133 F1080
G1 X124.8574 Y119.6694 Z0.3000 E0.02133 F1080
G1 X124.7378 Y120.0512 Z0.3000 E0.02133 F1080
G1 X124.5985 Y120.4262 Z0.3000 E0.02133 F1080
G1 X124.4399 Y120.7935 Z0.3000 E0.02133 F1080
G1 X124.2623 Y121.1520 Z0.3000 E0.02133 F1080
G1 X124.0664 Y121.5008 Z0.3000 E0.02133 F1080
G1 X123.8525 Y121.8389 Z0.3000 E0.02133 F1080
G1 X123.6214 Y122.1655 Z0.3000 E0.02133 F1080
G1 X123.3736 Y122.4796 Z0.3000 E0.02133 F1080
G1 X123.1099 Y122.7804 Z0.3000 E0.02133 F1080
G1 X122.8308 Y123.0671 Z0.3000 E0.02133 F1080
G1 X122.5373 Y123.3389 Z0.3000 E0.02133 F1080
G1 X122.2301 Y123.5952 Z0.3000 E0.02133 F1080
G1 X121.9100 Y123.8351 Z0.3000 E0.02133 F1080
G1 X121.5779 Y124.0582 Z0.3000 E0.02133 F1080
G1 X121.2347 Y124.2638 Z0.3000 E0.02133 F1080
G1 X120.8813 Y124.4513 Z0.3000 E0.02133 F1080
G1 X120.5187 Y124.6203 Z0.3000 E0.02133 F1080
G1 X120.1478 Y124.7703 Z0.3000 E0.02133 F1080
G1 X119.7697 Y124.9010 Z0.3000 E0.02133 F1080
G1 X119.3853 Y125.0119 Z0.3000 E0.02133 F1080
G1 X118.9957 Y125.1029 Z0.3000 E0.02133 F1080
G1 X118.6019 Y125.1736 Z0.3000 E0.02133 F1080
G1 X118.2050 Y125.2239 Z0.3000 E0.02133 F1080
G1 X117.8061 Y125.2536 Z0.3000 E0.02133 F1080
G1 X117.4061 Y125.2628 Z0.3000 E0.02133 F1080
G1 X117.0062 Y125.2513 Z0.3000 E0.02133 F1080
G1 X116.6074 Y125.2193 Z0.3000 E0.02133 F1080
G1 X116.2108 Y125.1668 Z0.3000 E0.02133 F1080
G1 X115.8174 Y125.0939 Z0.3000 E0.02133 F1080
G1 X115.4283 Y125.0010 Z0.3000 E0.02133 F1080
G1 X115.0445 Y124.8881 Z0.3000 E0.02133 F1080
G1 X114.6670 Y124.7557 Z0.3000 E0.02133 F1080
G1 X114.2968 Y124.6041 Z0.3000 E0.02133 F1080
G1 X113.9348 Y124.4336 Z0.3000 E0.02133 F1080
G1 X113.5821 Y124.2448 Z0.3000 E0.02133 F1080
G1 X113.2395 Y124.0382 Z0.3000 E0.02133 F1080
G1 X112.9080 Y123.8143 Z0.3000 E0.02133 F1080
G1 X112.5883 Y123.5737 Z0.3000 E0.02133 F1080
G1 X112.2814 Y123.3171 Z0.3000 E0.02133 F1080
G1 X111.9880 Y123.0451 Z0.3000 E0.02133 F1080
G1 X111.7090 Y122.7584 Z0.3000 E0.02133 F1080
G1 X111.4449 Y122.4579 Z0.3000 E0.02133 F1080
G1 X111.1966 Y122.1442 Z0.3000 E0.02133 F1080
G1 X110.9646 Y121.8183 Z0.3000 E0.02133 F1080
G1 X110.7496 Y121.4809 Z0.3000 E0.02133 F1080
G1 X110.5520 Y121.1330 Z0.3000 E0.02133 F1080
G1 X110.3725 Y120.7755 Z0.3000 E0.02133 F1080
G1 X110.2114 Y120.4093 Z0.3000 E0.02133 F1080
G1 X110.0692 Y120.0354 Z0.3000 E0.02133 F1080
G1 X109.9462 Y119.6547 Z0.3000 E0.02133 F1080
G1 X109.8428 Y119.2682 Z0.3000 E0.02133 F1080
G1 X109.7591 Y118.8770 Z0.3000 E0.02133 F1080
G1 X109.6955 Y118.4820 Z0.3000 E0.02133 F1080
G1 X109.6520 Y118.0843 Z0.3000 E0.02133 F1080
G1 X109.6289 Y117.6849 Z0.3000 E0.02133 F1080
G1 X109.6260 Y117.2849 Z0.3000 E0.02133 F1080
G1 X109.6434 Y116.8852 Z0.3000 E0.02133 F1080
G1 X109.6811 Y116.4869 Z0.3000 E0.02133 F1080
G1 X109.7390 Y116.0910 Z0.3000 E0.02133 F1080
G1 X109.8169 Y115.6986 Z0.3000 E0.02133 F1080
G1 X109.9145 Y115.3106 Z0.3000 E0.02133 F1080
G1 X110.0317 Y114.9281 Z0.3000 E0.02133 F1080
G1 X110.1681 Y114.5520 Z0.3000 E0.02133 F1080
G1 X110.3233 Y114.1833 Z0.3000 E0.02133 F1080
G1 X110.4970 Y113.8229 Z0.3000 E0.02133 F1080
G1 X110.6888 Y113.4718 Z0.3000 E0.02133 F1080
G1 X110.8980 Y113.1308 Z0.3000 E0.02133 F1080
G1 X111.1241 Y112.8008 Z0.3000 E0.02133 F1080
G1 X111.3667 Y112.4826 Z0.3000 E0.02133 F1080
G1 X111.6250 Y112.1771 Z0.3000 E0.02133 F1080
G1 X111.8984 Y111.8850 Z0.3000 E0.02133 F1080
G1 X112.1861 Y111.6071 Z0.3000 E0.02133 F1080
G1 X112.4875 Y111.3440 Z0.3000 E0.02133 F1080
G1 X112.8018 Y111.0965 Z0.3000 E0.02133 F1080
G1 X113.1282 Y110.8651 Z0.3000 E0.02133 F1080
G1 X113.4657 Y110.6504 Z0.3000 E0.02133 F1080
G1 X113.8137 Y110.4529 Z0.3000 E0.02133 F1080
G1 X114.1711 Y110.2733 Z0.3000 E0.02133 F1080
G1 X114.5371 Y110.1118 Z0.3000 E0.02133 F1080
G1 X114.9108 Y109.9689 Z0.3000 E0.02133 F1080
G1 X115.2912 Y109.8449 Z0.3000 E0.02133 F1080
G1 X115.6773 Y109.7402 Z0.3000 E0.02133 F1080
G1 X116.0682 Y109.6550 Z0.3000 E0.02133 F1080
G1 X116.4629 Y109.5895 Z0.3000 E0.02133 F1080
G1 X116.8603 Y109.5439 Z0.3000 E0.02133 F1080
G1 X117.2596 Y109.5183 Z0.3000 E0.02133 F1080
G1 X117.6596 Y109.5127 Z0.3000 E0.02133 F1080
G1 X118.0594 Y109.5271 Z0.3000 E0.02133 F1080
G1 X118.4580 Y109.5615 Z0.3000 E0.02133 F1080
G1 X118.8543 Y109.6158 Z0.3000 E0.02133 F1080
G1 X119.2475 Y109.6898 Z0.3000 E0.02133 F1080
G1 X119.6365 Y109.7835 Z0.3000 E0.02133 F1080
G1 X120.0202 Y109.8964 Z0.3000 E0.02133 F1080
G1 X120.3979 Y110.0283 Z0.3000 E0.02133 F1080
G1 X120.7686 Y110.1789 Z0.3000 E0.02133 F1080
G1 X121.1312 Y110.3479 Z0.3000 E0.02133 F1080
G1 X121.4850 Y110.5347 Z0.3000 E0.02133 F1080
G1 X121.8290 Y110.7389 Z0.3000 E0.02133 F1080
G1 X122.1624 Y110.9599 Z0.3000 E0.02133 F1080
G1 X122.4844 Y111.1973 Z0.3000 E0.02133 F1080
G1 X122.7942 Y111.4505 Z0.3000 E0.02133 F1080
G1 X123.0910 Y111.7187 Z0.3000 E0.02133 F1080
G1 X123.3741 Y112.0014 Z0.3000 E0.02133 F1080
G1 X123.6428 Y112.2978 Z0.3000 E0.02133 F1080
G1 X123.8965 Y112.6072 Z0.3000 E0.02133 F1080
G1 X124.1344 Y112.9288 Z0.3000 E0.02133 F1080
G1 X124.3561 Y113.2618 Z0.3000 E0.02133 F1080
G1 X124.5611 Y113.6054 Z0.3000 E0.02133 F1080
G1 X124.7487 Y113.9587 Z0.3000 E0.02133 F1080
G1 X124.9185 Y114.3209 Z0.3000 E0.02133 F1080
G1 X125.0702 Y114.6911 Z0.3000 E0.02133 F1080
G1 X125.2034 Y115.0684 Z0.3000 E0.02133 F1080
G1 X125.3178 Y115.4517 Z0.3000 E0.02133 F1080
G1 X125.4130 Y115.8403 Z0.3000 E0.02133 F1080
G1 X125.4889 Y116.2331 Z0.3000 E0.02133 F1080
G1 X125.5453 Y116.6292 Z0.3000 E0.02133 F1080
G1 X125.5820 Y117.0275 Z0.3000 E0.02133 F1080
G1 X125.5990 Y117.4272 Z0.3000 E0.02133 F1080
G1 X125.5963 Y117.8273 Z0.3000 E0.02133 F1080
G1 X125.5738 Y118.2267 Z0.3000 E0.02133 F1080
G1 X125.5316 Y118.6246 Z0.3000 E0.02133 F1080
G1 X125.4699 Y119.0198 Z0.3000 E0.02133 F1080
G1 X125.3887 Y119.4116 Z0.3000 E0.02133 F1080
G1 X125.2884 Y119.7988 Z0.3000 E0.02133 F1080
G1 X125.1691 Y120.1807 Z0.3000 E0.02133 F1080
G1 X125.0311 Y120.5562 Z0.3000 E0.02133 F1080
G1 X124.8748 Y120.9245 Z0.3000 E0.02133 F1080
G1 X124.7006 Y121.2847 Z0.3000 E0.02133 F1080
G1 X124.5089 Y121.6358 Z0.3000 E0.02133 F1080
G1 X124.3002 Y121.9771 Z0.3000 E0.02133 F1080
G1 X124.0750 Y122.3077 Z0.3000 E0.02133 F1080
G1 X123.8338 Y122.6269 Z0.3000 E0.02133 F1080
G1 X123.5772 Y122.9339 Z0.3000 E0.02133 F1080
G1 X123.3059 Y123.2278 Z0.3000 E0.02133 F1080
G1 X123.0205 Y123.5082 Z0.3000 E0.02133 F1080
G1 X122.7217 Y123.7742 Z0.3000 E0.02133 F1080
G1 X122.4102 Y124.0252 Z0.3000 E0.02133 F1080
G1 X122.0868 Y124.2607 Z0.3000 E0.02133 F1080
G1 X121.7522 Y124.4801 Z0.3000 E0.02133 F1080
G1 X121.4073 Y124.6828 Z0.3000 E0.02133 F1080
G1 X121.0529 Y124.8685 Z0.3000 E0.02133 F1080
G1 X120.6899 Y125.0365 Z0.3000 E0.02133 F1080
G1 X120.3191 Y125.1867 Z0.3000 E0.02133 F1080
G1 X119.9414 Y125.3185 Z0.3000 E0.02133 F1080
G1 X119.5577 Y125.4318 Z0.3000 E0.02133 F1080
G1 X119.1689 Y125.5261 Z0.3000 E0.02133 F1080
G1 X118.7760 Y125.6014 Z0.3000 E0.02133 F1080
G1 X118.3799 Y125.6575 Z0.3000 E0.02133 F1080
G1 X117.9815 Y125.6942 Z0.3000 E0.02133 F1080
G1 X117.5818 Y125.7114 Z0.3000 E0.02133 F1080
G1 X117.1817 Y125.7091 Z0.3000 E0.02133 F1080
G1 X116.7823 Y125.6874 Z0.3000 E0.02133 F1080
G1 X116.3843 Y125.6462 Z0.3000 E0.02133 F1080
G1 X115.9889 Y125.5857 Z0.3000 E0.02133 F1080
G1 X115.5968 Y125.5061 Z0.3000 E0.02133 F1080
G1 X115.2091 Y125.4075 Z0.3000 E0.02133 F1080
G1 X114.8266 Y125.2902 Z0.3000 E0.02133 F1080
G1 X114.4503 Y125.1545 Z0.3000 E0.02133 F1080
G1 X114.0810 Y125.0006 Z0.3000 E0.02133 F1080
G1 X113.7196 Y124.8291 Z0.3000 E0.02133 F1080
G1 X113.3669 Y124.6401 Z0.3000 E0.02133 F1080
G1 X113.0239 Y124.4344 Z0.3000 E0.02133 F1080
G1 X112.6912 Y124.2122 Z0.3000 E0.02133 F1080
G1 X112.3696 Y123.9742 Z0.3000 E0.02133 F1080
G1 X112.0600 Y123.7209 Z0.3000 E0.02133 F1080
G1 X111.7629 Y123.4529 Z0.3000 E0.02133 F1080
G1 X111.4792 Y123.1708 Z0.3000 E0.02133 F1080
G1 X111.2095 Y122.8754 Z0.3000 E0.02133 F1080
G1 X110.9544 Y122.5672 Z0.3000 E0.02133 F1080
G1 X110.7144 Y122.2471 Z0.3000 E0.02133 F1080
G1 X110.4902 Y121.9158 Z0.3000 E0.02133 F1080
G1 X110.2822 Y121.5740 Z0.3000 E0.02133 F1080
G1 X110.0910 Y121.2226 Z0.3000 E0.02133 F1080
G1 X109.9169 Y120.8624 Z0.3000 E0.02133 F1080
G1 X109.7605 Y120.4942 Z0.3000 E0.02133 F1080
G1 X109.6219 Y120.1189 Z0.3000 E0.02133 F1080
G1 X109.5016 Y119.7374 Z0.3000 E0.02133 F1080
G1 X109.3998 Y119.3505 Z0.3000 E0.02133 F1080
G1 X109.3167 Y118.9592 Z0.3000 E0.02133 F1080
G1 X109.2526 Y118.5643 Z0.3000 E0.02133 F1080
G1 X109.2075 Y118.1668 Z0.3000 E0.02133 F1080
G1 X109.1816 Y117.7676 Z0.3000 E0.02133 F1080
G1 X109.1749 Y117.3676 Z0.3000 E0.02133 F1080
G1 X109.1874 Y116.9677 Z0.3000 E0.02133 F1080
G1 X109.2192 Y116.5689 Z0.3000 E0.02133 F1080
G1 X109.2700 Y116.1721 Z0.3000 E0.02133 F1080
G1 X109.3398 Y115.7782 Z0.3000 E0.02133 F1080
G1 X109.4284 Y115.3880 Z0.3000 E0.02133 F1080
G1 X109.5356 Y115.0026 Z0.3000 E0.02133 F1080
G1 X109.6612 Y114.6228 Z0.3000 E0.02133 F1080
G1 X109.8048 Y114.2494 Z0.3000 E0.02133 F1080
G1 X109.9661 Y113.8833 Z0.3000 E0.02133 F1080
G1 X110.1448 Y113.5253 Z0.3000 E0.02133 F1080
G1 X110.3403 Y113.1763 Z0.3000 E0.02133 F1080
G1 X110.5524 Y112.8371 Z0.3000 E0.02133 F1080
G1 X110.7804 Y112.5084 Z0.3000 E0.02133 F1080
G1 X111.0238 Y112.1909 Z0.3000 E0.02133 F1080
G1 X111.2822 Y111.8855 Z0.3000 E0.02133 F1080
G1 X111.5548 Y111.5927 Z0.3000 E0.02133 F1080
G1 X111.8411 Y111.3133 Z0.3000 E0.02133 F1080
G1 X112.1404 Y111.0478 Z0.3000 E0.02133 F1080
G1 X112.4520 Y110.7969 Z0.3000 E0.02133 F1080
G1 X112.7752 Y110.5612 Z0.3000 E0.02133 F1080
G1 X113.1093 Y110.3411 Z0.3000 E0.02133 F1080
G1 X113.4535 Y110.1372 Z0.3000 E0.02133 F1080
G1 X113.8070 Y109.9499 Z0.3000 E0.02133 F1080
G1 X114.1690 Y109.7796 Z0.3000 E0.02133 F1080
G1 X114.5387 Y109.6267 Z0.3000 E0.02133 F1080
G1 X114.9153 Y109.4916 Z0.3000 E0.02133 F1080
G1 X115.2978 Y109.3746 Z0.3000 E0.02133 F1080
G1 X115.6855 Y109.2758 Z0.3000 E0.02133 F1080
G1 X116.0774 Y109.1956 Z0.3000 E0.02133 F1080
G1 X116.4727 Y109.1341 Z0.3000 E0.02133 F1080
G1 X116.8705 Y109.0914 Z0.3000 E0.02133 F1080
G1 X117.2699 Y109.0676 Z0.3000 E0.02133 F1080
G1 X117.6699 Y109.0628 Z0.3000 E0.02133 F1080
G1 X118.0697 Y109.0769 Z0.3000 E0.02133 F1080
G1 X118.4684 Y109.1100 Z0.3000 E0.02133 F1080
G1 X118.8651 Y109.1619 Z0.3000 E0.02133 F1080
G1 X119.2588 Y109.2325 Z0.3000 E0.02133 F1080
G1 X119.6488 Y109.3217 Z0.3000 E0.02133 F1080
G1 X120.0342 Y109.4292 Z0.3000 E0.02133 F1080
G1 X120.4140 Y109.5548 Z0.3000 E0.02133 F1080
G1 X120.7874 Y109.6983 Z0.3000 E0.02133 F1080
G1 X121.1537 Y109.8592 Z0.3000 E0.02133 F1080
G1 X121.5120 Y110.0372 Z0.3000 E0.02133 F1080
G1 X121.8614 Y110.2320 Z0.3000 E0.02133 F1080
G1 X122.2013 Y110.4430 Z0.3000 E0.02133 F1080
G1 X122.5308 Y110.6698 Z0.3000 E0.02133 F1080
G1 X122.8493 Y110.9119 Z0.3000 E0.02133 F1080
G1 X123.1560 Y111.1688 Z0.3000 E0.02133 F1080
G1 X123.4503 Y111.4398 Z0.3000 E0.02133 F1080
G1 X123.7315 Y111.7243 Z0.3000 E0.02133 F1080
G1 X123.9990 Y112.0218 Z0.3000 E0.02133 F1080
G1 X124.2522 Y112.3316 Z0.3000 E0.02133 F1080
G1 X124.4905 Y112.6529 Z0.3000 E0.02133 F1080
G1 X124.7135 Y112.9850 Z0.3000 E0.02133 F1080
G1 X124.9206 Y113.3273 Z0.3000 E0.02133 F1080
G1 X125.1114 Y113.6789 Z0.3000 E0.02133 F1080
G1 X125.2855 Y114.0391 Z0.3000 E0.02133 F1080
G1 X125.4424 Y114.4071 Z0.3000 E0.02133 F1080
G1 X125.5820 Y114.7821 Z0.3000 E0.02133 F1080
G1 X125.7038 Y115.1631 Z0.3000 E0.02133 F1080
G1 X125.8076 Y115.5495 Z0.3000 E0.02133 F1080
G1 X125.8931 Y115.9403 Z0.3000 E0.02133 F1080
G1 X125.9603 Y116.3346 Z0.3000 E0.02133 F1080
G1 X126.0089 Y116.7317 Z0.3000 E0.02133 F1080
G1 X126.0389 Y117.1307 Z0.3000 E0.02133 F1080
G1 X126.0502 Y117.5306 Z0.3000 E0.02133 F1080
G1 X126.0428 Y117.9306 Z0.3000 E0.02133 F1080
G1 X126.0166 Y118.3298 Z0.3000 E0.02133 F1080
G1 X125.9719 Y118.7273 Z0.3000 E0.02133 F1080
G1 X125.9086 Y119.1223 Z0.3000 E0.02133 F1080
G1 X125.8269 Y119.5139 Z0.3000 E0.02133 F1080
G1 X125.7270 Y119.9013 Z0.3000 E0.02133 F1080
G1 X125.6092 Y120.2836 Z0.3000 E0.02133 F1080
G1 X125.4737 Y120.6600 Z0.3000 E0.02133 F1080
G1 X125.3207 Y121.0297 Z0.3000 E0.02133 F1080
G1 X125.1507 Y121.3918 Z0.3000 E0.02133 F1080
G1 X124.9640 Y121.7457 Z0.3000 E0.02133 F1080
G1 X124.7610 Y122.0904 Z0.3000 E0.02133 F1080
G1 X124.5422 Y122.4253 Z0.3000 E0.02133 F1080
G1 X124.3081 Y122.7497 Z0.3000 E0.02133 F1080
G1 X124.0591 Y123.0628 Z0.3000 E0.02133 F1080
G1 X123.7958 Y123.3640 Z0.3000 E0.02133 F1080
G1 X123.5188 Y123.6527 Z0.3000 E0.02133 F1080
G1 X123.2287 Y123.9281 Z0.3000 E0.02133 F1080
G1 X122.9261 Y124.1898 Z0.3000 E0.02133 F1080
G1 X122.6117 Y124.4371 Z0.3000 E0.02133 F1080
G1 X122.2861 Y124.6696 Z0.3000 E0.02133 F1080
G1 X121.9501 Y124.8868 Z0.3000 E0.02133 F1080
G1 X121.6044 Y125.0881 Z0.3000 E0.02133 F1080
G1 X121.2497 Y125.2732 Z0.3000 E0.02133 F1080
G1 X120.8868 Y125.4416 Z0.3000 E0.02133 F1080
G1 X120.5166 Y125.5930 Z0.3000 E0.02133 F1080
G1 X120.1397 Y125.7272 Z0.3000 E0.02133 F1080
G1 X119.7570 Y125.8437 Z0.3000 E0.02133 F1080
G1 X119.3693 Y125.9424 Z0.3000 E0.02133 F1080
G1 X118.9774 Y126.0231 Z0.3000 E0.02133 F1080
G1 X118.5823 Y126.0856 Z0.3000 E0.02133 F1080
G1 X118.1847 Y126.1297 Z0.3000 E0.02133 F1080
G1 X117.7855 Y126.1554 Z0.3000 E0.02133 F1080
G1 X117.3855 Y126.1627 Z0.3000 E0.02133 F1080
G1 X116.9856 Y126.1515 Z0.3000 E0.02133 F1080
G1 X116.5866 Y126.1218 Z0.3000 E0.02133 F1080
G1 X116.1895 Y126.0738 Z0.3000 E0.02133 F1080
G1 X115.7949 Y126.0075 Z0.3000 E0.02133 F1080
G1 X115.4039 Y125.9231 Z0.3000 E0.02133 F1080
G1 X115.0171 Y125.8207 Z0.3000 E0.02133 F1080
G1 X114.6355 Y125.7007 Z0.3000 E0.02133 F1080
G1 X114.2598 Y125.5632 Z0.3000 E0.02133 F1080
G1 X113.8909 Y125.4086 Z0.3000 E0.02133 F1080
G1 X113.5294 Y125.2371 Z0.3000 E0.02133 F1080
G1 X113.1762 Y125.0492 Z0.3000 E0.02133 F1080
G1 X112.8321 Y124.8453 Z0.3000 E0.02133 F1080
G1 X112.4976 Y124.6258 Z0.3000 E0.02133 F1080
G1 X112.1736 Y124.3911 Z0.3000 E0.02133 F1080
G1 X111.8607 Y124.1418 Z0.3000 E0.02133 F1080
G1 X111.5596 Y123.8784 Z0.3000 E0.02133 F1080
G1 X111.2709 Y123.6015 Z0.3000 E0.02133 F1080
G1 X110.9952 Y123.3116 Z0.3000 E0.02133 F1080
G1 X110.7331 Y123.0094 Z0.3000 E0.02133 F1080
G1 X110.4851 Y122.6955 Z0.3000 E0.02133 F1080
G1 X110.2518 Y122.3705 Z0.3000 E0.02133 F1080
G1 X110.0336 Y122.0352 Z0.3000 E0.02133 F1080
G1 X109.8309 Y121.6903 Z0.3000 E0.02133 F1080
G1 X109.6443 Y121.3364 Z0.3000 E0.02133 F1080
G1 X109.4740 Y120.9744 Z0.3000 E0.02133 F1080
G1 X109.3205 Y120.6050 Z0.3000 E0.02133 F1080
G1 X109.1840 Y120.2289 Z0.3000 E0.02133 F1080
G1 X109.0649 Y119.8470 Z0.3000 E0.02133 F1080
G1 X108.9633 Y119.4601 Z0.3000 E0.02133 F1080
G1 X108.8795 Y119.0689 Z0.3000 E0.02133 F1080
G1 X108.8136 Y118.6743 Z0.3000 E0.02133 F1080
G1 X108.7659 Y118.2771 Z0.3000 E0.02133 F1080
G1 X108.7362 Y117.8782 Z0.3000 E0.02133 F1080
G1 X108.7248 Y117.4783 Z0.3000 E0.02133 F1080
G1 X108.7317 Y117.0783 Z0.3000 E0.02133 F1080
G1 X108.7568 Y116.6790 Z0.3000 E0.02133 F1080
G1 X108.8000 Y116.2813 Z0.3000 E0.02133 F1080
G1 X108.8613 Y115.8860 Z0.3000 E0.02133 F1080
G1 X108.9405 Y115.4938 Z0.3000 E0.02133 F1080
G1 X109.0374 Y115.1057 Z0.3000 E0.02133 F1080
G1 X109.1520 Y114.7224 Z0.3000 E0.02133 F1080
G1 X109.2838 Y114.3447 Z0.3000 E0.02133 F1080
G1 X109.4326 Y113.9734 Z0.3000 E0.02133 F1080
G1 X109.5982 Y113.6092 Z0.3000 E0.02133 F1080
G1 X109.7801 Y113.2529 Z0.3000 E0.02133 F1080
G1 X109.9781 Y112.9052 Z0.3000 E0.02133 F1080
G1 X110.1916 Y112.5669 Z0.3000 E0.02133 F1080
G1 X110.4202 Y112.2386 Z0.3000 E0.02133 F1080
G1 X110.6634 Y111.9210 Z0.3000 E0.02133 F1080
G1 X110.9209 Y111.6148 Z0.3000 E0.02133 F1080
G1 X111.1919 Y111.3206 Z0.3000 E0.02133 F1080
G1 X111.4760 Y111.0389 Z0.3000 E0.02133 F1080
G1 X111.7725 Y110.7703 Z0.3000 E0.02133 F1080
G1 X112.0809 Y110.5155 Z0.3000 E0.02133 F1080
G1 X112.4005 Y110.2749 Z0.3000 E0.02133 F1080
G1 X112.7306 Y110.0490 Z0.3000 E0.02133 F1080
G1 X113.0707 Y109.8382 Z0.3000 E0.02133 F1080
G1 X113.4199 Y109.6430 Z0.3000 E0.02133 F1080
G1 X113.7776 Y109.4638 Z0.3000 E0.02133 F1080
G1 X114.1430 Y109.3010 Z0.3000 E0.02133 F1080
G1 X114.5153 Y109.1548 Z0.3000 E0.02133 F1080
G1 X114.8939 Y109.0255 Z0.3000 E0.02133 F1080
G1 X115.2780 Y108.9135 Z0.3000 E0.02133 F1080
G1 X115.6667 Y108.8189 Z0.3000 E0.02133 F1080
G1 X116.0593 Y108.7419 Z0.3000 E0.02133 F1080
G1 X116.4549 Y108.6827 Z0.3000 E0.02133 F1080
G1 X116.8528 Y108.6413 Z0.3000 E0.02133 F1080
G1 X117.2522 Y108.6180 Z0.3000 E0.02133 F1080
G1 X117.6522 Y108.6126 Z0.3000 E0.02133 F1080
G1 X118.0520 Y108.6252 Z0.3000 E0.02133 F1080
G1 X118.4509 Y108.6558 Z0.3000 E0.02133 F1080
G1 X118.8480 Y108.7043 Z0.3000 E0.02133 F1080
G1 X119.2425 Y108.7706 Z0.3000 E0.02133 F1080
G1 X119.6337 Y108.8546 Z0.3000 E0.02133 F1080
G1 X120.0207 Y108.9560 Z0.3000 E0.02133 F1080
G1 X120.4027 Y109.0747 Z0.3000 E0.02133 F1080
G1 X120.7790 Y109.2105 Z0.3000 E0.02133 F1080
G1 X121.1489 Y109.3630 Z0.3000 E0.02133 F1080
G1 X121.5115 Y109.5319 Z0.3000 E0.02133 F1080
G1 X121.8662 Y109.7169 Z0.3000 E0.02133 F1080
G1 X122.2122 Y109.9177 Z0.3000 E0.02133 F1080
G1 X122.5489 Y110.1337 Z0.3000 E0.02133 F1080
G1 X122.8756 Y110.3646 Z0.3000 E0.02133 F1080
G1 X123.1917 Y110.6099 Z0.3000 E0.02133 F1080
G1 X123.4964 Y110.8690 Z0.3000 E0.02133 F1080
G1 X123.7892 Y111.1416 Z0.3000 E0.02133 F1080
G1 X124.0696 Y111.4270 Z0.3000 E0.02133 F1080
G1 X124.3369 Y111.7246 Z0.3000 E0.02133 F1080
G1 X124.5907 Y112.0339 Z0.3000 E0.02133 F1080
G1 X124.8303 Y112.3542 Z0.3000 E0.02133 F1080
G1 X125.0555 Y112.6849 Z0.3000 E0.02133 F1080
G1 X125.2656 Y113.0253 Z0.3000 E0.02133 F1080
G1 X125.4604 Y113.3748 Z0.3000 E0.02133 F1080
G1 X125.6393 Y113.7325 Z0.3000 E0.02133 F1080
G1 X125.8021 Y114.0980 Z0.3000 E0.02133 F1080
G1 X125.9485 Y114.4703 Z0.3000 E0.02133 F1080
G1 X126.0782 Y114.8487 Z0.3000 E0.02133 F1080
G1 X126.1908 Y115.2326 Z0.3000 E0.02133 F1080
G1 X126.2863 Y115.6211 Z0.3000 E0.02133 F1080
G1 X126.3643 Y116.0135 Z0.3000 E0.02133 F1080
G1 X126.4248 Y116.4089 Z0.3000 E0.02133 F1080
G1 X126.4677 Y116.8066 Z0.3000 E0.02133 F1080
G1 X126.4929 Y117.2059 Z0.3000 E0.02133 F1080
G1 X126.5002 Y117.6059 Z0.3000 E0.02133 F1080
G1 X126.4898 Y118.0058 Z0.3000 E0.02133 F1080
G1 X126.4616 Y118.4049 Z0.3000 E0.02133 F1080
G1 X126.4158 Y118.8023 Z0.3000 E0.02133 F1080
G1 X126.3523 Y119.1973 Z0.3000 E0.02133 F1080
G1 X126.2714 Y119.5890 Z0.3000 E0.02133 F1080
G1 X126.1732 Y119.9768 Z0.3000 E0.02133 F1080
G1 X126.0579 Y120.3599 Z0.3000 E0.02133 F1080
G1 X125.9257 Y120.7375 Z0.3000 E0.02133 F1080
G1 X125.7769 Y121.1089 Z0.3000 E0.02133 F1080
G1 X125.6118 Y121.4732 Z0.3000 E0.02133 F1080
G1 X125.4308 Y121.8300 Z0.3000 E0.02133 F1080
G1 X125.2341 Y122.1783 Z0.3000 E0.02133 F1080
G1 X125.0222 Y122.5177 Z0.3000 E0.02133 F1080
G1 X124.7955 Y122.8473 Z0.3000 E0.02133 F1080
G1 X124.5544 Y123.1666 Z0.3000 E0.02133 F1080
G1 X124.2995 Y123.4749 Z0.3000 E0.02133 F1080
G1 X124.0312 Y123.7716 Z0.3000 E0.02133 F1080
G1 X123.7500 Y124.0562 Z0.3000 E0.02133 F1080
G1 X123.4566 Y124.3281 Z0.3000 E0.02133 F1080
G1 X123.1514 Y124.5868 Z0.3000 E0.02133 F1080
G1 X122.8352 Y124.8318 Z0.3000 E0.02133 F1080
G1 X122.5084 Y125.0625 Z0.3000 E0.02133 F1080
G1 X122.1718 Y125.2787 Z0.3000 E0.02133 F1080
G1 X121.8259 Y125.4798 Z0.3000 E0.02133 F1080
G1 X121.4716 Y125.6654 Z0.3000 E0.02133 F1080
G1 X121.1094 Y125.8353 Z0.3000 E0.02133 F1080
G1 X120.7401 Y125.9891 Z0.3000 E0.02133 F1080
G1 X120.3643 Y126.1264 Z0.3000 E0.02133 F1080
G1 X119.9829 Y126.2471 Z0.3000 E0.02133 F1080
G1 X119.5966 Y126.3509 Z0.3000 E0.02133 F1080
G1 X119.2060 Y126.4376 Z0.3000 E0.02133 F1080
G1 X118.8121 Y126.5071 Z0.3000 E0.02133 F1080
G1 X118.4154 Y126.5592 Z0.3000 E0.02133 F1080
G1 X118.0169 Y126.5938 Z0.3000 E0.02133 F1080
G1 X117.6172 Y126.6108 Z0.3000 E0.02133 F1080
G1 X117.2171 Y126.6103 Z0.3000 E0.02133 F1080
G1 X116.8175 Y126.5923 Z0.3000 E0.02133 F1080
G1 X116.4190 Y126.5567 Z0.3000 E0.02133 F1080
G1 X116.0225 Y126.5037 Z0.3000 E0.02133 F1080
G1 X115.6287 Y126.4334 Z0.3000 E0.02133 F1080
G1 X115.2383 Y126.3459 Z0.3000 E0.02133 F1080
G1 X114.8522 Y126.2413 Z0.3000 E0.02133 F1080
G1 X114.4710 Y126.1200 Z0.3000 E0.02133 F1080
G1 X114.0955 Y125.9821 Z0.3000 E0.02133 F1080
G1 X113.7263 Y125.8279 Z0.3000 E0.02133 F1080
G1 X113.3643 Y125.6576 Z0.3000 E0.02133 F1080
G1 X113.0101 Y125.4718 Z0.3000 E0.02133 F1080
G1 X112.6643 Y125.2706 Z0.3000 E0.02133 F1080
G1 X112.3276 Y125.0545 Z0.3000 E0.02133 F1080
G1 X112.0007 Y124.8238 Z0.3000 E0.02133 F1080
G1 X111.6842 Y124.5792 Z0.3000 E0.02133 F1080
G1 X111.3787 Y124.3209 Z0.3000 E0.02133 F1080
G1 X111.0847 Y124.0496 Z0.3000 E0.02133 F1080
G1 X110.8029 Y123.7657 Z0.3000 E0.02133 F1080
G1 X110.5337 Y123.4697 Z0.3000 E0.02133 F1080
G1 X110.2777 Y123.1624 Z0.3000 E0.02133 F1080
G1 X110.0353 Y122.8441 Z0.3000 E0.02133 F1080
G1 X109.8070 Y122.5156 Z0.3000 E0.02133 F1080
G1 X109.5932 Y122.1775 Z0.3000 E0.02133 F1080
G1 X109.3943 Y121.8303 Z0.3000 E0.02133 F1080
G1 X109.2108 Y121.4749 Z0.3000 E0.02133 F1080
G1 X109.0429 Y121.1118 Z0.3000 E0.02133 F1080
G1 X108.8909 Y120.7417 Z0.3000 E0.02133 F1080
G1 X108.7552 Y120.3654 Z0.3000 E0.02133 F1080
G1 X108.6359 Y119.9835 Z0.3000 E0.02133 F1080
G1 X108.5334 Y119.5969 Z0.3000 E0.02133 F1080
G1 X108.4477 Y119.2061 Z0.3000 E0.02133 F1080
G1 X108.3791 Y118.8120 Z0.3000 E0.02133 F1080
G1 X108.3277 Y118.4152 Z0.3000 E0.02133 F1080
G1 X108.2935 Y118.0167 Z0.3000 E0.02133 F1080
G1 X108.2766 Y117.6170 Z0.3000 E0.02133 F1080
G1 X108.2771 Y117.2169 Z0.3000 E0.02133 F1080
G1 X108.2950 Y116.8173 Z0.3000 E0.02133 F1080
G1 X108.3301 Y116.4188 Z0.3000 E0.02133 F1080
G1 X108.3825 Y116.0222 Z0.3000 E0.02133 F1080
G1 X108.4520 Y115.6282 Z0.3000 E0.02133 F1080
G1 X108.5385 Y115.2376 Z0.3000 E0.02133 F1080
G1 X108.6418 Y114.8511 Z0.3000 E0.02133 F1080
G1 X108.7617 Y114.4695 Z0.3000 E0.02133 F1080
G1 X108.8980 Y114.0934 Z0.3000 E0.02133 F1080
G1 X109.0504 Y113.7235 Z0.3000 E0.02133 F1080
G1 X109.2187 Y113.3606 Z0.3000 E0.02133 F1080
G1 X109.4025 Y113.0053 Z0.3000 E0.02133 F1080
G1 X109.6015 Y112.6582 Z0.3000 E0.02133 F1080
G1 X109.8153 Y112.3201 Z0.3000 E0.02133 F1080
G1 X110.0435 Y111.9915 Z0.3000 E0.02133 F1080
G1 X110.2856 Y111.6730 Z0.3000 E0.02133 F1080
G1 X110.5413 Y111.3653 Z0.3000 E0.02133 F1080
G1 X110.8099 Y111.0689 Z0.3000 E0.02133 F1080
G1 X111.0912 Y110.7844 Z0.3000 E0.02133 F1080
G1 X111.3844 Y110.5122 Z0.3000 E0.02133 F1080
G1 X111.6890 Y110.2530 Z0.3000 E0.02133 F1080
G1 X112.0045 Y110.0070 Z0.3000 E0.02133 F1080
G1 X112.3304 Y109.7749 Z0.3000 E0.02133 F1080
G1 X112.6659 Y109.5571 Z0.3000 E0.02133 F1080
G1 X113.0104 Y109.3538 Z0.3000 E0.02133 F1080
G1 X113.3634 Y109.1656 Z0.3000 E0.02133 F1080
G1 X113.7242 Y108.9927 Z0.3000 E0.02133 F1080
G1 X114.0921 Y108.8355 Z0.3000 E0.02133 F1080
G1 X114.4663 Y108.6942 Z0.3000 E0.02133 F1080
G1 X114.8463 Y108.5691 Z0.3000 E0.02133 F1080
G1 X115.2313 Y108.4605 Z0.3000 E0.02133 F1080
G1 X115.6206 Y108.3684 Z0.3000 E0.02133 F1080
G1 X116.0136 Y108.2932 Z0.3000 E0.02133 F1080
G1 X116.4093 Y108.2349 Z0.3000 E0.02133 F1080
G1 X116.8072 Y108.1936 Z0.3000 E0.02133 F1080
G1 X117.2066 Y108.1694 Z0.3000 E0.02133 F1080
G1 X117.6065 Y108.1623 Z0.3000 E0.02133 F1080
G1 X118.0065 Y108.1724 Z0.3000 E0.02133 F1080
G1 X118.4056 Y108.1995 Z0.3000 E0.02133 F1080
G1 X118.8032 Y108.2438 Z0.3000 E0.02133 F1080
G1 X119.1985 Y108.3050 Z0.3000 E0.02133 F1080
G1 X119.5909 Y108.3830 Z0.3000 E0.02133 F1080
G1 X119.9795 Y108.4778 Z0.3000 E0.02133 F1080
G1 X120.3638 Y108.5891 Z0.3000 E0.02133 F1080
G1 X120.7429 Y108.7167 Z0.3000 E0.02133 F1080
G1 X121.1163 Y108.8604 Z0.3000 E0.02133 F1080
G1 X121.4831 Y109.0199 Z0.3000 E0.02133 F1080
G1 X121.8429 Y109.1949 Z0.3000 E0.02133 F1080
G1 X122.1948 Y109.3852 Z0.3000 E0.02133 F1080
G1 X122.5383 Y109.5902 Z0.3000 E0.02133 F1080
G1 X122.8727 Y109.8097 Z0.3000 E0.02133 F1080
G1 X123.1975 Y110.0433 Z0.3000 E0.02133 F1080
G1 X123.5120 Y110.2905 Z0.3000 E0.02133 F1080
G1 X123.8157 Y110.5509 Z0.3000 E0.02133 F1080
G1 X124.1081 Y110.8240 Z0.3000 E0.02133 F1080
G1 X124.3885 Y111.1093 Z0.3000 E0.02133 F1080
G1 X124.6566 Y111.4062 Z0.3000 E0.02133 F1080
G1 X124.9117 Y111.7143 Z0.3000 E0.02133 F1080
G1 X125.1536 Y112.0330 Z0.3000 E0.02133 F1080
G1 X125.3816 Y112.3617 Z0.3000 E0.02133 F1080
G1 X125.5955 Y112.6998 Z0.3000 E0.02133 F1080
G1 X125.7948 Y113.0466 Z0.3000 E0.02133 F1080
G1 X125.9792 Y113.4016 Z0.3000 E0.02133 F1080
G1 X126.1484 Y113.7641 Z0.3000 E0.02133 F1080
G1 X126.3020 Y114.1335 Z0.3000 E0.02133 F1080
G1 X126.4398 Y114.5091 Z0.3000 E0.02133 F1080
G1 X126.5616 Y114.8902 Z0.3000 E0.02133 F1080
G1 X126.6670 Y115.2760 Z0.3000 E0.02133 F1080
G1 X126.7561 Y115.6661 Z0.3000 E0.02133 F1080
G1 X126.8285 Y116.0595 Z0.3000 E0.02133 F1080
G1 X126.8841 Y116.4557 Z0.3000 E0.02133 F1080
G1 X126.9230 Y116.8538 Z0.3000 E0.02133 F1080
G1 X126.9449 Y117.2533 Z0.3000 E0.02133 F1080
G1 X126.9499 Y117.6533 Z0.3000 E0.02133 F1080
G1 X126.9380 Y118.0531 Z0.3000 E0.02133 F1080
G1 X126.9092 Y118.4521 Z0.3000 E0.02133 F1080
G1 X126.8635 Y118.8496 Z0.3000 E0.02133 F1080
G1 X126.8011 Y119.2447 Z0.3000 E0.02133 F1080
G1 X126.7220 Y119.6369 Z0.3000 E0.02133 F1080
G1 X126.6264 Y120.0253 Z0.3000 E0.02133 F1080
G1 X126.5145 Y120.4094 Z0.3000 E0.02133 F1080
G1 X126.3865 Y120.7884 Z0.3000 E0.02133 F1080
G1 X126.2426 Y121.1617 Z0.3000 E0.02133 F1080
G1 X126.0830 Y121.5285 Z0.3000 E0.02133 F1080
G1 X125.9082 Y121.8883 Z0.3000 E0.02133 F1080
G1 X125.7183 Y122.2405 Z0.3000 E0.02133 F1080
G1 X125.5137 Y122.5842 Z0.3000 E0.02133 F1080
G1 X125.2949 Y122.9191 Z0.3000 E0.02133 F1080
G1 X125.0621 Y123.2445 Z0.3000 E0.02133 F1080
G1 X124.8158 Y123.5597 Z0.3000 E0.02133 F1080
G1 X124.5565 Y123.8643 Z0.3000 E0.02133 F1080
G1 X124.2846 Y124.1577 Z0.3000 E0.02133 F1080
G1 X124.0005 Y124.4395 Z0.3000 E0.02133 F1080
G1 X123.7049 Y124.7090 Z0.3000 E0.02133 F1080
G1 X123.3982 Y124.9658 Z0.3000 E0.02133 F1080
G1 X123.0810 Y125.2096 Z0.3000 E0.02133 F1080
G1 X122.7538 Y125.4398 Z0.3000 E0.02133 F1080
G1 X122.4173 Y125.6560 Z0.3000 E0.02133 F1080
G1 X122.0719 Y125.8579 Z0.3000 E0.02133 F1080
G1 X121.7184 Y126.0452 Z0.3000 E0.02133 F1080
G1 X121.3573 Y126.2174 Z0.3000 E0.02133 F1080
G1 X120.9893 Y126.3743 Z0.3000 E0.02133 F1080
G1 X120.6151 Y126.5157 Z0.3000 E0.02133 F1080
G1 X120.2353 Y126.6412 Z0.3000 E0.02133 F1080
G1 X119.8505 Y126.7507 Z0.3000 E0.02133 F1080
G1 X119.4615 Y126.8440 Z0.3000 E0.02133 F1080
G1 X119.0689 Y126.9209 Z0.3000 E0.02133 F1080
G1 X118.6734 Y126.9813 Z0.3000 E0.02133 F1080
G1 X118.2758 Y127.0251 Z0.3000 E0.02133 F1080
G1 X117.8767 Y127.0523 Z0.3000 E0.02133 F1080
G1 X117.4768 Y127.0626 Z0.3000 E0.02133 F1080
G1 X117.0768 Y127.0563 Z0.3000 E0.02133 F1080
G1 X116.6774 Y127.0332 Z0.3000 E0.02133 F1080
G1 X116.2793 Y126.9935 Z0.3000 E0.02133 F1080
G1 X115.8833 Y126.9372 Z0.3000 E0.02133 F1080
G1 X115.4899 Y126.8643 Z0.3000 E0.02133 F1080
G1 X115.0999 Y126.7751 Z0.3000 E0.02133 F1080
G1 X114.7140 Y126.6697 Z0.3000 E0.02133 F1080
G1 X114.3329 Y126.5483 Z0.3000 E0.02133 F1080
G1 X113.9571 Y126.4111 Z0.3000 E0.02133 F1080
G1 X113.5873 Y126.2584 Z0.3000 E0.02133 F1080
G1 X113.2243 Y126.0903 Z0.3000 E0.02133 F1080
G1 X112.8686 Y125.9073 Z0.3000 E0.02133 F1080
G1 X112.5208 Y125.7096 Z0.3000 E0.02133 F1080
G1 X112.1816 Y125.4976 Z0.3000 E0.02133 F1080
G1 X111.8514 Y125.2716 Z0.3000 E0.02133 F1080
G1 X111.5310 Y125.0321 Z0.3000 E0.02133 F1080
G1 X111.2208 Y124.7795 Z0.3000 E0.02133 F1080
G1 X110.9214 Y124.5142 Z0.3000 E0.02133 F1080
G1 X110.6333 Y124.2366 Z0.3000 E0.02133 F1080
G1 X110.3570 Y123.9474 Z0.3000 E0.02133 F1080
G1 X110.0929 Y123.6468 Z0.3000 E0.02133 F1080
G1 X109.8416 Y123.3356 Z0.3000 E0.02133 F1080
G1 X109.6034 Y123.0142 Z0.3000 E0.02133 F1080
G1 X109.3788 Y122.6832 Z0.3000 E0.02133 F1080
G1 X109.1681 Y122.3431 Z0.3000 E0.02133 F1080
G1 X108.9716 Y121.9946 Z0.3000 E0.02133 F1080
G1 X108.7899 Y121.6383 Z0.3000 E0.02133 F1080
G1 X108.6230 Y121.2747 Z0.3000 E0.02133 F1080
G1 X108.4714 Y120.9045 Z0.3000 E0.02133 F1080
G1 X108.3352 Y120.5283 Z0.3000 E0.02133 F1080
G1 X108.2148 Y120.1469 Z0.3000 E0.02133 F1080
G1 X108.1102 Y119.7607 Z0.3000 E0.02133 F1080
G1 X108.0218 Y119.3706 Z0.3000 E0.02133 F1080
G1 X107.9495 Y118.9771 Z0.3000 E0.02133 F1080
G1 X107.8937 Y118.5810 Z0.3000 E0.02133 F1080
G1 X107.8542 Y118.1829 Z0.3000 E0.02133 F1080
G1 X107.8313 Y117.7835 Z0.3000 E0.02133 F1080
G1 X107.8248 Y117.3835 Z0.3000 E0.02133 F1080
G1 X107.8350 Y116.9836 Z0.3000 E0.02133 F1080
G1 X107.8616 Y116.5844 Z0.3000 E0.02133 F1080
G1 X107.9047 Y116.1867 Z0.3000 E0.02133 F1080
G1 X107.9642 Y115.7911 Z0.3000 E0.02133 F1080
G1 X108.0400 Y115.3983 Z0.3000 E0.02133 F1080
G1 X108.1319 Y115.0090 Z0.3000 E0.02133 F1080
G1 X108.2398 Y114.6238 Z0.3000 E0.02133 F1080
G1 X108.3635 Y114.2433 Z0.3000 E0.02133 F1080
G1 X108.5028 Y113.8683 Z0.3000 E0.02133 F1080
G1 X108.6575 Y113.4994 Z0.3000 E0.02133 F1080
G1 X108.8272 Y113.1371 Z0.3000 E0.02133 F1080
G1 X109.0117 Y112.7822 Z0.3000 E0.02133 F1080
G1 X109.2106 Y112.4351 Z0.3000 E0.02133 F1080
G1 X109.4237 Y112.0965 Z0.3000 E0.02133 F1080
G1 X109.6505 Y111.7670 Z0.3000 E0.02133 F1080
G1 X109.8907 Y111.4471 Z0.3000 E0.02133 F1080
G1 X110.1439 Y111.1373 Z0.3000 E0.02133 F1080
G1 X110.4095 Y110.8382 Z0.3000 E0.02133 F1080
G1 X110.6873 Y110.5503 Z0.3000 E0.02133 F1080
G1 X110.9766 Y110.2741 Z0.3000 E0.02133 F1080
G1 X111.2771 Y110.0100 Z0.3000 E0.02133 F1080
G1 X111.5881 Y109.7584 Z0.3000 E0.02133 F1080
G1 X111.9092 Y109.5198 Z0.3000 E0.02133 F1080
G1 X112.2399 Y109.2946 Z0.3000 E0.02133 F1080
G1 X112.5795 Y109.0832 Z0.3000 E0.02133 F1080
G1 X112.9274 Y108.8858 Z0.3000 E0.02133 F1080
G1 X113.2832 Y108.7029 Z0.3000 E0.02133 F1080
G1 X113.6462 Y108.5348 Z0.3000 E0.02133 F1080
G1 X114.0158 Y108.3816 Z0.3000 E0.02133 F1080
G1 X114.3913 Y108.2438 Z0.3000 E0.02133 F1080
G1 X114.7722 Y108.1214 Z0.3000 E0.02133 F1080
G1 X115.1578 Y108.0148 Z0.3000 E0.02133 F1080
G1 X115.5474 Y107.9240 Z0.3000 E0.02133 F1080
G1 X115.9403 Y107.8492 Z0.3000 E0.02133 F1080
G1 X116.3361 Y107.7906 Z0.3000 E0.02133 F1080
G1 X116.7339 Y107.7482 Z0.3000 E0.02133 F1080
G1 X117.1331 Y107.7221 Z0.3000 E0.02133 F1080
G1 X117.5330 Y107.7123 Z0.3000 E0.02133 F1080
G1 X117.9330 Y107.7189 Z0.3000 E0.02133 F1080
G1 X118.3323 Y107.7418 Z0.3000 E0.02133 F1080
G1 X118.7305 Y107.7811 Z0.3000 E0.02133 F1080
G1 X119.1266 Y107.8365 Z0.3000 E0.02133 F1080
G1 X119.5202 Y107.9081 Z0.3000 E0.02133 F1080
G1 X119.9106 Y107.9956 Z0.3000 E0.02133 F1080
G1 X120.2970 Y108.0991 Z0.3000 E0.02133 F1080
G1 X120.6789 Y108.2181 Z0.3000 E0.02133 F1080
G1 X121.0557 Y108.3527 Z0.3000 E0.02133 F1080
G1 X121.4266 Y108.5025 Z0.3000 E0.02133 F1080
G1 X121.7911 Y108.6673 Z0.3000 E0.02133 F1080
G1 X122.1486 Y108.8468 Z0.3000 E0.02133 F1080
G1 X122.4985 Y109.0407 Z0.3000 E0.02133 F1080
G1 X122.8403 Y109.2487 Z0.3000 E0.02133 F1080
G1 X123.1732 Y109.4704 Z0.3000 E0.02133 F1080
G1 X123.4969 Y109.7055 Z0.3000 E0.02133 F1080
G1 X123.8108 Y109.9536 Z0.3000 E0.02133 F1080
G1 X124.1143 Y110.2142 Z0.3000 E0.02133 F1080
G1 X124.4069 Y110.4869 Z0.3000 E0.02133 F1080
G1 X124.6883 Y110.7713 Z0.3000 E0.02133 F1080
G1 X124.9578 Y111.0669 Z0.3000 E0.02133 F1080
G1 X125.2151 Y111.3732 Z0.3000 E0.02133 F1080
G1 X125.4598 Y111.6897 Z0.3000 E0.02133 F1080
G1 X125.6914 Y112.0159 Z0.3000 E0.02133 F1080
G1 X125.9096 Y112.3512 Z0.3000 E0.02133 F1080
G1 X126.1141 Y112.6950 Z0.3000 E0.02133 F1080
G1 X126.3044 Y113.0469 Z0.3000 E0.02133 F1080
G1 X126.4803 Y113.4062 Z0.3000 E0.02133 F1080
G1 X126.6415 Y113.7723 Z0.3000 E0.02133 F1080
G1 X126.7877 Y114.1447 Z0.3000 E0.02133 F1080
G1 X126.9187 Y114.5227 Z0.3000 E0.02133 F1080
G1 X127.0343 Y114.9056 Z0.3000 E0.02133 F1080
G1 X127.1343 Y115.2930 Z0.3000 E0.02133 F1080
G1 X127.2186 Y115.6841 Z0.3000 E0.02133 F1080
G1 X127.2869 Y116.0782 Z0.3000 E0.02133 F1080
G1 X127.3393 Y116.4748 Z0.3000 E0.02133 F1080
G1 X127.3756 Y116.8732 Z0.3000 E0.02133 F1080
G1 X127.3957 Y117.2727 Z0.3000 E0.02133 F1080
G1 X127.3997 Y117.6728 Z0.3000 E0.02133 F1080
G1 X127.3876 Y118.0726 Z0.3000 E0.02133 F1080
G1 X127.3593 Y118.4717 Z0.3000 E0.02133 F1080
G1 X127.3149 Y118.8692 Z0.3000 E0.02133 F1080
G1 X127.2545 Y119.2647 Z0.3000 E0.02133 F1080
G1 X127.1782 Y119.6574 Z0.3000 E0.02133 F1080
G1 X127.0861 Y120.0467 Z0.3000 E0.02133 F1080
G1 X126.9784 Y120.4319 Z0.3000 E0.02133 F1080
G1 X126.8552 Y120.8126 Z0.3000 E0.02133 F1080
G1 X126.7168 Y121.1879 Z0.3000 E0.02133 F1080
G1 X126.5634 Y121.5574 Z0.3000 E0.02133 F1080
G1 X126.3953 Y121.9203 Z0.3000 E0.02133 F1080
G1 X126.2126 Y122.2763 Z0.3000 E0.02133 F1080
G1 X126.0158 Y122.6245 Z0.3000 E0.02133 F1080
G1 X125.8051 Y122.9646 Z0.3000 E0.02133 F1080
G1 X125.5809 Y123.2959 Z0.3000 E0.02133 F1080
G1 X125.3436 Y123.6180 Z0.3000 E0.02133 F1080
G1 X125.0935 Y123.9302 Z0.3000 E0.02133 F1080
G1 X124.8311 Y124.2321 Z0.3000 E0.02133 F1080
G1 X124.5567 Y124.5233 Z0.3000 E0.02133 F1080
G1 X124.2709 Y124.8031 Z0.3000 E0.02133 F1080
G1 X123.9741 Y125.0713 Z0.3000 E0.02133 F1080
G1 X123.6667 Y125.3274 Z0.3000 E0.02133 F1080
G1 X123.3493 Y125.5708 Z0.3000 E0.02133 F1080
G1 X123.0224 Y125.8014 Z0.3000 E0.02133 F1080
G1 X122.6865 Y126.0187 Z0.3000 E0.02133 F1080
G1 X122.3421 Y126.2223 Z0.3000 E0.02133 F1080
G1 X121.9899 Y126.4119 Z0.3000 E0.02133 F1080
G1 X121.6304 Y126.5873 Z0.3000 E0.02133 F1080
G1 X121.2641 Y126.7482 Z0.3000 E0.02133 F1080
G1 X120.8916 Y126.8942 Z0.3000 E0.02133 F1080
G1 X120.5136 Y127.0252 Z0.3000 E0.02133 F1080
G1 X120.1307 Y127.1409 Z0.3000 E0.02133 F1080
G1 X119.7435 Y127.2413 Z0.3000 E0.02133 F1080
G1 X119.3525 Y127.3261 Z0.3000 E0.02133 F1080
G1 X118.9585 Y127.3951 Z0.3000 E0.02133 F1080
G1 X118.5620 Y127.4484 Z0.3000 E0.02133 F1080
G1 X118.1637 Y127.4857 Z0.3000 E0.02133 F1080
G1 X117.7642 Y127.5071 Z0.3000 E0.02133 F1080
G1 X117.3642 Y127.5126 Z0.3000 E0.02133 F1080
G1 X116.9643 Y127.5020 Z0.3000 E0.02133 F1080
G1 X116.5652 Y127.4755 Z0.3000 E0.02133 F1080
G1 X116.1674 Y127.4331 Z0.3000 E0.02133 F1080
G1 X115.7716 Y127.3748 Z0.3000 E0.02133 F1080
G1 X115.3785 Y127.3008 Z0.3000 E0.02133 F1080
G1 X114.9886 Y127.2111 Z0.3000 E0.02133 F1080
G1 X114.6026 Y127.1060 Z0.3000 E0.02133 F1080
G1 X114.2211 Y126.9856 Z0.3000 E0.02133 F1080
G1 X113.8447 Y126.8501 Z0.3000 E0.02133 F1080
G1 X113.4741 Y126.6997 Z0.3000 E0.02133 F1080
G1 X113.1096 Y126.5346 Z0.3000 E0.02133 F1080
G1 X112.7521 Y126.3552 Z0.3000 E0.02133 F1080
G1 X112.4020 Y126.1617 Z0.3000 E0.02133 F1080
G1 X112.0599 Y125.9544 Z0.3000 E0.02133 F1080
G1 X111.7262 Y125.7336 Z0.3000 E0.02133 F1080
G1 X111.4017 Y125.4998 Z0.3000 E0.02133 F1080
G1 X111.0866 Y125.2532 Z0.3000 E0.02133 F1080
G1 X110.7817 Y124.9943 Z0.3000 E0.02133 F1080
G1 X110.4872 Y124.7235 Z0.3000 E0.02133 F1080
G1 X110.2038 Y124.4412 Z0.3000 E0.02133 F1080
G1 X109.9318 Y124.1479 Z0.3000 E0.02133 F1080
G1 X109.6716 Y123.8440 Z0.3000 E0.02133 F1080
G1 X109.4237 Y123.5300 Z0.3000 E0.02133 F1080
G1 X109.1885 Y123.2065 Z0.3000 E0.02133 F1080
G1 X108.9663 Y122.8738 Z0.3000 E0.02133 F1080
G1 X108.7574 Y122.5326 Z0.3000 E0.02133 F1080
G1 X108.5623 Y122.1834 Z0.3000 E0.02133 F1080
G1 X108.3811 Y121.8267 Z0.3000 E0.02133 F1080
G1 X108.2143 Y121.4632 Z0.3000 E0.02133 F1080
G1 X108.0619 Y121.0933 Z0.3000 E0.02133 F1080
G1 X107.9244 Y120.7176 Z0.3000 E0.02133 F1080
G1 X107.8018 Y120.3368 Z0.3000 E0.02133 F1080
G1 X107.6943 Y119.9515 Z0.3000 E0.02133 F1080
G1 X107.6023 Y119.5622 Z0.3000 E0.02133 F1080
G1 X107.5256 Y119.1695 Z0.3000 E0.02133 F1080
G1 X107.4646 Y118.7742 Z0.3000 E0.02133 F1080
G1 X107.4193 Y118.3767 Z0.3000 E0.02133 F1080
G1 X107.3897 Y117.9778 Z0.3000 E0.02133 F1080
G1 X107.3759 Y117.5780 Z0.3000 E0.02133 F1080
G1 X107.3778 Y117.1779 Z0.3000 E0.02133 F1080
G1 X107.3956 Y116.7783 Z0.3000 E0.02133 F1080
G1 X107.4292 Y116.3797 Z0.3000 E0.02133 F1080
G1 X107.4785 Y115.9827 Z0.3000 E0.02133 F1080
G1 X107.5433 Y115.5879 Z0.3000 E0.02133 F1080
G1 X107.6238 Y115.1961 Z0.3000 E0.02133 F1080
G1 X107.7196 Y114.8077 Z0.3000 E0.02133 F1080
G1 X107.8306 Y114.4233 Z0.3000 E0.02133 F1080
G1 X107.9567 Y114.0437 Z0.3000 E0.02133 F1080
G1 X108.0977 Y113.6693 Z0.3000 E0.02133 F1080
G1 X108.2533 Y113.3008 Z0.3000 E0.02133 F1080
G1 X108.4233 Y112.9387 Z0.3000 E0.02133 F1080
G1 X108.6074 Y112.5835 Z0.3000 E0.02133 F1080
G1 X108.8054 Y112.2359 Z0.3000 E0.02133 F1080
G1 X109.0169 Y111.8963 Z0.3000 E0.02133 F1080
G1 X109.2416 Y111.5654 Z0.3000 E0.02133 F1080
G1 X109.4791 Y111.2435 Z0.3000 E0.02133 F1080
G1 X109.7291 Y110.9312 Z0.3000 E0.02133 F1080
G1 X109.9912 Y110.6290 Z0.3000 E0.02133 F1080
G1 X110.2650 Y110.3373 Z0.3000 E0.02133 F1080
G1 X110.5500 Y110.0565 Z0.3000 E0.02133 F1080
G1 X110.8458 Y109.7872 Z0.3000 E0.02133 F1080
G1 X111.1520 Y109.5298 Z0.3000 E0.02133 F1080
G1 X111.4680 Y109.2845 Z0.3000 E0.02133 F1080
G1 X111.7934 Y109.0518 Z0.3000 E0.02133 F1080
G1 X112.1277 Y108.8321 Z0.3000 E0.02133 F1080
G1 X112.4703 Y108.6256 Z0.3000 E0.02133 F1080
G1 X112.8208 Y108.4328 Z0.3000 E0.02133 F1080
G1 X113.1786 Y108.2538 Z0.3000 E0.02133 F1080
G1 X113.5431 Y108.0890 Z0.3000 E0.02133 F1080
G1 X113.9138 Y107.9386 Z0.3000 E0.02133 F1080
G1 X114.2901 Y107.8028 Z0.3000 E0.02133 F1080
G1 X114.6714 Y107.6819 Z0.3000 E0.02133 F1080
G1 X115.0572 Y107.5760 Z0.3000 E0.02133 F1080
G1 X115.4468 Y107.4853 Z0.3000 E0.02133 F1080
G1 X115.8397 Y107.4099 Z0.3000 E0.02133 F1080
G1 X116.2352 Y107.3499 Z0.3000 E0.02133 F1080
G1 X116.6328 Y107.3054 Z0.3000 E0.02133 F1080
G1 X117.0317 Y107.2765 Z0.3000 E0.02133 F1080
G1 X117.4316 Y107.2632 Z0.3000 E0.02133 F1080
G1 X117.8316 Y107.2656 Z0.3000 E0.02133 F1080
G1 X118.2312 Y107.2835 Z0.3000 E0.02133 F1080
G1 X118.6299 Y107.3171 Z0.3000 E0.02133 F1080
G1 X119.0269 Y107.3662 Z0.3000 E0.02133 F1080
G1 X119.4217 Y107.4307 Z0.3000 E0.02133 F1080
G1 X119.8136 Y107.5106 Z0.3000 E0.02133 F1080
G1 X120.2022 Y107.6058 Z0.3000 E0.02133 F1080
G1 X120.5868 Y107.7160 Z0.3000 E0.02133 F1080
G1 X120.9667 Y107.8411 Z0.3000 E0.02133 F1080
G1 X121.3415 Y107.9810 Z0.3000 E0.02133 F1080
G1 X121.7106 Y108.1353 Z0.3000 E0.02133 F1080
G1 X122.0734 Y108.3039 Z0.3000 E0.02133 F1080
G1 X122.4293 Y108.4865 Z0.3000 E0.02133 F1080
G1 X122.7779 Y108.6828 Z0.3000 E0.02133 F1080
G1 X123.1185 Y108.8925 Z0.3000 E0.02133 F1080
G1 X123.4507 Y109.1154 Z0.3000 E0.02133 F1080
G1 X123.7741 Y109.3510 Z0.3000 E0.02133 F1080
G1 X124.0880 Y109.5989 Z0.3000 E0.02133 F1080
G1 X124.3920 Y109.8589 Z0.3000 E0.02133 F1080
G1 X124.6857 Y110.1306 Z0.3000 E0.02133 F1080
G1 X124.9686 Y110.4134 Z0.3000 E0.02133 F1080
G1 X125.2403 Y110.7070 Z0.3000 E0.02133 F1080
G1 X125.5004 Y111.0109 Z0.3000 E0.02133 F1080
G1 X125.7485 Y111.3247 Z0.3000 E0.02133 F1080
G1 X125.9842 Y111.6479 Z0.3000 E0.02133 F1080
G1 X126.2073 Y111.9800 Z0.3000 E0.02133 F1080
G1 X126.4172 Y112.3205 Z0.3000 E0.02133 F1080
G1 X126.6138 Y112.6689 Z0.3000 E0.02133 F1080
G1 X126.7968 Y113.0247 Z0.3000 E0.02133 F1080
G1 X126.9658 Y113.3873 Z0.3000 E0.02133 F1080
G1 X127.1206 Y113.7561 Z0.3000 E0.02133 F1080
G1 X127.2611 Y114.1307 Z0.3000 E0.02133 F1080
G1 X127.3869 Y114.5104 Z0.3000 E0.02133 F1080
G1 X127.4979 Y114.8948 Z0.3000 E0.02133 F1080
G1 X127.5939 Y115.2831 Z0.3000 E0.02133 F1080
G1 X127.6749 Y115.6749 Z0.3000 E0.02133 F1080
G1 X127.7406 Y116.0695 Z0.3000 E0.02133 F1080
G1 X127.7910 Y116.4663 Z0.3000 E0.02133 F1080
G1 X127.8261 Y116.8648 Z0.3000 E0.02133 F1080
G1 X127.8457 Y117.2644 Z0.3000 E0.02133 F1080
G1 X127.8498 Y117.6644 Z0.3000 E0.02133 F1080
G1 X127.8385 Y118.0643 Z0.3000 E0.02133 F1080
G1 X127.8118 Y118.4634 Z0.3000 E0.02133 F1080
G1 X127.7696 Y118.8612 Z0.3000 E0.02133 F1080
G1 X127.7121 Y119.2571 Z0.3000 E0.02133 F1080
G1 X127.6394 Y119.6505 Z0.3000 E0.02133 F1080
G1 X127.5516 Y120.0408 Z0.3000 E0.02133 F1080
G1 X127.4488 Y120.4274 Z0.3000 E0.02133 F1080
G1 X127.3311 Y120.8097 Z0.3000 E0.02133 F1080
G1 X127.1988 Y121.1872 Z0.3000 E0.02133 F1080
G1 X127.0520 Y121.5594 Z0.3000 E0.02133 F1080
G1 X126.8910 Y121.9256 Z0.3000 E0.02133 F1080
G1 X126.7160 Y122.2853 Z0.3000 E0.02133 F1080
G1 X126.5273 Y122.6380 Z0.3000 E0.02133 F1080
G1 X126.3251 Y122.9832 Z0.3000 E0.02133 F1080
G1 X126.1098 Y123.3204 Z0.3000 E0.02133 F1080
G1 X125.8817 Y123.6490 Z0.3000 E0.02133 F1080
G1 X125.6411 Y123.9686 Z0.3000 E0.02133 F1080
G1 X125.3884 Y124.2787 Z0.3000 E0.02133 F1080
G1 X125.1239 Y124.5789 Z0.3000 E0.02133 F1080
G1 X124.8481 Y124.8686 Z0.3000 E0.02133 F1080
G1 X124.5614 Y125.1476 Z0.3000 E0.02133 F1080
G1 X124.2642 Y125.4153 Z0.3000 E0.02133 F1080
G1 X123.9569 Y125.6715 Z0.3000 E0.02133 F1080
G1 X123.6400 Y125.9156 Z0.3000 E0.02133 F1080
G1 X123.3139 Y126.1474 Z0.3000 E0.02133 F1080
G1 X122.9792 Y126.3665 Z0.3000 E0.02133 F1080
G1 X122.6364 Y126.5725 Z0.3000 E0.02133 F1080
G1 X122.2858 Y126.7653 Z0.3000 E0.02133 F1080
G1 X121.9282 Y126.9445 Z0.3000 E0.02133 F1080
G1 X121.5639 Y127.1099 Z0.3000 E0.02133 F1080
G1 X121.1936 Y127.2611 Z0.3000 E0.02133 F1080
G1 X120.8177 Y127.3981 Z0.3000 E0.02133 F1080
G1 X120.4369 Y127.5206 Z0.3000 E0.02133 F1080
G1 X120.0516 Y127.6284 Z0.3000 E0.02133 F1080
G1 X119.6625 Y127.7213 Z0.3000 E0.02133 F1080
G1 X119.2702 Y127.7993 Z0.3000 E0.02133 F1080
G1 X118.8751 Y127.8622 Z0.3000 E0.02133 F1080
G1 X118.4779 Y127.9100 Z0.3000 E0.02133 F1080
G1 X118.0792 Y127.9425 Z0.3000 E0.02133 F1080
G1 X117.6796 Y127.9597 Z0.3000 E0.02133 F1080
G1 X117.2795 Y127.9617 Z0.3000 E0.02133 F1080
G1 X116.8797 Y127.9484 Z0.3000 E0.02133 F1080
G1 X116.4807 Y127.9197 Z0.3000 E0.02133 F1080
G1 X116.0831 Y127.8759 Z0.3000 E0.02133 F1080
G1 X115.6874 Y127.8169 Z0.3000 E0.02133 F1080
G1 X115.2943 Y127.7429 Z0.3000 E0.02133 F1080
G1 X114.9043 Y127.6539 Z0.3000 E0.02133 F1080
G1 X114.5179 Y127.5501 Z0.3000 E0.02133 F1080
G1 X114.1359 Y127.4316 Z0.3000 E0.02133 F1080
G1 X113.7586 Y127.2986 Z0.3000 E0.02133 F1080
G1 X113.3866 Y127.1514 Z0.3000 E0.02133 F1080
G1 X113.0206 Y126.9900 Z0.3000 E0.02133 F1080
G1 X112.6609 Y126.8148 Z0.3000 E0.02133 F1080
G1 X112.3082 Y126.6261 Z0.3000 E0.02133 F1080
G1 X111.9629 Y126.4241 Z0.3000 E0.02133 F1080
G1 X111.6256 Y126.2090 Z0.3000 E0.02133 F1080
G1 X111.2967 Y125.9813 Z0.3000 E0.02133 F1080
G1 X110.9768 Y125.7412 Z0.3000 E0.02133 F1080
G1 X110.6662 Y125.4891 Z0.3000 E0.02133 F1080
G1 X110.3654 Y125.2254 Z0.3000 E0.02133 F1080
G1 X110.0748 Y124.9504 Z0.3000 E0.02133 F1080
G1 X109.7949 Y124.6646 Z0.3000 E0.02133 F1080
G1 X109.5261 Y124.3683 Z0.3000 E0.02133 F1080
G1 X109.2688 Y124.0620 Z0.3000 E0.02133 F1080
G1 X109.0232 Y123.7462 Z0.3000 E0.02133 F1080
G1 X108.7899 Y123.4213 Z0.3000 E0.02133 F1080
G1 X108.5690 Y123.0877 Z0.3000 E0.02133 F1080
G1 X108.3610 Y122.7461 Z0.3000 E0.02133 F1080
G1 X108.1661 Y122.3967 Z0.3000 E0.02133 F1080
G1 X107.9846 Y122.0402 Z0.3000 E0.02133 F1080
G1 X107.8167 Y121.6771 Z0.3000 E0.02133 F1080
G1 X107.6627 Y121.3079 Z0.3000 E0.02133 F1080
G1 X107.5229 Y120.9331 Z0.3000 E0.02133 F1080
G1 X107.3973 Y120.5533 Z0.3000 E0.02133 F1080
G1 X107.2863 Y120.1690 Z0.3000 E0.02133 F1080
G1 X107.1898 Y119.7807 Z0.3000 E0.02133 F1080
G1 X107.1082 Y119.3891 Z0.3000 E0.02133 F1080
G1 X107.0414 Y118.9947 Z0.3000 E0.02133 F1080
G1 X106.9897 Y118.5980 Z0.3000 E0.02133 F1080
G1 X106.9529 Y118.1997 Z0.3000 E0.02133 F1080
G1 X106.9313 Y117.8002 Z0.3000 E0.02133 F1080
G1 X106.9248 Y117.4002 Z0.3000 E0.02133 F1080
G1 X106.9334 Y117.0003 Z0.3000 E0.02133 F1080
G1 X106.9572 Y116.6010 Z0.3000 E0.02133 F1080
G1 X106.9960 Y116.2028 Z0.3000 E0.02133 F1080
G1 X107.0498 Y115.8064 Z0.3000 E0.02133 F1080
G1 X107.1186 Y115.4123 Z0.3000 E0.02133 F1080
G1 X107.2022 Y115.0211 Z0.3000 E0.02133 F1080
G1 X107.3006 Y114.6334 Z0.3000 E0.02133 F1080
G1 X107.4135 Y114.2496 Z0.3000 E0.02133 F1080
G1 X107.5408 Y113.8703 Z0.3000 E0.02133 F1080
G1 X107.6823 Y113.4962 Z0.3000 E0.02133 F1080
G1 X107.8378 Y113.1276 Z0.3000 E0.02133 F1080
G1 X108.0072 Y112.7652 Z0.3000 E0.02133 F1080
M106 S204  ; fan 80%
G1 E-0.2000 F3600

PRINT_END
; total filament: 45.0 mm
